{
  "type": "FeatureCollection",
  "features": [
    {
      "type": "Feature",
      "id": 685338712,
      "geometry": {
        "type": "Point",
        "coordinates": [
          -4.484727,
          54.155228
        ]
      },
      "properties": {
        "addr:city": "Douglas",
        "addr:country": "IM",
        "addr:housenumber": "16",
        "addr:postcode": "IM1 3AL",
        "addr:street": "Woodbourne Road",
        "addr:substreet": "Prospect Terrace",
        "charity": "yes",
        "contact:facebook": "https://www.facebook.com/crossroadscharityshops/",
        "contact:phone": "+44 1624 673580",
        "name": "Crossroads Caring for Carers",
        "opening_hours": "Mo-Sa 10:00-17:00",
        "operator": "Crossroads Care",
        "operator:type": "charitable",
        "ref:charity": "383",
        "shop": "charity",
        "website": "https://www.crossroadsiom.org/",
        "osm_id": 685338712,
        "lon": -4.484727,
        "lat": 54.155228,
        "osm_type": "node",
        "osm_url": "https://osm.org/node/685338712"
      }
    },
    {
      "type": "Feature",
      "id": 8567404081,
      "geometry": {
        "type": "Point",
        "coordinates": [
          -4.617924,
          54.17026
        ]
      },
      "properties": {
        "amenity": "animal_shelter",
        "charity": "animal",
        "name": "Ard Jerkyll",
        "operator": "ManxSPCA",
        "ref:charity": "26A",
        "website": "https://www.manxspca.com",
        "osm_id": 8567404081,
        "lon": -4.617924,
        "lat": 54.17026,
        "osm_type": "node",
        "osm_url": "https://osm.org/node/8567404081"
      }
    },
    {
      "type": "Feature",
      "id": 10829691498,
      "geometry": {
        "type": "Point",
        "coordinates": [
          -4.379619,
          54.320828
        ]
      },
      "properties": {
        "addr:city": "Ramsey",
        "addr:country": "IM",
        "addr:place": "Saint Paul's Square",
        "charity": "yes",
        "contact:facebook": "https://www.facebook.com/p/Treasured-100070007569320/",
        "name": "Treasured",
        "ref:charity": "1321",
        "shop": "charity",
        "osm_id": 10829691498,
        "lon": -4.379619,
        "lat": 54.320828,
        "osm_type": "node",
        "osm_url": "https://osm.org/node/10829691498"
      }
    },
    {
      "type": "Feature",
      "id": 11800214430,
      "geometry": {
        "type": "Point",
        "coordinates": [
          -4.385771,
          54.322185
        ]
      },
      "properties": {
        "addr:city": "Ramsey",
        "addr:housenumber": "87",
        "addr:postcode": "IM8 1AJ",
        "addr:street": "Parliament Street",
        "addr:unit": "3",
        "charity": "yes",
        "fixme": "check position",
        "name": "Age Concern Isle of Man",
        "operator": "Age Concern Isle of Man",
        "ref:charity": "549",
        "shop": "charity",
        "website": "https://www.ageconcern.im/",
        "osm_id": 11800214430,
        "lon": -4.385771,
        "lat": 54.322185,
        "osm_type": "node",
        "osm_url": "https://osm.org/node/11800214430"
      }
    },
    {
      "type": "Feature",
      "id": 59384494,
      "geometry": {
        "type": "LineString",
        "coordinates": [
          [
            -4.469835,
            54.14479
          ],
          [
            -4.469624,
            54.144918
          ],
          [
            -4.469667,
            54.144942
          ],
          [
            -4.46971,
            54.144967
          ],
          [
            -4.469921,
            54.144839
          ],
          [
            -4.469877,
            54.144813
          ],
          [
            -4.469835,
            54.14479
          ]
        ]
      },
      "properties": {
        "addr:country": "IM",
        "addr:street": "Battery Pier",
        "building": "yes",
        "charity": "lifeboat",
        "emergency": "water_rescue",
        "name": "Douglas Lifeboat Station",
        "operator": "Royal National Lifeboat Institution",
        "operator:short": "RNLI",
        "operator:type": "charitable",
        "operator:wikidata": "Q2166873",
        "postal_code": "IM1 5BT",
        "seamark:name": "Douglas Lifeboat Station",
        "seamark:rescue_station:category": "lifeboat",
        "seamark:type": "rescue_station",
        "source": "Isle of Man Government aerial imagery (2001)",
        "website": "https://rnli.org/find-my-nearest/lifeboat-stations/douglas-lifeboat-station",
        "osm_id": 59384494,
        "lon": -4.46977254543524,
        "lat": 54.1448784218384,
        "osm_type": "way",
        "osm_url": "https://osm.org/way/59384494"
      }
    },
    {
      "type": "Feature",
      "id": 59384842,
      "geometry": {
        "type": "LineString",
        "coordinates": [
          [
            -4.480753,
            54.151986
          ],
          [
            -4.480771,
            54.151987
          ],
          [
            -4.480774,
            54.151967
          ],
          [
            -4.480973,
            54.151976
          ],
          [
            -4.480963,
            54.152058
          ],
          [
            -4.480744,
            54.152048
          ],
          [
            -4.480753,
            54.151986
          ]
        ]
      },
      "properties": {
        "addr:city": "Douglas",
        "addr:country": "IM",
        "addr:housenumber": "20",
        "addr:postcode": "IM1 2PT",
        "addr:street": "Finch Road",
        "amenity": "place_of_worship",
        "building": "yes",
        "charity": "yes",
        "contact:website": "http://www.iomia.com/",
        "denomination": "sunni",
        "listed_status": "Registered",
        "name": "Isle of Man Mosque",
        "opening_hours": "09:00-18:00",
        "operator": "Isle of Man Islamic Association",
        "operator:type": "charitable",
        "ref:charity": "432",
        "ref:registered_building": "100",
        "religion": "muslim",
        "source": "Isle of Man Government aerial imagery (2001)",
        "url:registered_building": "https://www.gov.im/media/632129/0500100regbld20finchroad.pdf",
        "wikidata": "Q118188645",
        "osm_id": 59384842,
        "lon": -4.480859442005198,
        "lat": 54.152012796366584,
        "osm_type": "way",
        "osm_url": "https://osm.org/way/59384842"
      }
    },
    {
      "type": "Feature",
      "id": 59700895,
      "geometry": {
        "type": "LineString",
        "coordinates": [
          [
            -4.697883,
            54.227006
          ],
          [
            -4.698034,
            54.226971
          ],
          [
            -4.698158,
            54.227151
          ],
          [
            -4.698007,
            54.227186
          ],
          [
            -4.697883,
            54.227006
          ]
        ]
      },
      "properties": {
        "addr:city": "Peel",
        "addr:country": "IM",
        "addr:postcode": "IM5 1TG",
        "addr:street": "West Quay",
        "building": "yes",
        "charity": "lifeboat",
        "emergency": "water_rescue",
        "name": "Peel Lifeboat Station",
        "operator": "Royal National Lifeboat Institution",
        "operator:short": "RNLI",
        "operator:type": "charitable",
        "operator:wikidata": "Q2166873",
        "operator:wikipedia": "en:Royal National Lifeboat Institution",
        "seamark:name": "Peel Lifeboat Station",
        "seamark:rescue_station:category": "lifeboat",
        "seamark:type": "rescue_station",
        "source": "Isle of Man Government aerial imagery (2001)",
        "website": "https://rnli.org/find-my-nearest/lifeboat-stations/peel-lifeboat-station",
        "osm_id": 59700895,
        "lon": -4.6980205,
        "lat": 54.227078500000005,
        "osm_type": "way",
        "osm_url": "https://osm.org/way/59700895"
      }
    },
    {
      "type": "Feature",
      "id": 60007259,
      "geometry": {
        "type": "LineString",
        "coordinates": [
          [
            -4.767893,
            54.085094
          ],
          [
            -4.767971,
            54.085078
          ],
          [
            -4.768168,
            54.085081
          ],
          [
            -4.768203,
            54.085147
          ],
          [
            -4.768071,
            54.085173
          ],
          [
            -4.768105,
            54.085232
          ],
          [
            -4.768063,
            54.085241
          ],
          [
            -4.768025,
            54.085249
          ],
          [
            -4.767987,
            54.085256
          ],
          [
            -4.767893,
            54.085094
          ]
        ]
      },
      "properties": {
        "addr:city": "Port Erin",
        "addr:country": "IM",
        "addr:postcode": "IM9 6JA",
        "addr:street": "Breakwater Road",
        "building": "yes",
        "charity": "lifeboat",
        "emergency": "water_rescue",
        "name": "Port Erin Lifeboat Station",
        "not:addr:postcode": "IM9 6BU",
        "operator": "Royal National Lifeboat Institution",
        "operator:short": "RNLI",
        "operator:type": "charitable",
        "operator:wikidata": "Q2166873",
        "operator:wikipedia": "en:Royal National Lifeboat Institution",
        "seamark:name": "Port Erin Lifeboat Station",
        "seamark:rescue_station:category": "lifeboat",
        "seamark:type": "rescue_station",
        "source": "Isle of Man Government aerial imagery (2001)",
        "website": "https://rnli.org/find-my-nearest/lifeboat-stations/port-erin-lifeboat-station",
        "osm_id": 60007259,
        "lon": -4.76804743059415,
        "lat": 54.0851491789085,
        "osm_type": "way",
        "osm_url": "https://osm.org/way/60007259"
      }
    },
    {
      "type": "Feature",
      "id": 62241469,
      "geometry": {
        "type": "LineString",
        "coordinates": [
          [
            -4.48459,
            54.154845
          ],
          [
            -4.484557,
            54.154771
          ],
          [
            -4.484538,
            54.154763
          ],
          [
            -4.484283,
            54.154771
          ],
          [
            -4.484304,
            54.154827
          ],
          [
            -4.484427,
            54.154824
          ],
          [
            -4.484448,
            54.154868
          ],
          [
            -4.48459,
            54.154845
          ]
        ]
      },
      "properties": {
        "addr:city": "Douglas",
        "addr:postcode": "IM1 3AL",
        "addr:street": "Woodbourne Road",
        "addr:substreet": "Prospect Terrace",
        "building": "yes",
        "charity": "yes",
        "contact:facebook": "https://www.facebook.com/crossroadscharityshops/",
        "contact:phone": "+44 1624 611363",
        "name": "Crossroads Care",
        "opening_hours": "Mo-Sa 10:00-17:00",
        "operator": "Crossroads Care",
        "operator:type": "charitable",
        "ref:charity": "383",
        "shop": "furniture",
        "source": "Isle of Man Government aerial imagery (2001);survey;",
        "website": "https://www.crossroadsiom.org/",
        "osm_id": 62241469,
        "lon": -4.484438389784577,
        "lat": 54.15480682399747,
        "osm_type": "way",
        "osm_url": "https://osm.org/way/62241469"
      }
    },
    {
      "type": "Feature",
      "id": 79144725,
      "geometry": {
        "type": "LineString",
        "coordinates": [
          [
            -4.498957,
            54.169932
          ],
          [
            -4.49878,
            54.169975
          ],
          [
            -4.498761,
            54.169948
          ],
          [
            -4.498653,
            54.169795
          ],
          [
            -4.498729,
            54.169776
          ],
          [
            -4.498829,
            54.169752
          ],
          [
            -4.498957,
            54.169932
          ]
        ]
      },
      "properties": {
        "addr:city": "Cronkbourne",
        "addr:country": "IM",
        "addr:housename": "Ballafletcher House",
        "addr:postcode": "IM4 4QE",
        "addr:street": "Ballafletcher Farm Road",
        "building": "commercial",
        "charity": "food",
        "contact:facebook": "https://www.facebook.com/IOMFoodbank/",
        "name": "Isle of Man Foodbank",
        "ref:charity": "1148",
        "social_facility": "food_bank",
        "source": "Isle of Man Government aerial imagery (2001)",
        "website": "https://isleofmanfoodbank.wordpress.com/",
        "osm_id": 79144725,
        "lon": -4.498804883569311,
        "lat": 54.169863543923796,
        "osm_type": "way",
        "osm_url": "https://osm.org/way/79144725"
      }
    },
    {
      "type": "Feature",
      "id": 79372980,
      "geometry": {
        "type": "LineString",
        "coordinates": [
          [
            -4.501548,
            54.153873
          ],
          [
            -4.501645,
            54.153853
          ],
          [
            -4.501642,
            54.153845
          ],
          [
            -4.501772,
            54.15382
          ],
          [
            -4.501844,
            54.153969
          ],
          [
            -4.501811,
            54.153978
          ],
          [
            -4.501701,
            54.153996
          ],
          [
            -4.501671,
            54.153937
          ],
          [
            -4.501616,
            54.15395
          ],
          [
            -4.501625,
            54.153959
          ],
          [
            -4.50154,
            54.153968
          ],
          [
            -4.501529,
            54.153926
          ],
          [
            -4.501578,
            54.153919
          ],
          [
            -4.501548,
            54.153873
          ]
        ]
      },
      "properties": {
        "addr:city": "Douglas",
        "addr:country": "IM",
        "addr:housename": "Scholl Building",
        "addr:lot": "Fire Headquarters",
        "addr:postcode": "IM1 5ED",
        "addr:street": "Peel Road",
        "building": "yes",
        "charity": "yes",
        "name": "Hyperbaric Medicine Facility",
        "operator": "HBOT IOM",
        "operator:type": "charitable",
        "ref:charity": "1274",
        "source": "bing",
        "website": "https://www.hbot.im",
        "osm_id": 79372980,
        "lon": -4.501679924158987,
        "lat": 54.15391541663271,
        "osm_type": "way",
        "osm_url": "https://osm.org/way/79372980"
      }
    },
    {
      "type": "Feature",
      "id": 92112419,
      "geometry": {
        "type": "LineString",
        "coordinates": [
          [
            -4.617991,
            54.170116
          ],
          [
            -4.617987,
            54.170204
          ],
          [
            -4.617733,
            54.1702
          ],
          [
            -4.617733,
            54.170189
          ],
          [
            -4.617669,
            54.170189
          ],
          [
            -4.617672,
            54.170111
          ],
          [
            -4.617991,
            54.170116
          ]
        ]
      },
      "properties": {
        "addr:postcode": "IM4 3HL",
        "amenity": "cafe",
        "animal": "shelter",
        "building": "yes",
        "charity": "animal",
        "name": "Ard Jerkyll",
        "operator": "ManxSPCA",
        "ref:charity": "26A",
        "website": "https://www.manxspca.com",
        "wheelchair": "limited",
        "osm_id": 92112419,
        "lon": -4.617830408676382,
        "lat": 54.17015667033654,
        "osm_type": "way",
        "osm_url": "https://osm.org/way/92112419"
      }
    },
    {
      "type": "Feature",
      "id": 101756496,
      "geometry": {
        "type": "LineString",
        "coordinates": [
          [
            -4.758402,
            54.085398
          ],
          [
            -4.758555,
            54.085402
          ],
          [
            -4.758557,
            54.085482
          ],
          [
            -4.758483,
            54.085482
          ],
          [
            -4.758483,
            54.085496
          ],
          [
            -4.758542,
            54.085496
          ],
          [
            -4.758541,
            54.085546
          ],
          [
            -4.758513,
            54.085546
          ],
          [
            -4.75842,
            54.085545
          ],
          [
            -4.758394,
            54.085545
          ],
          [
            -4.758394,
            54.085531
          ],
          [
            -4.758402,
            54.085398
          ]
        ]
      },
      "properties": {
        "addr:city": "Port Erin",
        "addr:country": "IM",
        "addr:housenumber": "5",
        "addr:postcode": "IM9 6AE",
        "addr:street": "Station Road",
        "building": "retail",
        "building:levels": "1",
        "charity": "yes",
        "name": "Age Concern Isle of Man",
        "operator": "Age Concern Isle of Man",
        "phone": "+44 1624 835412",
        "ref:charity": "549",
        "shop": "charity",
        "website": "https://www.ageconcern.im/",
        "osm_id": 101756496,
        "lon": -4.758479834540386,
        "lat": 54.08547497455477,
        "osm_type": "way",
        "osm_url": "https://osm.org/way/101756496"
      }
    },
    {
      "type": "Feature",
      "id": 101875153,
      "geometry": {
        "type": "LineString",
        "coordinates": [
          [
            -4.734669,
            54.07045
          ],
          [
            -4.734602,
            54.070403
          ],
          [
            -4.734398,
            54.070504
          ],
          [
            -4.734464,
            54.07055
          ],
          [
            -4.734546,
            54.07051
          ],
          [
            -4.734669,
            54.07045
          ]
        ]
      },
      "properties": {
        "addr:city": "Port Saint Mary",
        "addr:country": "IM",
        "addr:housename": "Lifeboat Station",
        "addr:postcode": "IM9 5EF",
        "addr:street": "Lime Street",
        "building": "house",
        "charity": "lifeboat",
        "emergency": "water_rescue",
        "listed_status": "Registered",
        "name": "Port St Mary Lifeboat Station",
        "operator": "Royal National Lifeboat Institution",
        "operator:short": "RNLI",
        "operator:type": "charitable",
        "operator:wikidata": "Q2166873",
        "operator:wikipedia": "en:Royal National Lifeboat Institution",
        "ref:registered_building": "304",
        "seamark:name": "Port St Mary Lifeboat Station",
        "seamark:rescue_station:category": "lifeboat",
        "seamark:type": "rescue_station",
        "start_date": "1898",
        "url:registered_building": "https://www.gov.im/media/1373623/304-notice-and-entry-summary.pdf",
        "website": "https://rnli.org/find-my-nearest/lifeboat-stations/port-st-mary-lifeboat-station",
        "wikidata": "Q118188708",
        "osm_id": 101875153,
        "lon": -4.734533504955618,
        "lat": 54.07047665394243,
        "osm_type": "way",
        "osm_url": "https://osm.org/way/101875153"
      }
    },
    {
      "type": "Feature",
      "id": 102635562,
      "geometry": {
        "type": "LineString",
        "coordinates": [
          [
            -4.380222,
            54.321224
          ],
          [
            -4.38015,
            54.321263
          ],
          [
            -4.380036,
            54.321193
          ],
          [
            -4.380108,
            54.321153
          ],
          [
            -4.380222,
            54.321224
          ]
        ]
      },
      "properties": {
        "addr:city": "Ramsey",
        "addr:country": "IM",
        "addr:housenumber": "3",
        "addr:postcode": "IM8 1JT",
        "addr:street": "Market Hill",
        "building": "yes",
        "charity": "lifeboat",
        "name": "Royal National Lifeboat Institute",
        "operator:type": "charitable",
        "shop": "gift",
        "source": "Bing",
        "website": "https://rnli.org/find-my-nearest/shops/ramsey-rnli-shop",
        "osm_id": 102635562,
        "lon": -4.3801289803831915,
        "lat": 54.32120818675557,
        "osm_type": "way",
        "osm_url": "https://osm.org/way/102635562"
      }
    },
    {
      "type": "Feature",
      "id": 102737932,
      "geometry": {
        "type": "LineString",
        "coordinates": [
          [
            -4.378363,
            54.322623
          ],
          [
            -4.37831,
            54.322548
          ],
          [
            -4.37862,
            54.322474
          ],
          [
            -4.378673,
            54.32255
          ],
          [
            -4.378363,
            54.322623
          ]
        ]
      },
      "properties": {
        "addr:city": "Ramsey",
        "addr:country": "IM",
        "addr:housename": "New Norbury Boat House",
        "addr:street": "South Promenade",
        "building": "yes",
        "charity": "lifeboat",
        "emergency": "water_rescue",
        "name": "Ramsey Lifeboat Station",
        "operator": "Royal National Lifeboat Institution",
        "operator:short": "RNLI",
        "operator:type": "charitable",
        "operator:wikidata": "Q2166873",
        "operator:wikipedia": "en:Royal National Lifeboat Institution",
        "seamark:name": "Ramsey Lifeboat Station",
        "seamark:rescue_station:category": "lifeboat",
        "seamark:type": "rescue_station",
        "website": "https://rnli.org/find-my-nearest/lifeboat-stations/ramsey-lifeboat-station",
        "osm_id": 102737932,
        "lon": -4.378491646952664,
        "lat": 54.32254870279498,
        "osm_type": "way",
        "osm_url": "https://osm.org/way/102737932"
      }
    },
    {
      "type": "Feature",
      "id": 102856158,
      "geometry": {
        "type": "LineString",
        "coordinates": [
          [
            -4.383947,
            54.322212
          ],
          [
            -4.384014,
            54.322215
          ],
          [
            -4.383993,
            54.322351
          ],
          [
            -4.383927,
            54.322347
          ],
          [
            -4.383935,
            54.322294
          ],
          [
            -4.383947,
            54.322212
          ]
        ]
      },
      "properties": {
        "addr:city": "Ramsey",
        "addr:country": "IM",
        "addr:housenumber": "62",
        "addr:postcode": "IM8 1AJ",
        "addr:street": "Parliament Street",
        "building": "yes",
        "charity": "animal",
        "name": "Bridge Bookshop",
        "shop": "books",
        "website": "https://www.bridge-bookshop.com/",
        "osm_id": 102856158,
        "lon": -4.3839703910027605,
        "lat": 54.322281101127835,
        "osm_type": "way",
        "osm_url": "https://osm.org/way/102856158"
      }
    },
    {
      "type": "Feature",
      "id": 102856161,
      "geometry": {
        "type": "LineString",
        "coordinates": [
          [
            -4.384014,
            54.322215
          ],
          [
            -4.384071,
            54.322218
          ],
          [
            -4.384054,
            54.322332
          ],
          [
            -4.38405,
            54.322354
          ],
          [
            -4.383993,
            54.322351
          ],
          [
            -4.384014,
            54.322215
          ]
        ]
      },
      "properties": {
        "addr:city": "Ramsey",
        "addr:country": "IM",
        "addr:housenumber": "64",
        "addr:street": "Parliament Street",
        "building": "yes",
        "charity": "animal",
        "name": "ManxSPCA",
        "operator": "ManxSPCA",
        "ref:charity": "26A",
        "shop": "charity",
        "osm_id": 102856161,
        "lon": -4.384032104587958,
        "lat": 54.322284517223444,
        "osm_type": "way",
        "osm_url": "https://osm.org/way/102856161"
      }
    },
    {
      "type": "Feature",
      "id": 104794522,
      "geometry": {
        "type": "LineString",
        "coordinates": [
          [
            -4.503048,
            54.173847
          ],
          [
            -4.502446,
            54.173888
          ],
          [
            -4.502421,
            54.173758
          ],
          [
            -4.503111,
            54.173712
          ],
          [
            -4.503048,
            54.173385
          ],
          [
            -4.503161,
            54.173378
          ],
          [
            -4.503164,
            54.173396
          ],
          [
            -4.503212,
            54.173393
          ],
          [
            -4.503225,
            54.173459
          ],
          [
            -4.503327,
            54.173452
          ],
          [
            -4.503328,
            54.173459
          ],
          [
            -4.503428,
            54.173453
          ],
          [
            -4.503442,
            54.173525
          ],
          [
            -4.503351,
            54.173532
          ],
          [
            -4.503353,
            54.173541
          ],
          [
            -4.503299,
            54.173545
          ],
          [
            -4.50334,
            54.173755
          ],
          [
            -4.503351,
            54.173811
          ],
          [
            -4.503314,
            54.173832
          ],
          [
            -4.503349,
            54.174095
          ],
          [
            -4.503293,
            54.174131
          ],
          [
            -4.503338,
            54.174363
          ],
          [
            -4.503156,
            54.174488
          ],
          [
            -4.502903,
            54.174504
          ],
          [
            -4.50288,
            54.174377
          ],
          [
            -4.503052,
            54.174367
          ],
          [
            -4.502954,
            54.174321
          ],
          [
            -4.503041,
            54.174257
          ],
          [
            -4.503137,
            54.174301
          ],
          [
            -4.503109,
            54.174157
          ],
          [
            -4.502979,
            54.174165
          ],
          [
            -4.502956,
            54.174048
          ],
          [
            -4.503085,
            54.174039
          ],
          [
            -4.503048,
            54.173847
          ]
        ]
      },
      "properties": {
        "addr:city": "Douglas",
        "addr:country": "IM",
        "addr:housename": "Hospice, Isle of Man",
        "addr:place": "Strang",
        "addr:postcode": "IM4 4RP",
        "building": "yes",
        "charity": "yes",
        "healthcare": "hospice",
        "name": "Hospice, Isle of Man",
        "operator": "Hospice Care",
        "operator:type": "charitable",
        "phone": "+44 1624 647400",
        "ref:charity": "317",
        "smoking": "no",
        "source": "Bing",
        "website": "https://www.hospice.org.im",
        "osm_id": 104794522,
        "lon": -4.503040078207592,
        "lat": 54.17393238991956,
        "osm_type": "way",
        "osm_url": "https://osm.org/way/104794522"
      }
    },
    {
      "type": "Feature",
      "id": 146972088,
      "geometry": {
        "type": "LineString",
        "coordinates": [
          [
            -4.694878,
            54.22269
          ],
          [
            -4.694993,
            54.222682
          ],
          [
            -4.695008,
            54.222662
          ],
          [
            -4.694862,
            54.222551
          ],
          [
            -4.694817,
            54.222576
          ],
          [
            -4.694845,
            54.222626
          ],
          [
            -4.694878,
            54.22269
          ]
        ]
      },
      "properties": {
        "addr:city": "Peel",
        "addr:country": "IM",
        "addr:housenumber": "2",
        "addr:street": "Michael Street",
        "building": "yes",
        "charity": "yes",
        "name": "Hospice",
        "ref:charity": "317",
        "shop": "charity",
        "website": "https://www.hospiceshops.com",
        "osm_id": 146972088,
        "lon": -4.694906309911381,
        "lat": 54.22263025093368,
        "osm_type": "way",
        "osm_url": "https://osm.org/way/146972088"
      }
    },
    {
      "type": "Feature",
      "id": 152690581,
      "geometry": {
        "type": "LineString",
        "coordinates": [
          [
            -4.482116,
            54.151824
          ],
          [
            -4.482033,
            54.151824
          ],
          [
            -4.482033,
            54.15191
          ],
          [
            -4.482061,
            54.15191
          ],
          [
            -4.482061,
            54.151986
          ],
          [
            -4.482116,
            54.151986
          ],
          [
            -4.482116,
            54.151912
          ],
          [
            -4.482116,
            54.151824
          ]
        ]
      },
      "properties": {
        "addr:city": "Douglas",
        "addr:country": "IM",
        "addr:housenumber": "6",
        "addr:postcode": "IM1 2QA",
        "addr:street": "Albert Street",
        "building": "yes",
        "charity": "yes",
        "contact:facebook": "http://www.facebook.com/victimsupportiom",
        "name": "Victim Support Isle of Man",
        "office": "charity",
        "operator": "Victim Support (Isle of Man)",
        "operator:type": "charitable",
        "ref:charity": "963",
        "source:addr:housenumber": "interpolation",
        "website": "https://www.victimsupport.im/",
        "osm_id": 152690581,
        "lon": -4.482078842857143,
        "lat": 54.15190065714285,
        "osm_type": "way",
        "osm_url": "https://osm.org/way/152690581"
      }
    },
    {
      "type": "Feature",
      "id": 183946915,
      "geometry": {
        "type": "LineString",
        "coordinates": [
          [
            -4.572982,
            54.123909
          ],
          [
            -4.572826,
            54.123844
          ],
          [
            -4.572816,
            54.123852
          ],
          [
            -4.57275,
            54.123825
          ],
          [
            -4.572701,
            54.123864
          ],
          [
            -4.572776,
            54.123895
          ],
          [
            -4.572726,
            54.123936
          ],
          [
            -4.572604,
            54.123886
          ],
          [
            -4.57252,
            54.123955
          ],
          [
            -4.572607,
            54.123992
          ],
          [
            -4.572657,
            54.123951
          ],
          [
            -4.572838,
            54.124027
          ],
          [
            -4.572982,
            54.123909
          ]
        ]
      },
      "properties": {
        "addr:city": "Santon",
        "addr:postcode": "IM4 1EE",
        "addr:street": "Santon Main Road",
        "amenity": "animal_shelter",
        "animal_shelter": "cat",
        "building": "yes",
        "charity": "yes",
        "name": "Mann Cat Sanctuary",
        "operator": "Mann Cat Sanctuary",
        "operator:type": "charitable",
        "ref:charity": "705",
        "website": "https://www.manncat.com",
        "osm_id": 183946915,
        "lon": -4.57274941834688,
        "lat": 54.123925906130445,
        "osm_type": "way",
        "osm_url": "https://osm.org/way/183946915"
      }
    },
    {
      "type": "Feature",
      "id": 233925097,
      "geometry": {
        "type": "LineString",
        "coordinates": [
          [
            -4.405978,
            54.231485
          ],
          [
            -4.405955,
            54.231421
          ],
          [
            -4.406396,
            54.231367
          ],
          [
            -4.406419,
            54.231431
          ],
          [
            -4.406275,
            54.231449
          ],
          [
            -4.405978,
            54.231485
          ]
        ]
      },
      "properties": {
        "addr:city": "Laxey",
        "addr:housenumber": "17",
        "addr:postcode": "IM4 7BD",
        "addr:street": "New Road",
        "alt_name": "The Institute;Working Men's Institute",
        "building": "yes",
        "building:start_date": "1877",
        "charity": "yes",
        "club": "social",
        "listed_status": "Registered",
        "name": "Laxey Working Men's Club",
        "operator": "Laxey Working Men's Institute",
        "operator:type": "charitable",
        "ref:charity": "741;1104",
        "ref:registered_building": "227",
        "source": "Bing",
        "url:registered_building": "https://www.gov.im/media/632537/0500227regbldlaxeyworkingmensinst.pdf",
        "website": "https://theinstitute.im/",
        "wikidata": "Q118188754",
        "osm_id": 233925097,
        "lon": -4.406187009666851,
        "lat": 54.23142607848407,
        "osm_type": "way",
        "osm_url": "https://osm.org/way/233925097"
      }
    },
    {
      "type": "Feature",
      "id": 328917787,
      "geometry": {
        "type": "LineString",
        "coordinates": [
          [
            -4.70333,
            54.094495
          ],
          [
            -4.70295,
            54.094561
          ],
          [
            -4.70284,
            54.094339
          ],
          [
            -4.70322,
            54.094274
          ],
          [
            -4.70333,
            54.094495
          ]
        ]
      },
      "properties": {
        "addr:city": "Colby",
        "addr:country": "IM",
        "addr:postcode": "IM9 4LR",
        "addr:street": "Colby Main Road",
        "building": "yes",
        "charity": "sport",
        "club": "sport",
        "contact:facebook": "https://www.facebook.com/Colbyfootballclub/",
        "name": "Colby AFC",
        "ref:charity": "832",
        "sport": "soccer",
        "website": "https://colbyafc.com",
        "wikidata": "Q2253674",
        "wikipedia": "en:Colby A.F.C.",
        "osm_id": 328917787,
        "lon": -4.703084872946073,
        "lat": 54.094417288033966,
        "osm_type": "way",
        "osm_url": "https://osm.org/way/328917787"
      }
    },
    {
      "type": "Feature",
      "id": 412956708,
      "geometry": {
        "type": "LineString",
        "coordinates": [
          [
            -4.404141,
            54.319783
          ],
          [
            -4.40413,
            54.319685
          ],
          [
            -4.404072,
            54.319688
          ],
          [
            -4.404013,
            54.31969
          ],
          [
            -4.404016,
            54.319716
          ],
          [
            -4.40399,
            54.319727
          ],
          [
            -4.403993,
            54.319759
          ],
          [
            -4.404024,
            54.319769
          ],
          [
            -4.404029,
            54.319798
          ],
          [
            -4.403999,
            54.3198
          ],
          [
            -4.403712,
            54.319813
          ],
          [
            -4.403721,
            54.319881
          ],
          [
            -4.403723,
            54.319898
          ],
          [
            -4.403687,
            54.3199
          ],
          [
            -4.403692,
            54.319939
          ],
          [
            -4.403729,
            54.319938
          ],
          [
            -4.40374,
            54.320015
          ],
          [
            -4.404172,
            54.319994
          ],
          [
            -4.404167,
            54.319959
          ],
          [
            -4.403995,
            54.319967
          ],
          [
            -4.403984,
            54.319885
          ],
          [
            -4.404225,
            54.319873
          ],
          [
            -4.404217,
            54.319819
          ],
          [
            -4.404256,
            54.319817
          ],
          [
            -4.404278,
            54.319969
          ],
          [
            -4.404299,
            54.319968
          ],
          [
            -4.404302,
            54.319988
          ],
          [
            -4.404412,
            54.319983
          ],
          [
            -4.404397,
            54.319879
          ],
          [
            -4.404364,
            54.319881
          ],
          [
            -4.404346,
            54.319773
          ],
          [
            -4.404196,
            54.31978
          ],
          [
            -4.404141,
            54.319783
          ]
        ]
      },
      "properties": {
        "addr:city": "Ramsey",
        "addr:housename": "Milntown House",
        "addr:postcode": "IM7 2AB",
        "addr:street": "Lezayre Road",
        "alt_name": "Milntown House",
        "building": "yes",
        "charity": "yes",
        "historic": "house",
        "listed_status": "Registered",
        "name": "Milntown Estate & Gardens",
        "old_name": "Altadale",
        "operator": "The Milntown Trust",
        "operator:type": "charitable",
        "ref:charity": "754",
        "ref:registered_building": "168",
        "tourism": "attraction",
        "url:registered_building": "https://www.gov.im/media/632555/0500168regbldmilntownmansion.pdf",
        "website": "https://www.milntown.org/",
        "wikidata": "Q118188757",
        "osm_id": 412956708,
        "lon": -4.4040672251798325,
        "lat": 54.319878593436044,
        "osm_type": "way",
        "osm_url": "https://osm.org/way/412956708"
      }
    },
    {
      "type": "Feature",
      "id": 753425840,
      "geometry": {
        "type": "LineString",
        "coordinates": [
          [
            -4.484091,
            54.154636
          ],
          [
            -4.484182,
            54.154638
          ],
          [
            -4.484176,
            54.154491
          ],
          [
            -4.484087,
            54.154492
          ],
          [
            -4.484091,
            54.154636
          ]
        ]
      },
      "properties": {
        "addr:city": "Douglas",
        "addr:country": "IM",
        "addr:housenumber": "2",
        "addr:postcode": "IM1 3JY",
        "addr:street": "Windsor Road",
        "building": "yes",
        "charity": "yes",
        "fixme": "still charity office, even if shop closed?",
        "name": "Save the Children",
        "ref:charity": "199",
        "source": "Bing;survey",
        "was:shop": "charity",
        "osm_id": 753425840,
        "lon": -4.484134303581507,
        "lat": 54.15456456293504,
        "osm_type": "way",
        "osm_url": "https://osm.org/way/753425840"
      }
    },
    {
      "type": "Feature",
      "id": 773781469,
      "geometry": {
        "type": "LineString",
        "coordinates": [
          [
            -4.395665,
            54.337
          ],
          [
            -4.395262,
            54.33676
          ],
          [
            -4.395153,
            54.336822
          ],
          [
            -4.395314,
            54.336918
          ],
          [
            -4.395256,
            54.336952
          ],
          [
            -4.395224,
            54.336933
          ],
          [
            -4.395035,
            54.33704
          ],
          [
            -4.395205,
            54.337141
          ],
          [
            -4.395307,
            54.337082
          ],
          [
            -4.395266,
            54.337057
          ],
          [
            -4.395247,
            54.337004
          ],
          [
            -4.395283,
            54.336982
          ],
          [
            -4.395439,
            54.337075
          ],
          [
            -4.395507,
            54.337035
          ],
          [
            -4.395554,
            54.337063
          ],
          [
            -4.395665,
            54.337
          ]
        ]
      },
      "properties": {
        "addr:city": "Lezayre",
        "addr:housename": "Grest Care Home",
        "addr:postcode": "IM7 4EA",
        "addr:street": "Andreas Road",
        "amenity": "social_facility",
        "building": "yes",
        "charity": "yes",
        "name": "Grest Care Home",
        "operator": "Grest Trust",
        "operator:type": "charitable",
        "ref:charity": "6",
        "social_facility": "group_home",
        "social_facility:for": "senior",
        "start_date:charity": "1873",
        "website": "https://www.grestcarehome.co.uk",
        "wheelchair": "yes",
        "osm_id": 773781469,
        "lon": -4.395321828007735,
        "lat": 54.33696798798918,
        "osm_type": "way",
        "osm_url": "https://osm.org/way/773781469"
      }
    },
    {
      "type": "Feature",
      "id": 1154467407,
      "geometry": {
        "type": "LineString",
        "coordinates": [
          [
            -4.505121,
            54.16171
          ],
          [
            -4.505101,
            54.161631
          ],
          [
            -4.505391,
            54.161605
          ],
          [
            -4.505412,
            54.161684
          ],
          [
            -4.505121,
            54.16171
          ]
        ]
      },
      "properties": {
        "addr:city": "Braddan",
        "addr:housename": "Braddan Bridge House",
        "addr:postcode": "IM4 4TN",
        "addr:street": "Peel Road",
        "building": "yes",
        "charity": "yes",
        "name": "Joey Dunlop Foundation",
        "note": "holiday accommodation for disabled visitors",
        "operator": "Joey Dunlop Foundation",
        "operator:type": "charitable",
        "ref:charity": "842",
        "tourism": "chalet",
        "website": "https://www.joeydunlopfoundation.com",
        "osm_id": 1154467407,
        "lon": -4.505256312542588,
        "lat": 54.16165754832514,
        "osm_type": "way",
        "osm_url": "https://osm.org/way/1154467407"
      }
    },
    {
      "type": "Feature",
      "id": 1158812324,
      "geometry": {
        "type": "LineString",
        "coordinates": [
          [
            -4.483909,
            54.15306
          ],
          [
            -4.483943,
            54.153107
          ],
          [
            -4.484083,
            54.153072
          ],
          [
            -4.484049,
            54.153025
          ],
          [
            -4.483909,
            54.15306
          ]
        ]
      },
      "properties": {
        "addr:city": "Douglas",
        "addr:country": "IM",
        "addr:housenumber": "88",
        "addr:street": "Bucks Road",
        "building": "terrace",
        "charity": "animal",
        "contact:website": "https://www.manxspca.com",
        "name": "ManxSPCA",
        "opening_hours": "Tu-Sa 10:00-16:00",
        "operator": "ManxSPCA",
        "phone": "+44 1624 851672",
        "ref:charity": "26A",
        "shop": "charity",
        "osm_id": 1158812324,
        "lon": -4.483996000000001,
        "lat": 54.153066,
        "osm_type": "way",
        "osm_url": "https://osm.org/way/1158812324"
      }
    },
    {
      "type": "Feature",
      "id": 1270919366,
      "geometry": {
        "type": "LineString",
        "coordinates": [
          [
            -4.475514,
            54.169624
          ],
          [
            -4.475746,
            54.169979
          ],
          [
            -4.475576,
            54.170017
          ],
          [
            -4.47557,
            54.170008
          ],
          [
            -4.475357,
            54.170056
          ],
          [
            -4.475363,
            54.170065
          ],
          [
            -4.475256,
            54.170088
          ],
          [
            -4.47525,
            54.17008
          ],
          [
            -4.475129,
            54.170107
          ],
          [
            -4.47514,
            54.170124
          ],
          [
            -4.474944,
            54.170167
          ],
          [
            -4.474868,
            54.17005
          ],
          [
            -4.475071,
            54.170005
          ],
          [
            -4.475088,
            54.170031
          ],
          [
            -4.47519,
            54.170008
          ],
          [
            -4.475172,
            54.16998
          ],
          [
            -4.475311,
            54.169949
          ],
          [
            -4.475333,
            54.169982
          ],
          [
            -4.47551,
            54.169942
          ],
          [
            -4.475484,
            54.169902
          ],
          [
            -4.475459,
            54.169907
          ],
          [
            -4.475429,
            54.169862
          ],
          [
            -4.475456,
            54.169856
          ],
          [
            -4.475331,
            54.169665
          ],
          [
            -4.475514,
            54.169624
          ]
        ]
      },
      "properties": {
        "addr:city": "Douglas",
        "addr:postcode": "IM2 6BG",
        "addr:street": "Glencrutchery Road",
        "building": "yes",
        "charity": "yes",
        "name": "St John Ambulance IOM",
        "office": "yes",
        "ref:charity": "1112",
        "website": "https://sja.org.im",
        "osm_id": 1270919366,
        "lon": -4.475338846273005,
        "lat": 54.16994474810418,
        "osm_type": "way",
        "osm_url": "https://osm.org/way/1270919366"
      }
    }
  ]
}