{"type": "FeatureCollection", "features": [{"type": "Feature", "id": 455952596, "geometry": {"type": "Point", "coordinates": [-4.475556, 54.148921]}, "properties": {"amenity": "fast_food", "brand": "Pizza Hut Delivery", "brand:wikidata": "Q107293079", "brand:wikipedia": "en:Pizza Hut", "contact:website": "https://www.pizzahut.co.uk/huts/uk-1/8116-douglas-isle-of-man/", "cuisine": "pizza", "delivery": "yes", "name": "Pizza Hut Delivery", "takeaway": "only"}}, {"type": "Feature", "id": 456430224, "geometry": {"type": "Point", "coordinates": [-4.464074, 54.166583]}, "properties": {"addr:city": "Douglas", "addr:country": "IM", "addr:housename": "South View", "addr:street": "Queens Promenade", "amenity": "fast_food", "cuisine": "pizza", "name": "Pizza King", "phone": "+44 1624 660166", "website": "http://www.pizzakingiom.co.uk"}}, {"type": "Feature", "id": 478926156, "geometry": {"type": "Point", "coordinates": [-4.479164, 54.158295]}, "properties": {"addr:city": "Douglas", "addr:country": "IM", "addr:street": "Broadway", "amenity": "fast_food", "contact:facebook": "https://www.facebook.com/homerunpizzaiom/", "cuisine": "pizza", "name": "Home Run Pizza", "phone": "+44 1624 611621", "website": "http://www.homerunpizza.co.uk"}}, {"type": "Feature", "id": 549539677, "geometry": {"type": "Point", "coordinates": [-4.691643, 54.222812]}, "properties": {"amenity": "fast_food", "name": "Anatolia", "phone": "+441624840888"}}, {"type": "Feature", "id": 685338705, "geometry": {"type": "Point", "coordinates": [-4.484865, 54.155503]}, "properties": {"addr:city": "Douglas", "addr:country": "IM", "addr:housenumber": "26", "addr:postcode": "IM1 3AL", "addr:street": "Woodbourne Road", "addr:substreet": "Prospect Terrace", "amenity": "fast_food", "contact:facebook": "https://www.facebook.com/people/Terrace-Chippy/100077454909329/", "cuisine": "fish_and_chips", "name": "Terrace Chippy", "website": "https://terracechippy.com"}}, {"type": "Feature", "id": 943742952, "geometry": {"type": "Point", "coordinates": [-4.477112, 54.157823]}, "properties": {"amenity": "fast_food", "currency:XBT": "yes", "delivery": "yes", "name": "Marmaris", "payment:lightning": "yes", "payment:lightning_contactless": "yes", "payment:onchain": "yes", "phone": "+441624671995", "survey:date": "2022-09-23", "website": "https://www.marmarisiom.com/"}}, {"type": "Feature", "id": 943742963, "geometry": {"type": "Point", "coordinates": [-4.477177, 54.157842]}, "properties": {"amenity": "fast_food", "cuisine": "pizza", "name": "Pizza Pizza"}}, {"type": "Feature", "id": 1069323499, "geometry": {"type": "Point", "coordinates": [-4.481774, 54.159853]}, "properties": {"amenity": "fast_food", "cuisine": "cantonese", "name": "Magic Wok"}}, {"type": "Feature", "id": 5169005099, "geometry": {"type": "Point", "coordinates": [-4.45616, 54.17534]}, "properties": {"amenity": "fast_food", "contact:phone": "+44 1624 602152", "cuisine": "fish_and_chips", "indoor_seating": "yes", "name": "New Cod on the Block", "opening_hours": "Mo 16:30-19:30 \"Take-away\", Tu-Su 11:30-14:30 \"Take-away\", 16:30-20:00 \"Take-away\", Mo 16:30-19:00 \"Diner\", Tu-Su 11:30-14:30 \"Diner\", 16:30-19:30 \"Diner\"", "takeaway": "yes", "wheelchair": "yes"}}, {"type": "Feature", "id": 10048354001, "geometry": {"type": "Point", "coordinates": [-4.75605, 54.086772]}, "properties": {"amenity": "fast_food", "cuisine": "pizza", "currency:XBT": "yes", "name": "Simple Chargrill and Pizza", "payment:lightning": "yes", "payment:lightning_contactless": "yes", "payment:onchain": "yes", "phone": "+447624330330", "survey:date": "2022-09-24", "website": "https://simple.touchtakeaway.net/menu"}}, {"type": "Feature", "id": 10049608805, "geometry": {"type": "Point", "coordinates": [-4.477732, 54.149347]}, "properties": {"amenity": "fast_food", "currency:XBT": "yes", "name": "Victoria Grill", "payment:lightning": "yes", "payment:lightning_contactless": "yes", "payment:onchain": "yes", "phone": "+441624629560", "survey:date": "2022-09-24", "website": "https://victoriagrillperiperichickendouglas.com/"}}, {"type": "Feature", "id": 11698003303, "geometry": {"type": "Point", "coordinates": [-4.472554, 54.161848]}, "properties": {"addr:city": "Castletown", "addr:country": "IM", "addr:street": "Central Promenade", "addr:substreet": "Castle Mona Colonnade", "amenity": "fast_food", "cuisine": "fish_and_chips", "entrance": "main", "name": "Mojo's Fish and Chip Shop", "opening_hours": "Su-Th 16:30-21:00, Fr-Sa 16:30-22:00", "takeaway": "yes"}}, {"type": "Feature", "id": 59287722, "geometry": {"type": "LineString", "coordinates": [[-4.501401, 54.153754], [-4.501181, 54.153784], [-4.501069, 54.153506], [-4.501289, 54.153475], [-4.501401, 54.153754]]}, "properties": {"addr:city": "Douglas", "addr:country": "IM", "addr:postcode": "IM1 5ED", "addr:street": "Peel Road", "amenity": "fast_food", "brand": "McDonald's", "brand:wikidata": "Q38076", "brand:wikipedia": "en:McDonald's", "building": "retail", "cuisine": "burger", "internet_access": "wlan", "internet_access:fee": "no", "name": "McDonald's", "source": "Isle of Man Government aerial imagery (2001)", "takeaway": "yes", "website": "https://www.mcdonalds.com/gb/en-gb/location/douglas/isle-of-man/peel-road/8260816.html"}}, {"type": "Feature", "id": 60048739, "geometry": {"type": "LineString", "coordinates": [[-4.757001, 54.08555], [-4.756915, 54.08555], [-4.756867, 54.085549], [-4.756866, 54.085578], [-4.756801, 54.085578], [-4.756805, 54.085378], [-4.757003, 54.085379], [-4.757001, 54.08555]]}, "properties": {"addr:city": "Port Erin", "addr:country": "IM", "addr:postcode": "IM9 6AE", "addr:street": "Station Road", "amenity": "fast_food", "contact:facebook": "https://www.facebook.com/PortErinChippyandDiner", "cuisine": "fish_and_chips", "name": "Port Erin Chippy & Diner", "source": "Isle of Man Government aerial imagery (2001)"}}, {"type": "Feature", "id": 62226371, "geometry": {"type": "LineString", "coordinates": [[-4.47897, 54.15369], [-4.478977, 54.153651], [-4.479005, 54.153643], [-4.479155, 54.153679], [-4.479124, 54.153723], [-4.479111, 54.15372], [-4.47897, 54.15369]]}, "properties": {"amenity": "fast_food", "building": "yes", "building:colour": "white", "building:levels": "3", "building:material": "plaster", "cuisine": "chinese", "name": "New Hong Kong", "source": "Isle of Man Government aerial imagery (2001)", "source:name": "photo"}}, {"type": "Feature", "id": 79398105, "geometry": {"type": "LineString", "coordinates": [[-4.757444, 54.085831], [-4.757453, 54.085673], [-4.757551, 54.085675], [-4.757542, 54.085834], [-4.757444, 54.085831]]}, "properties": {"addr:city": "Port Erin", "addr:country": "IM", "addr:housenumber": "26", "addr:postcode": "IM9 6AQ", "addr:street": "Church Road", "amenity": "fast_food", "building": "yes", "contact:facebook": "https://www.facebook.com/MandarinTakeaway/", "cuisine": "chinese", "name": "Mandarin", "phone": "+44 1624 835555", "source": "Isle of Man Government aerial imagery (2001)"}}, {"type": "Feature", "id": 81446764, "geometry": {"type": "LineString", "coordinates": [[-4.478749, 54.152515], [-4.478764, 54.152586], [-4.478753, 54.152594], [-4.478693, 54.152597], [-4.47868, 54.15252], [-4.478749, 54.152515]]}, "properties": {"addr:city": "Douglas", "addr:housenumber": "2", "addr:postcode": "IM1 2ES", "addr:street": "Granville Street", "amenity": "fast_food", "building": "yes", "cuisine": "chinese", "delivery": "yes", "name": "Hot Wok", "opening_hours": "Su-Th 17:00-23:00, Fr-Sa 17:00-01:00", "phone": "+44 1624 677018", "source": "Isle of Man Government aerial imagery (2001);photo;Bing", "takeaway": "yes"}}, {"type": "Feature", "id": 82614390, "geometry": {"type": "LineString", "coordinates": [[-4.4838, 54.152914], [-4.483911, 54.152885], [-4.483951, 54.152893], [-4.483976, 54.152927], [-4.483837, 54.152962], [-4.4838, 54.152914]]}, "properties": {"addr:city": "Douglas", "addr:country": "IM", "addr:housenumber": "82", "addr:postcode": "IM1 3AG", "addr:street": "Bucks Road", "amenity": "fast_food", "building": "yes", "cuisine": "fish_and_chips", "name": "The Islander Chippy", "source": "Isle of Man Government aerial imagery (2001)", "source:addr": "Isle of Man Government Land Registry Land Transactions"}}, {"type": "Feature", "id": 100789408, "geometry": {"type": "LineString", "coordinates": [[-4.655202, 54.073946], [-4.655264, 54.073858], [-4.655271, 54.07385], [-4.655195, 54.073831], [-4.655132, 54.073919], [-4.655103, 54.073961], [-4.655179, 54.073979], [-4.655202, 54.073946]]}, "properties": {"amenity": "fast_food", "building": "yes", "building:levels": "3", "building:material": "stone", "cuisine": "kebab", "name": "I \u2665 Kebabs"}}, {"type": "Feature", "id": 101520494, "geometry": {"type": "LineString", "coordinates": [[-4.758558, 54.084916], [-4.758615, 54.084809], [-4.758521, 54.084792], [-4.758481, 54.084869], [-4.758512, 54.084875], [-4.758497, 54.084905], [-4.758558, 54.084916]]}, "properties": {"amenity": "fast_food", "building": "yes", "cuisine": "chinese", "name": "Southern Asia Chinese", "phone": "+44 1624 836516", "takeaway": "yes"}}, {"type": "Feature", "id": 101799789, "geometry": {"type": "LineString", "coordinates": [[-4.739671, 54.077905], [-4.739609, 54.07785], [-4.739564, 54.077842], [-4.739339, 54.077921], [-4.739414, 54.077996], [-4.739671, 54.077905]]}, "properties": {"addr:city": "Port St Mary", "addr:country": "IM", "addr:housename": "Beacon View", "addr:street": "Station Road", "amenity": "fast_food", "building": "yes", "contact:facebook": "https://www.facebook.com/profile.php?id=100071446280489", "cuisine": "fish_and_chips", "name": "Fresh Fried & Crispy", "phone": "+44 7624 200586", "website": "https://freshfriedandcrispy.im"}}, {"type": "Feature", "id": 101812267, "geometry": {"type": "LineString", "coordinates": [[-4.738593, 54.076778], [-4.738529, 54.076733], [-4.738669, 54.076666], [-4.738686, 54.076678], [-4.738798, 54.076625], [-4.738791, 54.07662], [-4.738837, 54.076598], [-4.73889, 54.076636], [-4.738727, 54.076714], [-4.738593, 54.076778]]}, "properties": {"addr:city": "Port Saint Mary", "addr:country": "IM", "addr:housename": "Laureston House", "addr:street": "Bay View Road", "amenity": "fast_food", "building": "yes", "cuisine": "chinese", "name": "Good Luck", "phone": "+441624836211"}}, {"type": "Feature", "id": 102638473, "geometry": {"type": "LineString", "coordinates": [[-4.379239, 54.321563], [-4.379268, 54.32163], [-4.379369, 54.321615], [-4.37934, 54.321548], [-4.379239, 54.321563]]}, "properties": {"addr:city": "Ramsey", "addr:housenumber": "1", "addr:postcode": "IM8 1BJ", "addr:street": "Dale Street", "amenity": "fast_food", "building": "yes", "contact:facebook": "https://www.facebook.com/BournePlaiceFishandChips/", "cuisine": "fish_and_chips", "name": "Bourne Plaice", "source": "mapillary", "source:addr:postcode": "Isle of Man Government Land Registry Land Transactions"}}, {"type": "Feature", "id": 102638482, "geometry": {"type": "LineString", "coordinates": [[-4.38019, 54.321687], [-4.380079, 54.321702], [-4.380035, 54.321593], [-4.380146, 54.321578], [-4.380166, 54.321627], [-4.38019, 54.321687]]}, "properties": {"addr:city": "Ramsey", "addr:country": "IM", "addr:street": "Market Place", "amenity": "fast_food", "building": "yes", "cuisine": "pizza", "delivery": "yes", "name": "Pizzanista", "takeaway": "yes", "wheelchair": "no"}}, {"type": "Feature", "id": 102737949, "geometry": {"type": "LineString", "coordinates": [[-4.382835, 54.322018], [-4.382763, 54.321996], [-4.38284, 54.321902], [-4.382862, 54.321908], [-4.382906, 54.321855], [-4.382958, 54.321869], [-4.382835, 54.322018]]}, "properties": {"amenity": "fast_food", "building": "yes", "name": "Tasty Bite", "source": "note"}}, {"type": "Feature", "id": 102856189, "geometry": {"type": "LineString", "coordinates": [[-4.386104, 54.322322], [-4.386188, 54.322323], [-4.386177, 54.322449], [-4.38612, 54.322447], [-4.386124, 54.322404], [-4.386098, 54.322403], [-4.386104, 54.322322]]}, "properties": {"amenity": "fast_food", "building": "yes", "cuisine": "chinese", "name": "Mandarin Chinese Take Away", "source": "survey", "wheelchair": "limited"}}, {"type": "Feature", "id": 102856194, "geometry": {"type": "LineString", "coordinates": [[-4.383337, 54.322188], [-4.38325, 54.322187], [-4.383246, 54.32229], [-4.383333, 54.322291], [-4.383337, 54.322188]]}, "properties": {"addr:city": "Ramsey", "addr:country": "IM", "addr:housenumber": "48", "addr:street": "Parliament Square", "amenity": "fast_food", "building": "yes", "contact:phone": "+44 1624 818111", "contact:website": "https://stargrillpizzaramsey.com/", "name": "Star Grill"}}, {"type": "Feature", "id": 102856196, "geometry": {"type": "LineString", "coordinates": [[-4.386188, 54.322323], [-4.386349, 54.322328], [-4.386327, 54.322562], [-4.386167, 54.322558], [-4.386169, 54.322539], [-4.386175, 54.322463], [-4.386177, 54.322449], [-4.386188, 54.322323]]}, "properties": {"addr:city": "Ramsey", "addr:street": "Parliament Street", "amenity": "fast_food", "building": "yes", "cuisine": "fish_and_chips", "name": "The Ramsey Trawlerman", "photo": "https://www.geograph.org.uk/photo/3148463", "source": "survey", "toilets:wheelchair": "yes", "wheelchair": "yes"}}, {"type": "Feature", "id": 146835166, "geometry": {"type": "LineString", "coordinates": [[-4.694385, 54.223876], [-4.694484, 54.223889], [-4.694446, 54.223985], [-4.694347, 54.223971], [-4.694385, 54.223876]]}, "properties": {"addr:city": "Peel", "addr:country": "IM", "addr:housenumber": "13a", "addr:street": "Shore Road", "amenity": "fast_food", "building": "yes", "contact:facebook": "https://www.facebook.com/thecodandcastle", "cuisine": "fish_and_chips", "name": "The Cod and Castle"}}, {"type": "Feature", "id": 147462133, "geometry": {"type": "LineString", "coordinates": [[-4.689575, 54.223086], [-4.689746, 54.223047], [-4.68976, 54.22303], [-4.689745, 54.222954], [-4.689613, 54.222966], [-4.689621, 54.222993], [-4.689542, 54.223012], [-4.689575, 54.223086]]}, "properties": {"addr:city": "Peel", "addr:country": "IM", "addr:housenumber": "6", "addr:street": "Christian Street", "amenity": "fast_food", "building": "yes", "cuisine": "fish_and_chips", "name": "Peel Fisheries", "source": "http://www.peel2011.com/a/athollplace/peelfisheries.html", "website": "http://www.peelfisheries.co.uk"}}, {"type": "Feature", "id": 165129858, "geometry": {"type": "LineString", "coordinates": [[-4.484145, 54.171189], [-4.484216, 54.171164], [-4.484284, 54.171232], [-4.484213, 54.171256], [-4.484145, 54.171189]]}, "properties": {"addr:city": "Douglas", "addr:country": "IM", "addr:housenumber": "13", "addr:postcode": "IM2 6LX", "addr:street": "Snaefell Road", "addr:suburb": "Willaston", "amenity": "fast_food", "building": "yes", "cuisine": "chinese", "name": "Golden Gate", "shop": "fast_food", "source": "Isle of Man Government aerial imagery (2001)"}}, {"type": "Feature", "id": 168817261, "geometry": {"type": "LineString", "coordinates": [[-4.697304, 54.223868], [-4.697357, 54.223941], [-4.69748, 54.223917], [-4.697485, 54.223863], [-4.697394, 54.223881], [-4.69738, 54.223852], [-4.697304, 54.223868]]}, "properties": {"amenity": "fast_food", "building": "yes", "cuisine": "fish_and_chips", "name": "Waters Edge", "operator": "Peel Fisheries"}}, {"type": "Feature", "id": 233925099, "geometry": {"type": "LineString", "coordinates": [[-4.405989, 54.233367], [-4.405968, 54.233273], [-4.405837, 54.233288], [-4.405879, 54.233381], [-4.405989, 54.233367]]}, "properties": {"amenity": "fast_food", "building": "yes", "cuisine": "chinese", "name": "The Phoenix", "shop": "fast_food"}}, {"type": "Feature", "id": 247968423, "geometry": {"type": "LineString", "coordinates": [[-4.455939, 54.175461], [-4.456062, 54.175528], [-4.45613, 54.175526], [-4.456214, 54.175473], [-4.456212, 54.175434], [-4.456089, 54.175367], [-4.455939, 54.175461]]}, "properties": {"addr:city": "Onchan", "addr:country": "IM", "addr:housenumber": "24A", "addr:place": "Village Walk", "addr:street": "Avondale Road", "amenity": "fast_food", "brand": "Domino's", "brand:wikidata": "Q839466", "brand:wikipedia": "en:Domino's Pizza", "building": "yes", "contact:website": "https://www.dominos.co.uk/pizza-near-me/douglas/unit-24b-the-village-walk", "cuisine": "pizza", "layer": "2", "level": "1", "name": "Domino's", "source": "Isle of Man Government aerial imagery (2001)", "takeaway": "yes"}}, {"type": "Feature", "id": 414251741, "geometry": {"type": "LineString", "coordinates": [[-4.483999, 54.147702], [-4.483911, 54.147718], [-4.483858, 54.147627], [-4.483948, 54.147611], [-4.483999, 54.147702]]}, "properties": {"addr:city": "Douglas", "addr:country": "IM", "addr:housenumber": "11", "addr:street": "North Quay", "addr:substreet": "Clinch's Court", "amenity": "fast_food", "building": "yes", "building:levels": "2", "cuisine": "pizza", "name": "Pizzaiolo", "source": "Isle of Man Government aerial imagery (2001);photo", "takeaway": "only"}}, {"type": "Feature", "id": 415157472, "geometry": {"type": "LineString", "coordinates": [[-4.478948, 54.153873], [-4.478927, 54.153934], [-4.479088, 54.15396], [-4.479115, 54.153907], [-4.478948, 54.153873]]}, "properties": {"addr:city": "Douglas", "addr:country": "IM", "addr:housenumber": "2", "addr:street": "Marina Road", "amenity": "fast_food", "building": "yes", "building:colour": "cream", "building:levels": "3", "building:material": "plaster", "contact:facebook": "https://www.facebook.com/bestkebabhouseIOM/", "cuisine": "kebab;pizza;burger", "name": "Best Kebab", "note": "No 2 _is_ duplicated.", "source": "Isle of Man Government aerial imagery (2001);photo;Bing", "takeaway": "yes", "website": "https://bestkebabiom.com"}}, {"type": "Feature", "id": 416526314, "geometry": {"type": "LineString", "coordinates": [[-4.478728, 54.154124], [-4.478755, 54.154062], [-4.478668, 54.154048], [-4.478663, 54.154058], [-4.478605, 54.154048], [-4.47858, 54.154097], [-4.478596, 54.154099], [-4.478728, 54.154124]]}, "properties": {"addr:city": "Douglas", "addr:country": "IM", "addr:housenumber": "6", "addr:street": "Marina Road", "amenity": "fast_food", "building": "retail", "building:colour": "white", "building:levels": "4", "building:material": "plaster", "name": "Star Grill & Pizza", "phone": "+44 1624 613822", "roof:levels": "1", "source": "Bing;photograph", "website": "https://stargrillpizzadouglas.com"}}, {"type": "Feature", "id": 419052368, "geometry": {"type": "LineString", "coordinates": [[-4.478365, 54.150072], [-4.478336, 54.150074], [-4.478328, 54.150044], [-4.478543, 54.150024], [-4.47854, 54.150012], [-4.478592, 54.150008], [-4.478604, 54.15005], [-4.478365, 54.150072]]}, "properties": {"addr:city": "Douglas", "addr:country": "IM", "addr:housenumber": "62", "addr:postcode": "IM1 2SE", "addr:street": "Duke Street", "amenity": "fast_food", "building": "retail", "building:colour": "blue", "building:levels": "3", "building:material": "plaster", "contact:facebook": "https://www.facebook.com/NikosGrill.im/", "cuisine": "kebab", "name": "Niko's Grill", "website": "https://www.nikosgrill.im"}}, {"type": "Feature", "id": 419775947, "geometry": {"type": "LineString", "coordinates": [[-4.477749, 54.149526], [-4.477751, 54.149519], [-4.47779, 54.149323], [-4.477698, 54.149318], [-4.477652, 54.149521], [-4.477749, 54.149526]]}, "properties": {"addr:city": "Douglas", "addr:housenumber": "8", "addr:postcode": "IM1 2LH", "addr:street": "Victoria Street", "amenity": "fast_food", "building": "retail", "building:colour": "cream", "building:levels": "4", "building:material": "plaster", "covered": "no", "cuisine": "chicken", "internet_access": "no", "name": "Peri Peri Chicken Victoria Grill", "opening_hours": "Mo-Sa 18:00-23:00; Su 18:00-22:00", "website": "http://www.periperichicken.im"}}, {"type": "Feature", "id": 655702919, "geometry": {"type": "LineString", "coordinates": [[-4.50434, 54.151757], [-4.504442, 54.151674], [-4.504386, 54.151649], [-4.504335, 54.151688], [-4.504284, 54.151664], [-4.504193, 54.151686], [-4.50434, 54.151757]]}, "properties": {"amenity": "fast_food", "brand": "Domino's", "brand:wikidata": "Q839466", "building": "yes", "cuisine": "pizza", "name": "Domino's", "takeaway": "yes"}}, {"type": "Feature", "id": 1125185107, "geometry": {"type": "LineString", "coordinates": [[-4.499553, 54.151338], [-4.499461, 54.151367], [-4.499457, 54.151363], [-4.499143, 54.151461], [-4.499075, 54.151421], [-4.499054, 54.151367], [-4.499375, 54.151267], [-4.499381, 54.151274], [-4.499469, 54.151246], [-4.499553, 54.151338]]}, "properties": {"addr:city": "Douglas", "addr:country": "IM", "addr:housenumber": "10-14", "addr:place": "Peel Road Retail Park", "addr:postcode": "IM1 5ED", "alt_name": "Kentucky Fried Chicken", "amenity": "fast_food", "brand": "KFC", "brand:wikidata": "Q524757", "building": "yes", "changing_table": "yes", "changing_table:fee": "no", "cuisine": "chicken", "drive_through": "yes", "internet_access": "yes", "name": "KFC", "takeaway": "yes", "toilets": "yes", "toilets:access": "customers", "toilets:wheelchair": "designated", "wheelchair": "designated"}}, {"type": "Feature", "id": 1214914743, "geometry": {"type": "LineString", "coordinates": [[-4.478858, 54.179376], [-4.478758, 54.179387], [-4.478758, 54.179384], [-4.478748, 54.179354], [-4.478735, 54.179313], [-4.478834, 54.179302], [-4.478858, 54.179376]]}, "properties": {"addr:city": "Onchan", "addr:country": "IM", "addr:housenumber": "7-8", "addr:street": "Hailwood Court", "amenity": "fast_food", "building": "retail", "cuisine": "chinese", "source": "Bing"}}, {"type": "Feature", "id": 1220527322, "geometry": {"type": "LineString", "coordinates": [[-4.483489, 54.152471], [-4.483523, 54.152518], [-4.483659, 54.152483], [-4.483626, 54.152437], [-4.483489, 54.152471]]}, "properties": {"addr:city": "Douglas", "addr:country": "IM", "addr:housenumber": "68", "addr:street": "Bucks Road", "alt_name": "Ballakebabs", "amenity": "fast_food", "building": "terrace", "cuisine": "kebab", "name": "Flaming Great", "phone": "+44 1624 611030"}}, {"type": "Feature", "id": 1243246099, "geometry": {"type": "LineString", "coordinates": [[-4.505109, 54.149678], [-4.505155, 54.14967], [-4.505241, 54.149653], [-4.505262, 54.149692], [-4.50513, 54.149717], [-4.505109, 54.149678]]}, "properties": {"amenity": "fast_food", "building": "retail", "contact:phone": "+44 1624 629988", "cuisine": "chinese;thai;british", "delivery": "yes", "name": "Food Paradise", "takeaway": "yes"}}]}