{"version": 0.6, "generator": "Overpass API 0.7.62.1 084b4234", "osm3s": {"timestamp_osm_base": "2024-03-27T21:17:44Z", "copyright": "The data included in this document is from www.openstreetmap.org. The data is made available under ODbL."}, "elements": [{"type": "node", "id": 283478009, "lat": 54.1698685, "lon": -4.5235751, "tags": {"amenity": "post_box"}}, {"type": "node", "id": 283478363, "lat": 54.2988866, "lon": -4.3185824, "tags": {"amenity": "post_box", "post_box:mounting": "stone_wall"}}, {"type": "node", "id": 283478705, "lat": 54.1690792, "lon": -4.4954822, "tags": {"amenity": "post_box", "name": "Cronkbourne Village", "ref": "55"}}, {"type": "node", "id": 283482435, "lat": 54.1549541, "lon": -4.5272581, "tags": {"amenity": "post_box", "post_box:type": "lamp", "ref": "107"}}, {"type": "node", "id": 283482689, "lat": 54.1791818, "lon": -4.4781444, "tags": {"amenity": "post_box", "collection_times": "Mo 06:00, Mo-Fr 17:00", "name": "Governor's Hill", "name:en": "Governor's Hill", "post_box:type": "pillar", "ref": "109", "royal_cypher": "EIIR", "royal_cypher:wikidata": "Q33102113"}}, {"type": "node", "id": 283482890, "lat": 54.148109, "lon": -4.5247198, "tags": {"amenity": "post_box", "ref": "59"}}, {"type": "node", "id": 283484005, "lat": 54.0939729, "lon": -4.7316335, "tags": {"amenity": "post_box", "post_box:type": "lamp", "ref": "138"}}, {"type": "node", "id": 283484158, "lat": 54.2954593, "lon": -4.3479723, "tags": {"amenity": "post_box"}}, {"type": "node", "id": 283484830, "lat": 54.0854284, "lon": -4.7508205, "tags": {"amenity": "post_box", "ref": "157"}}, {"type": "node", "id": 283485078, "lat": 54.1569719, "lon": -4.5157625, "tags": {"amenity": "post_box", "ref": "26"}}, {"type": "node", "id": 283487243, "lat": 54.0713323, "lon": -4.7373041, "tags": {"amenity": "post_box", "post_box:type": "pillar", "ref": "141", "royal_cypher": "GR", "royal_cypher:wikidata": "Q33102273"}}, {"type": "node", "id": 283487810, "lat": 54.1481336, "lon": -4.478859, "tags": {"amenity": "post_box", "collection_times": "Mo-Fr 06:00, 17:00; Sa 06:00; 11:00", "name": "Market Hill", "operator": "IOM Post", "post_box:type": "pillar", "ref": "15", "royal_cypher": "GR", "royal_cypher:wikidata": "Q33102273", "source": "survey"}}, {"type": "node", "id": 283488508, "lat": 54.2146197, "lon": -4.6569943, "tags": {"amenity": "post_box", "post_box:type": "wall", "ref": "179"}}, {"type": "node", "id": 283488532, "lat": 54.0941494, "lon": -4.7434087, "tags": {"amenity": "post_box", "collection_times": "Mo-Fr 12:15", "name": "Fairy Hill", "post_box:type": "lamp", "ref": "155", "royal_cypher": "EIIR"}}, {"type": "node", "id": 283489361, "lat": 54.161774, "lon": -4.4864948, "tags": {"amenity": "post_box", "post_box:type": "pillar"}}, {"type": "node", "id": 283489639, "lat": 54.3287611, "lon": -4.396296, "tags": {"amenity": "post_box", "post_box:mounting": "brick_pillar", "ref": "212"}}, {"type": "node", "id": 283490369, "lat": 54.2205525, "lon": -4.6773443, "tags": {"amenity": "post_box", "check_date": "2022-08-24", "collection_times": "Mo-Sa 06:30; Mo-Fr 16:45;", "name": "Ballawattleworth Shops", "ref": "181", "royal_cypher": "EIIR", "royal_cypher:wikidata": "Q33102113", "source": "survey"}}, {"type": "node", "id": 283490374, "lat": 54.0737355, "lon": -4.6572209, "tags": {"amenity": "post_box", "post_box:mounting": "pier", "post_box:type": "lamp", "ref": "82", "source": "survey"}}, {"type": "node", "id": 283490416, "lat": 54.1551038, "lon": -4.4995665, "tags": {"amenity": "post_box", "post_box:type": "pillar"}}, {"type": "node", "id": 283490679, "lat": 54.0924915, "lon": -4.7210372, "tags": {"amenity": "post_box", "ref": "137", "source": "survey"}}, {"type": "node", "id": 283490867, "lat": 54.1528133, "lon": -4.4980692, "tags": {"amenity": "post_box", "ref": "262"}}, {"type": "node", "id": 283490998, "lat": 54.1794417, "lon": -4.4528909, "tags": {"amenity": "post_box", "post_box:type": "pillar", "ref": "34"}}, {"type": "node", "id": 283491606, "lat": 54.0865548, "lon": -4.7564343, "tags": {"amenity": "post_box", "ref": "165"}}, {"type": "node", "id": 283491838, "lat": 54.1733091, "lon": -4.4613693, "tags": {"amenity": "post_box", "post_box:type": "lamp", "ref": "29", "royal_cypher": "EIIR", "royal_cypher:wikidata": "Q33102113"}}, {"type": "node", "id": 283492971, "lat": 54.1741673, "lon": -4.4504826, "tags": {"amenity": "post_box", "post_box:mounting": "brick_pillar", "post_box:type": "wall", "ref": "36", "royal_cypher": "GVIR", "royal_cypher:wikidata": "Q33102169"}}, {"type": "node", "id": 283493720, "lat": 54.3332177, "lon": -4.3941782, "tags": {"amenity": "post_box", "ref": "220"}}, {"type": "node", "id": 283493857, "lat": 54.1526249, "lon": -4.5064325, "tags": {"amenity": "post_box", "ref": "263"}}, {"type": "node", "id": 283494402, "lat": 54.0833715, "lon": -4.7512025, "tags": {"amenity": "post_box", "ref": "164"}}, {"type": "node", "id": 283494985, "lat": 54.1543884, "lon": -4.5068007, "tags": {"amenity": "post_box", "ref": "57"}}, {"type": "node", "id": 283495231, "lat": 54.2220932, "lon": -4.6973836, "tags": {"amenity": "post_box", "drive_through": "no", "operator": "Isle of Man Post Office", "operator:en": "Isle of Man Post Office", "operator:gv": "Oik Postagh Ellan Vannin", "operator:wikidata": "Q3432267", "ref": "172"}}, {"type": "node", "id": 283496413, "lat": 54.1526211, "lon": -4.4811019, "tags": {"amenity": "post_box", "name": "Finch Road", "ref": "21B", "source": "survey"}}, {"type": "node", "id": 283496818, "lat": 54.0991564, "lon": -4.676982, "tags": {"amenity": "post_box", "ref": "139"}}, {"type": "node", "id": 283497178, "lat": 54.194752, "lon": -4.6364294, "tags": {"amenity": "post_box", "ref": "77"}}, {"type": "node", "id": 283497832, "lat": 54.0832244, "lon": -4.7546334, "tags": {"amenity": "post_box", "ref": "158"}}, {"type": "node", "id": 283497956, "lat": 54.1782973, "lon": -4.4687164, "tags": {"amenity": "post_box", "post_box:type": "lamp", "ref": "108"}}, {"type": "node", "id": 283498176, "lat": 54.1704037, "lon": -4.6391298, "tags": {"amenity": "post_box", "post_box:type": "wall", "royal_cypher": "GR", "royal_cypher:wikidata": "Q33102273"}}, {"type": "node", "id": 283498334, "lat": 54.1508247, "lon": -4.5156767, "tags": {"amenity": "post_box", "ref": "58"}}, {"type": "node", "id": 283498628, "lat": 54.1425034, "lon": -4.5079385, "tags": {"amenity": "post_box", "name": "Summerhill", "ref": "26"}}, {"type": "node", "id": 283499672, "lat": 54.2306357, "lon": -4.3964037, "tags": {"amenity": "post_box", "ref": "104"}}, {"type": "node", "id": 283500648, "lat": 54.3099603, "lon": -4.5414049, "tags": {"amenity": "post_box", "fixme": "is this box still in use?", "post_box:mounting": "building", "royal_cypher": "EVIIR", "royal_cypher:wikidata": "Q33102324", "source": "streetside"}}, {"type": "node", "id": 283501489, "lat": 54.1510931, "lon": -4.5095751, "tags": {"amenity": "post_box"}}, {"type": "node", "id": 283501748, "lat": 54.0874554, "lon": -4.7493344, "tags": {"amenity": "post_box", "ref": "162"}}, {"type": "node", "id": 283502502, "lat": 54.1781348, "lon": -4.4548007, "tags": {"amenity": "post_box", "post_box:type": "lamp", "ref": "33"}}, {"type": "node", "id": 283502684, "lat": 54.3208945, "lon": -4.4703519, "tags": {"amenity": "post_box", "ref": "235"}}, {"type": "node", "id": 283502944, "lat": 54.0791583, "lon": -4.6640648, "tags": {"amenity": "post_box", "ref": "122", "source": "survey"}}, {"type": "node", "id": 283503622, "lat": 54.327202, "lon": -4.3874099, "tags": {"amenity": "post_box", "ref": "203"}}, {"type": "node", "id": 283503824, "lat": 54.0762946, "lon": -4.6233441, "tags": {"amenity": "post_box", "post_box:type": "lamp", "ref": "123", "source": "survey"}}, {"type": "node", "id": 283503878, "lat": 54.1707161, "lon": -4.4795659, "tags": {"amenity": "post_box", "ref": "54"}}, {"type": "node", "id": 283503971, "lat": 54.0988406, "lon": -4.744249, "tags": {"amenity": "post_box", "collection_times": "Mo-Fr 11:15", "mapillary": "1199371080491786", "name": "Surby Village", "post_box:mounting": "pole", "post_box:type": "lamp", "ref": "156", "royal_cypher": "EIIR", "royal_cypher:wikidata": "Q33102113", "source": "survey;streetside"}}, {"type": "node", "id": 283504376, "lat": 54.0728606, "lon": -4.7481694, "tags": {"amenity": "post_box", "name": "Fistard", "operator": "Isle of Man Post Office", "operator:wikidata": "Q3432267", "post_box:type": "lamp", "ref": "146", "royal_cypher": "EIIR", "royal_cypher:wikidata": "Q33102113", "wikimedia_commons": "File:Postbox on Fistard road, Isle of Man, May, 2017.jpg"}}, {"type": "node", "id": 283504446, "lat": 54.0952875, "lon": -4.6465553, "tags": {"amenity": "post_box", "brand:wikidata": "Q3432267", "mapillary": "278038880836278", "operator": "Isle of Man Post Office", "operator:wikidata": "Q3432267", "post_box:mounting": "pier", "post_box:type": "lamp", "ref": "112", "survey:date": "2021-09-20"}}, {"type": "node", "id": 283505637, "lat": 54.28883, "lon": -4.3361396, "tags": {"amenity": "post_box", "post_box:mounting": "brick_pillar"}}, {"type": "node", "id": 283506161, "lat": 54.3193122, "lon": -4.4920248, "tags": {"amenity": "post_box", "collection_times": "Mo-Sa 06:00; Mo-Fr 15:30; Sa 12:45", "name": "Sulby Post Office", "ref": "247", "source": "survey"}}, {"type": "node", "id": 283506435, "lat": 54.321419, "lon": -4.4039312, "tags": {"amenity": "post_box", "ref": "211"}}, {"type": "node", "id": 283506483, "lat": 54.172624, "lon": -4.4748047, "tags": {"amenity": "post_box", "ref": "264"}}, {"type": "node", "id": 283507654, "lat": 54.1711384, "lon": -4.484278, "tags": {"amenity": "post_box", "post_box:type": "pillar", "ref": "52"}}, {"type": "node", "id": 283508172, "lat": 54.3199873, "lon": -4.3848776, "tags": {"amenity": "post_box"}}, {"type": "node", "id": 283508174, "lat": 54.1006772, "lon": -4.6802994, "tags": {"amenity": "post_box", "post_box:type": "lamp", "ref": "132"}}, {"type": "node", "id": 283509354, "lat": 54.1056055, "lon": -4.70083, "tags": {"amenity": "post_box", "name": "Glen Road", "ref": "134"}}, {"type": "node", "id": 283509576, "lat": 54.1506293, "lon": -4.5181656, "tags": {"amenity": "post_box", "ref": "58a"}}, {"type": "node", "id": 283510121, "lat": 54.1510649, "lon": -4.4934224, "tags": {"amenity": "post_box", "ref": "62"}}, {"type": "node", "id": 283510432, "lat": 54.3249042, "lon": -4.3882335, "tags": {"amenity": "post_box", "post_box:type": "wall", "ref": "205"}}, {"type": "node", "id": 283510739, "lat": 54.2203616, "lon": -4.6967294, "tags": {"amenity": "post_box", "ref": "171"}}, {"type": "node", "id": 283510947, "lat": 54.3298302, "lon": -4.3921444, "tags": {"amenity": "post_box", "post_box:mounting": "stone_wall", "ref": "201"}}, {"type": "node", "id": 283511095, "lat": 54.3369918, "lon": -4.3871495, "tags": {"amenity": "post_box", "post_box:mounting": "brick_wall", "post_box:type": "wall"}}, {"type": "node", "id": 283512695, "lat": 54.2033688, "lon": -4.6352842, "tags": {"amenity": "post_box", "ref": "79"}}, {"type": "node", "id": 283512919, "lat": 54.2224313, "lon": -4.6906258, "tags": {"amenity": "post_box", "operator": "Isle of Man Post", "post_box:type": "wall"}}, {"type": "node", "id": 283513350, "lat": 54.1128385, "lon": -4.5804534, "tags": {"amenity": "post_box"}}, {"type": "node", "id": 283514029, "lat": 54.3589545, "lon": -4.5188251, "tags": {"amenity": "post_box"}}, {"type": "node", "id": 283514191, "lat": 54.2246624, "lon": -4.6761931, "tags": {"amenity": "post_box", "collection_times": "Mo-Sa 06:30; Mo-Fr 16:45;", "name": "Ballawattleworth", "ref": "271", "source": "survey"}}, {"type": "node", "id": 283514743, "lat": 54.0955664, "lon": -4.7553622, "tags": {"amenity": "post_box", "name": "Bradda East", "ref": "154", "royal_cypher": "EIIR"}}, {"type": "node", "id": 283515330, "lat": 54.1558227, "lon": -4.509832, "tags": {"amenity": "post_box", "ref": "56"}}, {"type": "node", "id": 283515572, "lat": 54.1738833, "lon": -4.4827358, "tags": {"amenity": "post_box", "ref": "53"}}, {"type": "node", "id": 283515733, "lat": 54.0840303, "lon": -4.7441966, "tags": {"amenity": "post_box", "collection_times": "Mo-Sa 06:00; Mo-Fr 16:00;", "name": "Four Roads", "ref": "144", "royal_cypher": "ER"}}, {"type": "node", "id": 283516402, "lat": 54.0853683, "lon": -4.7582146, "tags": {"amenity": "post_box", "image": "https://www.geograph.org.uk/photo/6195222", "name": "Station Road", "operator": "Isle of Man Post Office", "operator:en": "Isle of Man Post Office", "operator:gv": "Oik Postagh Ellan Vannin", "operator:wikidata": "Q3432267", "post_box:type": "pillar", "ref": "161", "royal_cypher": "EIIR"}}, {"type": "node", "id": 283518199, "lat": 54.1814211, "lon": -4.4646398, "tags": {"amenity": "post_box", "post_box:type": "lamp", "ref": "31"}}, {"type": "node", "id": 283518212, "lat": 54.2228555, "lon": -4.6974313, "tags": {"amenity": "post_box"}}, {"type": "node", "id": 283518375, "lat": 54.2222997, "lon": -4.6943117, "tags": {"amenity": "post_box", "ref": "170"}}, {"type": "node", "id": 283518784, "lat": 54.0961036, "lon": -4.7070446, "tags": {"amenity": "post_box", "post_box:type": "wall", "ref": "135"}}, {"type": "node", "id": 283518811, "lat": 54.3305236, "lon": -4.3993368, "tags": {"amenity": "post_box", "ref": "251"}}, {"type": "node", "id": 283519288, "lat": 54.3264438, "lon": -4.3819, "tags": {"amenity": "post_box", "post_box:type": "pillar", "ref": "204"}}, {"type": "node", "id": 283519449, "lat": 54.166244, "lon": -4.4847428, "tags": {"amenity": "post_box", "ref": "51"}}, {"type": "node", "id": 283519485, "lat": 54.0731299, "lon": -4.7394465, "tags": {"amenity": "post_box", "post_box:mounting": "pier", "post_box:type": "lamp", "ref": "142", "royal_cypher": "ER"}}, {"type": "node", "id": 283520673, "lat": 54.1709558, "lon": -4.4691122, "tags": {"amenity": "post_box"}}, {"type": "node", "id": 283522069, "lat": 54.085154, "lon": -4.7600037, "tags": {"amenity": "post_box", "post_box:type": "wall", "ref": "160", "source": "survey"}}, {"type": "node", "id": 283522589, "lat": 54.1497016, "lon": -4.5047763, "tags": {"amenity": "post_box", "collection_times": "Mo-Fr 10:00+", "post_box:type": "lamp", "ref": "61"}}, {"type": "node", "id": 283523647, "lat": 54.2083319, "lon": -4.6353391, "tags": {"amenity": "post_box", "ref": "89"}}, {"type": "node", "id": 286775534, "lat": 54.1065311, "lon": -4.7167181, "tags": {"amenity": "post_box"}}, {"type": "node", "id": 287020185, "lat": 54.1309771, "lon": -4.63873, "tags": {"amenity": "post_box", "brand:wikidata": "Q3432267", "operator": "Isle of Man Post Office", "operator:wikidata": "Q3432267", "post_box:mounting": "rendered_pillar", "post_box:type": "wall", "ref": "114", "source": "survey"}}, {"type": "node", "id": 310977302, "lat": 54.164572, "lon": -4.4679707, "tags": {"amenity": "post_box"}}, {"type": "node", "id": 441985949, "lat": 54.0696838, "lon": -4.7684184, "tags": {"amenity": "post_box", "brand": "Royal Mail", "brand:wikidata": "Q638098", "collection_times": "Mo-Fr 11:30; Sa 10:30;", "mapillary": "917177185570918", "name": "Cregneash", "operator": "Royal Mail", "operator:wikidata": "Q638098", "post_box:mounting": "stone_wall", "post_box:type": "wall", "ref": "148", "royal_cypher": "VR", "royal_cypher:wikidata": "Q33102356", "survey:date": "2021-09-23", "wikimedia_commons": "File:Post Box at Cregneash - geograph.org.uk - 991992.jpg"}}, {"type": "node", "id": 452016597, "lat": 54.0730661, "lon": -4.6534295, "tags": {"amenity": "post_box", "brand": "Royal Mail", "brand:wikidata": "Q638098", "mapillary": "265220775303512", "operator": "Royal Mail", "operator:wikidata": "Q638098", "post_box:type": "pillar", "ref": "121", "source": "survey", "survey:date": "2020-08-18"}}, {"type": "node", "id": 453442524, "lat": 54.2321114, "lon": -4.4053341, "tags": {"amenity": "post_box", "drive_through": "no", "name": "Laxey Station Pillar Postbox", "post_box:type": "pillar", "ref": "102", "royal_cypher": "EVIIR"}}, {"type": "node", "id": 454998971, "lat": 54.1544202, "lon": -4.5744405, "tags": {"amenity": "post_box"}}, {"type": "node", "id": 455297128, "lat": 54.1672849, "lon": -4.6096529, "tags": {"amenity": "post_box"}}, {"type": "node", "id": 455297138, "lat": 54.1696166, "lon": -4.6343745, "tags": {"amenity": "post_box"}}, {"type": "node", "id": 456469153, "lat": 54.1632573, "lon": -4.475234, "tags": {"amenity": "post_box", "operator": "Isle of Man Post Office", "post_box:type": "lamp", "royal_cypher": "EIIR", "royal_cypher:wikidata": "Q33102113"}}, {"type": "node", "id": 463207458, "lat": 54.161368, "lon": -4.4731283, "tags": {"amenity": "post_box"}}, {"type": "node", "id": 494611773, "lat": 54.2245264, "lon": -4.6893205, "tags": {"amenity": "post_box", "source": "pre-import backup"}}, {"type": "node", "id": 508062040, "lat": 54.0965891, "lon": -4.7026325, "tags": {"amenity": "post_box", "ref": "164"}}, {"type": "node", "id": 549539734, "lat": 54.168623, "lon": -4.7293252, "tags": {"amenity": "post_box", "name": "Dalby", "operator": "Isle of Man Post Office", "operator:en": "Isle of Man Post Office", "operator:gv": "Oik Postagh Ellan Vannin", "operator:wikidata": "Q3432267", "post_box:mounting": "stone_wall", "post_box:type": "wall", "ref": "167", "royal_cypher": "VR", "royal_cypher:wikidata": "Q33102356", "wikimedia_commons": "File:Victorian post box in Dalby - geograph.org.uk - 1727982.jpg"}}, {"type": "node", "id": 683296535, "lat": 54.1088093, "lon": -4.6297233, "tags": {"amenity": "post_box", "brand:wikidata": "Q3432267", "operator": "Isle of Man Post Office", "operator:wikidata": "Q3432267", "post_box:mounting": "pier", "post_box:type": "lamp", "ref": "116", "source": "survey"}}, {"type": "node", "id": 685338686, "lat": 54.1530965, "lon": -4.4841565, "tags": {"amenity": "post_box"}}, {"type": "node", "id": 841383687, "lat": 54.1345545, "lon": -4.6094132, "tags": {"amenity": "post_box", "brand:wikidata": "Q3432267", "mapillary": "1077784436361343", "operator": "Isle of Man Post Office", "operator:wikidata": "Q3432267", "post_box:mounting": "stone_wall", "post_box:type": "wall", "ref": "192", "survey:date": "2021-09-16"}}, {"type": "node", "id": 841383785, "lat": 54.0963877, "lon": -4.6299101, "tags": {"amenity": "post_box", "brand:wikidata": "Q3432267", "operator": "Isle of Man Post Office", "operator:wikidata": "Q3432267", "post_box:mounting": "pier", "post_box:type": "lamp", "ref": "166", "source": "survey"}}, {"type": "node", "id": 842298222, "lat": 54.0778926, "lon": -4.6484662, "tags": {"amenity": "post_box", "name": "Victoria Road", "ref": "128", "source": "survey"}}, {"type": "node", "id": 842298225, "lat": 54.0811255, "lon": -4.6418331, "tags": {"amenity": "post_box", "name": "Douglas Road", "operator": "Isle of Man Post Office", "operator:wikidata": "Q3432267", "post_box:type": "wall", "ref": "124", "royal_cypher": "GR", "royal_cypher:wikidata": "Q33102273", "wikimedia_commons": "File:Isle-of-Man--Castletown--Postbox-1.JPG"}}, {"type": "node", "id": 842400487, "lat": 54.0747651, "lon": -4.7555479, "tags": {"amenity": "post_box", "brand": "Royal Mail", "brand:wikidata": "Q638098", "collection_times": "Mo-Fr 11:30; Sa 10:30;", "mapillary": "295007155416632", "name": "The Howe", "operator": "Royal Mail", "operator:wikidata": "Q638098", "post_box:mounting": "stone_wall", "post_box:type": "wall", "ref": "147", "royal_cypher": "GR", "royal_cypher:wikidata": "Q33102273", "survey:date": "2021-09-23"}}, {"type": "node", "id": 870641980, "lat": 54.0921274, "lon": -4.7619674, "tags": {"amenity": "post_box", "name": "Spaldrick", "post_box:mounting": "brick_pillar", "post_box:type": "wall", "ref": "152"}}, {"type": "node", "id": 870641988, "lat": 54.0942469, "lon": -4.7636794, "tags": {"amenity": "post_box", "name": "Bradda West", "ref": "153"}}, {"type": "node", "id": 870642008, "lat": 54.1526083, "lon": -4.4811016, "tags": {"amenity": "post_box", "name": "Finch Road", "ref": "21A", "source": "survey"}}, {"type": "node", "id": 870642011, "lat": 54.1525955, "lon": -4.4811014, "tags": {"amenity": "post_box", "name": "Finch Road", "ref": "21", "source": "survey"}}, {"type": "node", "id": 873395515, "lat": 54.2044587, "lon": -4.6927826, "tags": {"amenity": "post_box", "name": "Patrick Church", "ref": "169", "source": "survey"}}, {"type": "node", "id": 943789019, "lat": 54.1577227, "lon": -4.4768054, "tags": {"amenity": "post_box", "name": "Castle Mona Avenue", "ref": "22"}}, {"type": "node", "id": 948950542, "lat": 54.1188995, "lon": -4.6873242, "tags": {"amenity": "post_box", "name": "Ronague", "operator": "Isle of Man Post Office", "ref": "133"}}, {"type": "node", "id": 950922345, "lat": 54.2241576, "lon": -4.6950461, "tags": {"amenity": "post_box", "name": "Shore Road", "post_box:type": "lamp", "ref": "173"}}, {"type": "node", "id": 950922351, "lat": 54.3309032, "lon": -4.5541738, "tags": {"amenity": "post_box", "name": "The Cronk Ballaugh", "post_box:mounting": "pole", "post_box:type": "lamp", "ref": "248"}}, {"type": "node", "id": 950922409, "lat": 54.2732864, "lon": -4.6005985, "tags": {"amenity": "post_box", "name": "Allagawne", "operator": "Isle of Man Post Office", "operator:en": "Isle of Man Post Office", "operator:gv": "Oik Postagh Ellan Vannin", "operator:wikidata": "Q3432267", "ref": "193", "royal_cypher": "GR"}}, {"type": "node", "id": 967981993, "lat": 54.0758645, "lon": -4.6554002, "tags": {"amenity": "post_box", "description": "small box by The Crofts"}}, {"type": "node", "id": 1068540369, "lat": 54.146738, "lon": -4.4773266, "tags": {"amenity": "post_box", "name": "Swing Bridge", "operator": "Isle of Man Post Office", "operator:en": "Isle of Man Post Office", "operator:gv": "Oik Postagh Ellan Vannin", "operator:wikidata": "Q3432267", "ref": "14"}}, {"type": "node", "id": 1069288792, "lat": 54.160512, "lon": -4.4817517, "tags": {"amenity": "post_box"}}, {"type": "node", "id": 1069323502, "lat": 54.1586026, "lon": -4.4798488, "tags": {"amenity": "post_box", "name": "Rose Gardens", "operator": "Isle of Man Post Office", "operator:en": "Isle of Man Post Office", "operator:gv": "Oik Postagh Ellan Vannin", "operator:wikidata": "Q3432267", "post_box:type": "lamp", "ref": "46"}}, {"type": "node", "id": 1069323519, "lat": 54.1600163, "lon": -4.4854564, "tags": {"amenity": "post_box", "name": "Murrays Road", "operator": "Isle of Man Post Office", "post_box:mounting": "stone_wall", "ref": "48"}}, {"type": "node", "id": 1138944193, "lat": 54.321352, "lon": -4.3806202, "tags": {"amenity": "post_box", "post_box:apertures": "2", "post_box:design": "type_c", "post_box:type": "pillar", "royal_cypher": "EIIR", "royal_cypher:wikidata": "Q33102113"}}, {"type": "node", "id": 1287783133, "lat": 54.1811678, "lon": -4.6415792, "tags": {"amenity": "post_box"}}, {"type": "node", "id": 1714947989, "lat": 54.1848178, "lon": -4.7042561, "tags": {"amenity": "post_box", "name": "Glen Maye", "note": "relocated from beside Old Post Office according to Mapillary imagery (2021)", "ref": "168", "source": "survey;streetside"}}, {"type": "node", "id": 1724585496, "lat": 54.1937873, "lon": -4.4242354, "tags": {"amenity": "post_box", "image": "https://www.geograph.org.uk/photo/3775701", "post_box:type": "wall", "ref": "95", "royal_cypher": "VR", "royal_cypher:wikidata": "Q33102356"}}, {"type": "node", "id": 1736770834, "lat": 54.1497685, "lon": -4.4812353, "tags": {"amenity": "post_box", "name": "Athol Street", "post_box:type": "meter", "ref": "10B", "source": "survey"}}, {"type": "node", "id": 1736770838, "lat": 54.1497716, "lon": -4.4812276, "tags": {"amenity": "post_box", "name": "Athol Street", "post_box:type": "meter", "ref": "10A", "source": "survey"}}, {"type": "node", "id": 1736770841, "lat": 54.1497654, "lon": -4.481243, "tags": {"amenity": "post_box", "name": "North Athol Street", "post_box:type": "pillar", "ref": "10", "source": "survey"}}, {"type": "node", "id": 1774120157, "lat": 54.3209297, "lon": -4.3794422, "tags": {"amenity": "post_box"}}, {"type": "node", "id": 1777121890, "lat": 54.1181093, "lon": -4.6551834, "tags": {"amenity": "post_box", "name": "Grenaby", "ref": "113"}}, {"type": "node", "id": 1789231545, "lat": 54.1708275, "lon": -4.4434953, "tags": {"amenity": "post_box", "name": "Majestic", "post_box:design": "type_n", "post_box:type": "lamp", "ref": "37"}}, {"type": "node", "id": 1823105075, "lat": 54.1487122, "lon": -4.4834334, "tags": {"amenity": "post_box", "post_box:type": "pillar"}}, {"type": "node", "id": 1823105076, "lat": 54.1487182, "lon": -4.4834184, "tags": {"amenity": "post_box", "post_box:type": "meter"}}, {"type": "node", "id": 1823105082, "lat": 54.1487242, "lon": -4.4834034, "tags": {"amenity": "post_box", "post_box:type": "meter"}}, {"type": "node", "id": 1827083732, "lat": 54.1505912, "lon": -4.4839226, "tags": {"amenity": "post_box", "name": "PO Headquarters", "post_box:type": "meter", "ref": "1B"}}, {"type": "node", "id": 1827083733, "lat": 54.1506024, "lon": -4.483908, "tags": {"amenity": "post_box", "name": "PO Headquarters", "post_box:type": "meter", "ref": "1A"}}, {"type": "node", "id": 1827083734, "lat": 54.1506129, "lon": -4.4838945, "tags": {"amenity": "post_box", "name": "PO Headquarters", "post_box:type": "pillar", "ref": "1"}}, {"type": "node", "id": 1971040765, "lat": 54.146646, "lon": -4.4821655, "tags": {"amenity": "post_box"}}, {"type": "node", "id": 2185578332, "lat": 54.3168163, "lon": -4.3823376, "tags": {"amenity": "post_box"}}, {"type": "node", "id": 2382824419, "lat": 54.1293539, "lon": -4.5402043, "tags": {"amenity": "post_box", "source": "Local Knowledge"}}, {"type": "node", "id": 2388000715, "lat": 54.183944, "lon": -4.5660702, "tags": {"amenity": "post_box", "collection_times": "Mo-Fr 07:30, 17:00; Sa 07:00, 12:00", "name": "Crosby Village", "ref": "40", "royal_cypher": "EIIR", "royal_cypher:wikidata": "Q33102113", "source": "survey"}}, {"type": "node", "id": 2429056199, "lat": 54.1775939, "lon": -4.549338, "tags": {"amenity": "post_box", "source": "local_knowledge"}}, {"type": "node", "id": 2955652980, "lat": 54.2267518, "lon": -4.6769102, "tags": {"amenity": "post_box", "collection_times": "Tu-Fr 16:45; Mo 06:30-06:30; Mo 16:45-16:45", "name": "Reayrt Aalin", "ref": "180", "royal_cypher": "EIIR", "royal_cypher:wikidata": "Q33102113", "source": "survey"}}, {"type": "node", "id": 3670550496, "lat": 54.0772035, "lon": -4.6393872, "tags": {"amenity": "post_box", "collection_times": "Mo-Sa 06:00; Mo-Fr 16:00", "mapillary": "699451697680950", "name": "Castletown Promenade", "post_box:mounting": "pier", "post_box:type": "lamp", "ref": "127", "source": "survey;Bing"}}, {"type": "node", "id": 3964723822, "lat": 54.0771207, "lon": -4.739026, "tags": {"amenity": "post_box", "mapillary": "4725303060824711", "post_box:mounting": "pier", "post_box:type": "lamp", "royal_cypher": "ER", "survey:date": "2021-09-23"}}, {"type": "node", "id": 4127664498, "lat": 54.2022995, "lon": -4.4123038, "tags": {"amenity": "post_box"}}, {"type": "node", "id": 4161725353, "lat": 54.2315448, "lon": -4.4064128, "tags": {"amenity": "post_box", "collection_times": "Mo-Fr 16:15, Sa 06:45", "name": "Laxey Post Office", "post_box:type": "wall", "ref": "101", "royal_cypher": "EIIR"}}, {"type": "node", "id": 4360461280, "lat": 54.1779333, "lon": -4.4308261, "tags": {"amenity": "post_box", "collection_times": "Mo-Fr 11:00, Sa 10:00", "name": "Groudle", "ref": "94"}}, {"type": "node", "id": 4366960546, "lat": 54.0869493, "lon": -4.6343065, "tags": {"amenity": "post_box", "collection_times": "Mo-Fr 06:15,16:00; Sa 06:15", "name": "Airport Terminal", "operator": "IOM Post", "ref": "118", "royal_cypher": "no", "source": "survey", "type": "indoor"}}, {"type": "node", "id": 4442177994, "lat": 54.1729453, "lon": -4.5056161, "tags": {"amenity": "post_box", "source": "survey"}}, {"type": "node", "id": 5159218708, "lat": 54.1472006, "lon": -4.4881978, "tags": {"amenity": "post_box", "collection_times": "Mo-Fr 17:00; Sa 11:00", "drive_through": "no", "operator": "Isle of Man Post Office", "operator:en": "Isle of Man Post Office", "operator:gv": "Oik Postagh Ellan Vannin", "operator:wikidata": "Q3432267"}}, {"type": "node", "id": 8590261799, "lat": 54.2459485, "lon": -4.4094432, "tags": {"amenity": "post_box"}}, {"type": "node", "id": 8980761288, "lat": 54.1381296, "lon": -4.5618252, "tags": {"amenity": "post_box"}}, {"type": "node", "id": 9634455311, "lat": 54.1572548, "lon": -4.4881317, "tags": {"amenity": "post_box", "post_box:type": "pillar", "royal_cypher": "EVIIR", "royal_cypher:wikidata": "Q33102324"}}, {"type": "node", "id": 10287638483, "lat": 54.1614807, "lon": -4.489762, "tags": {"amenity": "post_box", "royal_cypher": "GR", "royal_cypher:wikidata": "Q33102273"}}, {"type": "node", "id": 10289813053, "lat": 54.082764, "lon": -4.7303058, "tags": {"amenity": "post_box", "royal_cypher": "ER", "source": "survey;mapillary"}}, {"type": "node", "id": 10291919451, "lat": 54.0824374, "lon": -4.7614102, "tags": {"amenity": "post_box", "royal_cypher": "VR", "royal_cypher:wikidata": "Q33102356"}}, {"type": "node", "id": 10294804587, "lat": 54.3300321, "lon": -4.4060243, "tags": {"amenity": "post_box", "source": "mapillary"}}, {"type": "node", "id": 10296588279, "lat": 54.3670671, "lon": -4.4445347, "tags": {"amenity": "post_box", "source": "mapillary"}}, {"type": "node", "id": 10296602417, "lat": 54.3865448, "lon": -4.4501775, "tags": {"amenity": "post_box", "source": "mapillary"}}, {"type": "node", "id": 10296635827, "lat": 54.3540778, "lon": -4.534879, "tags": {"amenity": "post_box", "source": "mapillary"}}, {"type": "node", "id": 10296666650, "lat": 54.3635245, "lon": -4.5165934, "tags": {"amenity": "post_box", "source": "mapillary"}}, {"type": "node", "id": 10296666661, "lat": 54.3638254, "lon": -4.4956906, "tags": {"amenity": "post_box", "royal_cypher": "VR", "royal_cypher:wikidata": "Q33102356", "source": "mapillary;streetside"}}, {"type": "node", "id": 10296682267, "lat": 54.382293, "lon": -4.3894721, "tags": {"amenity": "post_box", "source": "streetside"}}, {"type": "node", "id": 10296694913, "lat": 54.3461678, "lon": -4.5025806, "tags": {"amenity": "post_box", "source": "mapillary"}}, {"type": "node", "id": 10296694919, "lat": 54.3478739, "lon": -4.4885316, "tags": {"amenity": "post_box", "post_box:type": "lamp", "source": "mapillary"}}, {"type": "node", "id": 10296694940, "lat": 54.3405681, "lon": -4.4695852, "tags": {"amenity": "post_box", "source": "mapillary"}}, {"type": "node", "id": 10296706554, "lat": 54.3886888, "lon": -4.4040498, "tags": {"amenity": "post_box", "source": "streetside"}}, {"type": "node", "id": 10296983929, "lat": 54.3488027, "lon": -4.4147652, "tags": {"amenity": "post_box", "source": "mapillary"}}, {"type": "node", "id": 10297006037, "lat": 54.3522682, "lon": -4.3840343, "tags": {"amenity": "post_box", "post_box:type": "wall", "royal_cypher": "VR", "royal_cypher:wikidata": "Q33102356", "source": "mapillary"}}, {"type": "node", "id": 10297012870, "lat": 54.3652539, "lon": -4.4497263, "tags": {"amenity": "post_box", "royal_cypher": "EIIR", "royal_cypher:wikidata": "Q33102113", "source": "streetside"}}, {"type": "node", "id": 10297041907, "lat": 54.2809113, "lon": -4.58803, "tags": {"amenity": "post_box", "source": "mapillary"}}, {"type": "node", "id": 10297042713, "lat": 54.2847356, "lon": -4.5861534, "tags": {"amenity": "post_box"}}, {"type": "node", "id": 10297047839, "lat": 54.2991457, "lon": -4.5707195, "tags": {"amenity": "post_box", "source": "mapillary"}}, {"type": "node", "id": 10297208524, "lat": 54.3221665, "lon": -4.4806793, "tags": {"amenity": "post_box", "royal_cypher": "EIIR", "royal_cypher:wikidata": "Q33102113", "source": "mapillary"}}, {"type": "node", "id": 10297246705, "lat": 54.3190821, "lon": -4.4234324, "tags": {"amenity": "post_box", "source": "mapillary;streetside"}}, {"type": "node", "id": 10297246706, "lat": 54.3135306, "lon": -4.4084341, "tags": {"amenity": "post_box", "source": "streetside"}}, {"type": "node", "id": 10297362455, "lat": 54.3187941, "lon": -4.3824611, "tags": {"amenity": "post_box", "source": "mapillary"}}, {"type": "node", "id": 10297362457, "lat": 54.3187486, "lon": -4.3771378, "tags": {"amenity": "post_box", "source": "mapillary;streetside"}}, {"type": "node", "id": 10297362459, "lat": 54.3162914, "lon": -4.3743989, "tags": {"amenity": "post_box", "royal_cypher": "GR", "royal_cypher:wikidata": "Q33102273", "source": "mapillary;bing"}}, {"type": "node", "id": 10297401447, "lat": 54.3085626, "lon": -4.3515205, "tags": {"amenity": "post_box", "source": "streetside"}}, {"type": "node", "id": 10297403401, "lat": 54.2715061, "lon": -4.3770397, "tags": {"amenity": "post_box", "source": "streetside"}}, {"type": "node", "id": 10297405878, "lat": 54.2428578, "lon": -4.3773393, "tags": {"amenity": "post_box", "source": "mapillary"}}, {"type": "node", "id": 10297481485, "lat": 54.2303547, "lon": -4.4047658, "tags": {"amenity": "post_box", "source": "mapillary"}}, {"type": "node", "id": 10298338861, "lat": 54.2229138, "lon": -4.3966632, "tags": {"amenity": "post_box", "royal_cypher": "VR", "royal_cypher:wikidata": "Q33102356", "source": "streetside"}}, {"type": "node", "id": 10298338876, "lat": 54.2260411, "lon": -4.3919418, "tags": {"amenity": "post_box", "post_box:type": "wall", "royal_cypher": "GR", "royal_cypher:wikidata": "Q33102273", "source": "streetside"}}, {"type": "node", "id": 10298509329, "lat": 54.2042514, "lon": -4.4100821, "tags": {"amenity": "post_box", "source": "streetside"}}, {"type": "node", "id": 10298516497, "lat": 54.2295696, "lon": -4.4015814, "tags": {"amenity": "post_box", "source": "streetside"}}, {"type": "node", "id": 10312964426, "lat": 54.215385, "lon": -4.5023815, "tags": {"amenity": "post_box", "name": "East Baldwin", "post_box:type": "wall", "ref": "90", "royal_cypher": "VR", "royal_cypher:wikidata": "Q33102356", "source": "geograph", "source:image": "https://www.geograph.org.uk/photo/5740352"}}, {"type": "node", "id": 10313010198, "lat": 54.1751394, "lon": -4.490467, "tags": {"amenity": "post_box", "source": "streetside"}}, {"type": "node", "id": 10313011212, "lat": 54.2161428, "lon": -4.4041596, "tags": {"amenity": "post_box", "source": "streetside"}}, {"type": "node", "id": 10313018524, "lat": 54.098667, "lon": -4.6313292, "tags": {"amenity": "post_box", "name": "Ballasalla Post Office", "post_box:type": "pillar", "ref": "110", "source": "streetside;bing"}}, {"type": "node", "id": 10313018525, "lat": 54.1023554, "lon": -4.6310261, "tags": {"amenity": "post_box", "source": "streetside"}}, {"type": "node", "id": 10313019335, "lat": 54.0766466, "lon": -4.6468016, "tags": {"amenity": "post_box", "name": "Bowling Green Road", "operator": "Isle of Man Post Office", "operator:wikidata": "Q3432267", "post_box:mounting": "brick_wall", "post_box:type": "wall", "ref": "126", "royal_cypher": "GR", "royal_cypher:wikidata": "Q33102273", "source": "mapillary", "wikimedia_commons": "File:126 Bowling Green Road - postbox - geograph.org.uk - 1711136.jpg"}}, {"type": "node", "id": 10313023993, "lat": 54.09428, "lon": -4.6281402, "tags": {"amenity": "post_box", "post_box:mounting": "pole", "source": "streetside;bing"}}, {"type": "node", "id": 10313045469, "lat": 54.1573403, "lon": -4.4821759, "tags": {"amenity": "post_box", "post_box:type": "pillar", "royal_cypher": "GR", "royal_cypher:wikidata": "Q33102273", "source": "mapillary;bing"}}, {"type": "node", "id": 10313045926, "lat": 54.0782667, "lon": -4.6561769, "tags": {"amenity": "post_box", "fixme": "Check presence after completion of surrounding developments. As of 24 July 2023, still present but not completed.", "mapillary": "121337036931802", "post_box:mounting": "brick_pillar", "post_box:type": "wall"}}, {"type": "node", "id": 10313069962, "lat": 54.1547737, "lon": -4.4834941, "tags": {"amenity": "post_box", "post_box:type": "pillar"}}, {"type": "node", "id": 10313108238, "lat": 54.1557742, "lon": -4.4921478, "tags": {"amenity": "post_box", "post_box:type": "pillar", "source": "mapillary;bing"}}, {"type": "node", "id": 10313108239, "lat": 54.1553012, "lon": -4.4882153, "tags": {"amenity": "post_box", "post_box:mounting": "wall", "royal_cypher": "GR", "royal_cypher:wikidata": "Q33102273", "source": "mapillary"}}, {"type": "node", "id": 10313108240, "lat": 54.1580221, "lon": -4.4915612, "tags": {"amenity": "post_box", "post_box:mounting": "wall", "royal_cypher": "GR", "royal_cypher:wikidata": "Q33102273", "source": "mapillary"}}, {"type": "node", "id": 10314823785, "lat": 54.1673105, "lon": -4.4699087, "tags": {"amenity": "post_box", "post_box:type": "wall", "source": "streetside"}}, {"type": "node", "id": 10314823786, "lat": 54.1697949, "lon": -4.4604073, "tags": {"amenity": "post_box", "post_box:mounting": "brick_pillar", "post_box:type": "wall", "source": "streetside;bing"}}, {"type": "node", "id": 10314823787, "lat": 54.1721533, "lon": -4.4562735, "tags": {"amenity": "post_box", "post_box:mounting": "pole", "post_box:type": "lamp", "source": "mapillary;bing"}}, {"type": "node", "id": 10314823788, "lat": 54.1740967, "lon": -4.4555818, "tags": {"amenity": "post_box", "colour": "gold", "note:gold": "painted gold in honour of Peter Kennaugh 2012 olympic triumph", "post_box:design": "type_d", "post_box:type": "pillar", "royal_cypher": "GR", "source": "streetside;bing"}}, {"type": "node", "id": 10314823789, "lat": 54.1696746, "lon": -4.4529141, "tags": {"amenity": "post_box", "post_box:type": "wall", "source": "streetside"}}, {"type": "node", "id": 10314823790, "lat": 54.1674817, "lon": -4.4519511, "tags": {"amenity": "post_box", "post_box:type": "pillar", "source": "streetside;mapillary;bing"}}, {"type": "node", "id": 10314834619, "lat": 54.1777137, "lon": -4.448035, "tags": {"amenity": "post_box", "post_box:mounting": "pole", "post_box:type": "lamp", "source": "streetside"}}, {"type": "node", "id": 10601711796, "lat": 54.3267305, "lon": -4.3899393, "tags": {"amenity": "post_box", "post_box:mounting": "stone_wall", "source": "streetside"}}, {"type": "node", "id": 10661831335, "lat": 54.3100255, "lon": -4.5417848, "tags": {"amenity": "post_box", "post_box:mounting": "pole", "post_box:type": "lamp"}}, {"type": "node", "id": 10686736854, "lat": 54.1726653, "lon": -4.5114099, "tags": {"amenity": "post_box", "post_box:mounting": "stone_wall"}}, {"type": "node", "id": 10717600769, "lat": 54.1342274, "lon": -4.5211051, "tags": {"amenity": "post_box", "post_box:type": "lamp"}}, {"type": "node", "id": 10720886909, "lat": 54.1323637, "lon": -4.5310742, "tags": {"amenity": "post_box", "post_box:type": "lamp"}}, {"type": "node", "id": 10720897688, "lat": 54.1745472, "lon": -4.5503634, "tags": {"amenity": "post_box", "post_box:type": "lamp"}}, {"type": "node", "id": 10720897830, "lat": 54.1236459, "lon": -4.5737981, "tags": {"amenity": "post_box", "post_box:type": "lamp"}}, {"type": "node", "id": 10721020931, "lat": 54.2200322, "lon": -4.690456, "tags": {"amenity": "post_box", "post_box:type": "wall"}}, {"type": "node", "id": 10721031034, "lat": 54.1970965, "lon": -4.6087103, "tags": {"amenity": "post_box", "post_box:type": "wall", "royal_cypher": "VR", "royal_cypher:wikidata": "Q33102356"}}, {"type": "node", "id": 10721053851, "lat": 54.238784, "lon": -4.6472797, "tags": {"amenity": "post_box", "post_box:type": "wall"}}, {"type": "node", "id": 10721114802, "lat": 54.0858562, "lon": -4.7584283, "tags": {"amenity": "post_box", "post_box:type": "wall"}}, {"type": "node", "id": 10731485542, "lat": 54.3230701, "lon": -4.3922383, "tags": {"amenity": "post_box", "source": "note"}}, {"type": "node", "id": 10748132246, "lat": 54.224464, "lon": -4.6846971, "tags": {"amenity": "post_box", "post_box:type": "wall", "royal_cypher": "VR", "royal_cypher:wikidata": "Q33102356"}}, {"type": "node", "id": 10751947418, "lat": 54.1717254, "lon": -4.4789739, "tags": {"amenity": "post_box", "collection_times": "Mo-Fr 16:45", "ref": "260"}}, {"type": "node", "id": 10827283635, "lat": 54.3216747, "lon": -4.3820215, "tags": {"amenity": "post_box", "collection_times": "Mo-Fr 06:00,16:45; Sa 06:45,12:00", "colour": "red", "description": "SPAR box", "operator": "Isle of Man Post Office", "post_box:type": "pillar"}}, {"type": "node", "id": 10914723673, "lat": 54.0892053, "lon": -4.6307454, "tags": {"amenity": "post_box", "name": "Freeport"}}, {"type": "node", "id": 11162786637, "lat": 54.0872162, "lon": -4.6416463, "tags": {"amenity": "post_box", "post_box:type": "lamp"}}, {"type": "node", "id": 11704902912, "lat": 54.1513301, "lon": -4.5291188, "tags": {"amenity": "post_box", "collection_times": "Mo-Fr 08:00,18:00", "operator": "Isle of Man Post", "post_box:type": "meter", "royal_cypher": "CIIIR", "source": "https://www.three.fm/news/isle-of-man-news/kings-cypher-unveiled-on-post-box/"}}]}