{
  "type": "FeatureCollection",
  "features": [
    {
      "type": "Feature",
      "id": 3603072966,
      "geometry": {
        "type": "Point",
        "coordinates": [
          -4.651753,
          54.073112
        ]
      },
      "properties": {
        "amenity": "charging_station",
        "authentication:app": "yes",
        "authentication:none": "no",
        "capacity": "2",
        "operator": "Pod Point",
        "operator:wikidata": "Q42888154",
        "operator:wikipedia": "en:Pod Point",
        "ref": "Reno-Gina; PG-84970",
        "socket:type2": "2",
        "socket:type2:output": "7000",
        "source": "survey"
      }
    },
    {
      "type": "Feature",
      "id": 5182378606,
      "geometry": {
        "type": "Point",
        "coordinates": [
          -4.695833,
          54.222626
        ]
      },
      "properties": {
        "amenity": "charging_station",
        "authentication:none": "yes",
        "brand": "PodPoint",
        "capacity": "2",
        "fee": "yes",
        "opening_hours": "24/7",
        "operator": "Pod Point",
        "operator:wikidata": "Q42888154",
        "socket:type2": "2",
        "source": "survey"
      }
    },
    {
      "type": "Feature",
      "id": 7598451580,
      "geometry": {
        "type": "Point",
        "coordinates": [
          -4.696869,
          54.221949
        ]
      },
      "properties": {
        "amenity": "charging_station"
      }
    },
    {
      "type": "Feature",
      "id": 7598460308,
      "geometry": {
        "type": "Point",
        "coordinates": [
          -4.697281,
          54.221812
        ]
      },
      "properties": {
        "amenity": "charging_station"
      }
    },
    {
      "type": "Feature",
      "id": 9351478015,
      "geometry": {
        "type": "Point",
        "coordinates": [
          -4.651713,
          54.073149
        ]
      },
      "properties": {
        "amenity": "charging_station",
        "authentication:app": "yes",
        "authentication:none": "no",
        "capacity": "2",
        "operator": "Pod Point",
        "operator:wikidata": "Q42888154",
        "operator:wikipedia": "en:Pod Point",
        "ref": "Lars-Noah; PG-84485",
        "socket:type2": "2",
        "socket:type2:output": "7000",
        "source": "survey"
      }
    },
    {
      "type": "Feature",
      "id": 9887598251,
      "geometry": {
        "type": "Point",
        "coordinates": [
          -4.654626,
          54.072605
        ]
      },
      "properties": {
        "amenity": "charging_station",
        "brand": "Pod Point",
        "capacity": "2",
        "name": "Pria-Bess",
        "operator": "Pod Point",
        "operator:wikidata": "Q42888154",
        "ref": "PG-84481",
        "socket:type2": "2",
        "socket:type2:output": "7 kW"
      }
    },
    {
      "type": "Feature",
      "id": 10893563060,
      "geometry": {
        "type": "Point",
        "coordinates": [
          -4.466166,
          54.165551
        ]
      },
      "properties": {
        "amenity": "charging_station",
        "capacity": "2",
        "operator": "POD Point"
      }
    },
    {
      "type": "Feature",
      "id": 10897693660,
      "geometry": {
        "type": "Point",
        "coordinates": [
          -4.474605,
          54.148397
        ]
      },
      "properties": {
        "amenity": "charging_station"
      }
    },
    {
      "type": "Feature",
      "id": 11170791038,
      "geometry": {
        "type": "Point",
        "coordinates": [
          -4.759534,
          54.082892
        ]
      },
      "properties": {
        "amenity": "charging_station",
        "operator": "Pod Point",
        "operator:wikidata": "Q42888154",
        "website": "https://charge.pod-point.com/address/breagle-glen-pavilion-0y80m"
      }
    },
    {
      "type": "Feature",
      "id": 11280040355,
      "geometry": {
        "type": "Point",
        "coordinates": [
          -4.454589,
          54.174869
        ]
      },
      "properties": {
        "amenity": "charging_station",
        "capacity": "2",
        "name": "Finn-Earl",
        "operator": "POD Point",
        "ref": "PG-87329"
      }
    },
    {
      "type": "Feature",
      "id": 11811417820,
      "geometry": {
        "type": "Point",
        "coordinates": [
          -4.739486,
          54.078369
        ]
      },
      "properties": {
        "amenity": "charging_station",
        "capacity": "4",
        "operator": "Pod Point",
        "operator:wikidata": "Q42888154",
        "website": "https://charge.pod-point.com/address/port-st-mary-town-hall-car-park-e7z2x"
      }
    },
    {
      "type": "Feature",
      "id": 11848336016,
      "geometry": {
        "type": "Point",
        "coordinates": [
          -4.533548,
          54.15323
        ]
      },
      "properties": {
        "amenity": "charging_station",
        "brand": "Pod Point",
        "capacity": "2",
        "opening_hours": "24/7",
        "operator": "Pod Point",
        "socket:type2": "2",
        "socket:type2:output": "7 kW"
      }
    },
    {
      "type": "Feature",
      "id": 11848336017,
      "geometry": {
        "type": "Point",
        "coordinates": [
          -4.533542,
          54.153273
        ]
      },
      "properties": {
        "amenity": "charging_station",
        "brand": "Pod Point",
        "capacity": "2",
        "opening_hours": "24/7",
        "operator": "Pod Point",
        "socket:type2": "2",
        "socket:type2:output": "7 kW"
      }
    },
    {
      "type": "Feature",
      "id": 11874821150,
      "geometry": {
        "type": "Point",
        "coordinates": [
          -4.631148,
          54.09753
        ]
      },
      "properties": {
        "amenity": "charging_station",
        "brand": "Pod Point",
        "opening_hours": "24/7",
        "operator": "Pod Point",
        "ref_name": "Page-Jake",
        "socket:type2": "2",
        "socket:type2:output": "7 kW"
      }
    },
    {
      "type": "Feature",
      "id": 11889767185,
      "geometry": {
        "type": "Point",
        "coordinates": [
          -4.388588,
          54.322899
        ]
      },
      "properties": {
        "amenity": "charging_station",
        "operator": "Pod Point",
        "operator:wikidata": "Q42888154",
        "website": "https://charge.pod-point.com/address/shoprite-car-park-xem85"
      }
    },
    {
      "type": "Feature",
      "id": 1165384236,
      "geometry": {
        "type": "LineString",
        "coordinates": [
          [
            -4.478399,
            54.153819
          ],
          [
            -4.478357,
            54.154024
          ],
          [
            -4.478328,
            54.154022
          ],
          [
            -4.478371,
            54.153817
          ],
          [
            -4.478399,
            54.153819
          ]
        ]
      },
      "properties": {
        "amenity": "charging_station",
        "capacity": "4"
      }
    },
    {
      "type": "Feature",
      "id": 1167710497,
      "geometry": {
        "type": "LineString",
        "coordinates": [
          [
            -4.474996,
            54.159681
          ],
          [
            -4.474927,
            54.159755
          ],
          [
            -4.474958,
            54.159765
          ],
          [
            -4.475027,
            54.159691
          ],
          [
            -4.474996,
            54.159681
          ]
        ]
      },
      "properties": {
        "amenity": "charging_station",
        "capacity": "2"
      }
    },
    {
      "type": "Feature",
      "id": 1174305874,
      "geometry": {
        "type": "LineString",
        "coordinates": [
          [
            -4.478192,
            54.151849
          ],
          [
            -4.478225,
            54.151992
          ],
          [
            -4.478189,
            54.152019
          ],
          [
            -4.47815,
            54.151852
          ],
          [
            -4.478192,
            54.151849
          ]
        ]
      },
      "properties": {
        "amenity": "charging_station",
        "capacity": "2"
      }
    }
  ]
}