{
  "type": "FeatureCollection",
  "features": [
    {
      "type": "Feature",
      "id": 1666047899,
      "geometry": {
        "type": "Point",
        "coordinates": [
          -4.756051,
          54.086726
        ]
      },
      "properties": {
        "addr:city": "Port Erin",
        "addr:country": "IM",
        "addr:street": "Orchard Walk",
        "charity": "yes",
        "charity:ref": "317",
        "name": "Hospice Shop",
        "recycling:batteries": "no",
        "recycling:books": "yes",
        "recycling:clothes": "yes",
        "recycling:electrical_appliances": "yes",
        "recycling:furniture": "yes",
        "recycling:glass": "yes",
        "recycling:magazines": "yes",
        "recycling:small_appliances": "yes",
        "shop": "charity",
        "website": "https://www.hospiceshops.com/"
      }
    },
    {
      "type": "Feature",
      "id": 8567404081,
      "geometry": {
        "type": "Point",
        "coordinates": [
          -4.617924,
          54.17026
        ]
      },
      "properties": {
        "amenity": "animal_shelter",
        "charity": "animal",
        "name": "Ard Jerkyll",
        "operator": "ManxSPCA",
        "ref:charity": "26A",
        "website": "https://www.manxspca.com"
      }
    },
    {
      "type": "Feature",
      "id": 10829691486,
      "geometry": {
        "type": "Point",
        "coordinates": [
          -4.378926,
          54.320882
        ]
      },
      "properties": {
        "addr:city": "Ramsey",
        "addr:country": "IM",
        "addr:housenumber": "14-15",
        "addr:place": "Saint Paul's Square",
        "charity": "yes",
        "contact:facebook": "https://www.facebook.com/pg/DropInnMinistriesIOM",
        "name": "Drop Inn Kids",
        "phone": "+44 1624 816141",
        "shop": "charity",
        "website": "https://dropinn.net/place/isle-of-man-shop"
      }
    },
    {
      "type": "Feature",
      "id": 10829691498,
      "geometry": {
        "type": "Point",
        "coordinates": [
          -4.379619,
          54.320828
        ]
      },
      "properties": {
        "addr:city": "Ramsey",
        "addr:country": "IM",
        "addr:place": "Saint Paul's Square",
        "charity": "yes",
        "contact:facebook": "https://www.facebook.com/p/Treasured-100070007569320/",
        "name": "Treasured",
        "ref:charity": "1321",
        "shop": "charity"
      }
    },
    {
      "type": "Feature",
      "id": 11800214430,
      "geometry": {
        "type": "Point",
        "coordinates": [
          -4.385771,
          54.322185
        ]
      },
      "properties": {
        "addr:city": "Ramsey",
        "addr:housenumber": "87",
        "addr:postcode": "IM8 1AJ",
        "addr:street": "Parliament Street",
        "addr:unit": "3",
        "charity": "yes",
        "fixme": "check position",
        "name": "Age Concern Isle of Man",
        "operator": "Age Concern Isle of Man",
        "ref:charity": "549",
        "shop": "charity",
        "website": "https://www.ageconcern.im/"
      }
    },
    {
      "type": "Feature",
      "id": 59384494,
      "geometry": {
        "type": "LineString",
        "coordinates": [
          [
            -4.469835,
            54.14479
          ],
          [
            -4.469624,
            54.144918
          ],
          [
            -4.469667,
            54.144942
          ],
          [
            -4.46971,
            54.144967
          ],
          [
            -4.469921,
            54.144839
          ],
          [
            -4.469877,
            54.144813
          ],
          [
            -4.469835,
            54.14479
          ]
        ]
      },
      "properties": {
        "addr:country": "IM",
        "addr:street": "Battery Pier",
        "building": "yes",
        "charity": "lifeboat",
        "emergency": "water_rescue",
        "name": "Douglas Lifeboat Station",
        "operator": "Royal National Lifeboat Institution",
        "operator:short": "RNLI",
        "operator:type": "charitable",
        "operator:wikidata": "Q2166873",
        "postal_code": "IM1 5BT",
        "seamark:name": "Douglas Lifeboat Station",
        "seamark:rescue_station:category": "lifeboat",
        "seamark:type": "rescue_station",
        "source": "Isle of Man Government aerial imagery (2001)",
        "website": "https://rnli.org/find-my-nearest/lifeboat-stations/douglas-lifeboat-station"
      }
    },
    {
      "type": "Feature",
      "id": 59384842,
      "geometry": {
        "type": "LineString",
        "coordinates": [
          [
            -4.480753,
            54.151986
          ],
          [
            -4.480771,
            54.151987
          ],
          [
            -4.480774,
            54.151967
          ],
          [
            -4.480973,
            54.151976
          ],
          [
            -4.480963,
            54.152058
          ],
          [
            -4.480744,
            54.152048
          ],
          [
            -4.480753,
            54.151986
          ]
        ]
      },
      "properties": {
        "addr:city": "Douglas",
        "addr:country": "IM",
        "addr:housenumber": "20",
        "addr:postcode": "IM1 2PT",
        "addr:street": "Finch Road",
        "amenity": "place_of_worship",
        "building": "yes",
        "charity": "yes",
        "contact:website": "http://www.iomia.com/",
        "denomination": "sunni",
        "listed_status": "Registered",
        "name": "Isle of Man Mosque",
        "opening_hours": "09:00-18:00",
        "operator": "Isle of Man Islamic Association",
        "operator:type": "charitable",
        "ref:charity": "432",
        "ref:registered_building": "100",
        "religion": "muslim",
        "source": "Isle of Man Government aerial imagery (2001)",
        "url:registered_building": "https://www.gov.im/media/632129/0500100regbld20finchroad.pdf",
        "wikidata": "Q118188645"
      }
    },
    {
      "type": "Feature",
      "id": 59700895,
      "geometry": {
        "type": "LineString",
        "coordinates": [
          [
            -4.697883,
            54.227006
          ],
          [
            -4.698034,
            54.226971
          ],
          [
            -4.698158,
            54.227151
          ],
          [
            -4.698007,
            54.227186
          ],
          [
            -4.697883,
            54.227006
          ]
        ]
      },
      "properties": {
        "addr:city": "Peel",
        "addr:country": "IM",
        "addr:postcode": "IM5 1TG",
        "addr:street": "West Quay",
        "building": "yes",
        "charity": "lifeboat",
        "emergency": "water_rescue",
        "name": "Peel Lifeboat Station",
        "operator": "Royal National Lifeboat Institution",
        "operator:short": "RNLI",
        "operator:type": "charitable",
        "operator:wikidata": "Q2166873",
        "operator:wikipedia": "en:Royal National Lifeboat Institution",
        "seamark:name": "Peel Lifeboat Station",
        "seamark:rescue_station:category": "lifeboat",
        "seamark:type": "rescue_station",
        "source": "Isle of Man Government aerial imagery (2001)",
        "website": "https://rnli.org/find-my-nearest/lifeboat-stations/peel-lifeboat-station"
      }
    },
    {
      "type": "Feature",
      "id": 60007259,
      "geometry": {
        "type": "LineString",
        "coordinates": [
          [
            -4.767893,
            54.085094
          ],
          [
            -4.767971,
            54.085078
          ],
          [
            -4.768168,
            54.085081
          ],
          [
            -4.768203,
            54.085147
          ],
          [
            -4.768071,
            54.085173
          ],
          [
            -4.768105,
            54.085232
          ],
          [
            -4.768063,
            54.085241
          ],
          [
            -4.768025,
            54.085249
          ],
          [
            -4.767987,
            54.085256
          ],
          [
            -4.767893,
            54.085094
          ]
        ]
      },
      "properties": {
        "addr:city": "Port Erin",
        "addr:country": "IM",
        "addr:postcode": "IM9 6JA",
        "addr:street": "Breakwater Road",
        "building": "yes",
        "charity": "lifeboat",
        "emergency": "water_rescue",
        "name": "Port Erin Lifeboat Station",
        "not:addr:postcode": "IM9 6BU",
        "operator": "Royal National Lifeboat Institution",
        "operator:short": "RNLI",
        "operator:type": "charitable",
        "operator:wikidata": "Q2166873",
        "operator:wikipedia": "en:Royal National Lifeboat Institution",
        "seamark:name": "Port Erin Lifeboat Station",
        "seamark:rescue_station:category": "lifeboat",
        "seamark:type": "rescue_station",
        "source": "Isle of Man Government aerial imagery (2001)",
        "website": "https://rnli.org/find-my-nearest/lifeboat-stations/port-erin-lifeboat-station"
      }
    },
    {
      "type": "Feature",
      "id": 79144725,
      "geometry": {
        "type": "LineString",
        "coordinates": [
          [
            -4.498957,
            54.169932
          ],
          [
            -4.49878,
            54.169975
          ],
          [
            -4.498761,
            54.169948
          ],
          [
            -4.498653,
            54.169795
          ],
          [
            -4.498729,
            54.169776
          ],
          [
            -4.498829,
            54.169752
          ],
          [
            -4.498957,
            54.169932
          ]
        ]
      },
      "properties": {
        "addr:city": "Cronkbourne",
        "addr:country": "IM",
        "addr:housename": "Ballafletcher House",
        "addr:postcode": "IM4 4QE",
        "addr:street": "Ballafletcher Farm Road",
        "building": "commercial",
        "charity": "food",
        "contact:facebook": "https://www.facebook.com/IOMFoodbank/",
        "name": "Isle of Man Foodbank",
        "ref:charity": "1148",
        "social_facility": "food_bank",
        "source": "Isle of Man Government aerial imagery (2001)",
        "website": "https://isleofmanfoodbank.wordpress.com/"
      }
    },
    {
      "type": "Feature",
      "id": 79372980,
      "geometry": {
        "type": "LineString",
        "coordinates": [
          [
            -4.501548,
            54.153873
          ],
          [
            -4.501645,
            54.153853
          ],
          [
            -4.501642,
            54.153845
          ],
          [
            -4.501772,
            54.15382
          ],
          [
            -4.501844,
            54.153969
          ],
          [
            -4.501811,
            54.153978
          ],
          [
            -4.501701,
            54.153996
          ],
          [
            -4.501671,
            54.153937
          ],
          [
            -4.501616,
            54.15395
          ],
          [
            -4.501625,
            54.153959
          ],
          [
            -4.50154,
            54.153968
          ],
          [
            -4.501529,
            54.153926
          ],
          [
            -4.501578,
            54.153919
          ],
          [
            -4.501548,
            54.153873
          ]
        ]
      },
      "properties": {
        "addr:city": "Douglas",
        "addr:country": "IM",
        "addr:housename": "Scholl Building",
        "addr:lot": "Fire Headquarters",
        "addr:postcode": "IM1 5ED",
        "addr:street": "Peel Road",
        "building": "yes",
        "charity": "yes",
        "name": "Hyperbaric Medicine Facility",
        "operator": "HBOT IOM",
        "operator:type": "charitable",
        "ref:charity": "1274",
        "source": "bing",
        "website": "https://www.hbot.im"
      }
    },
    {
      "type": "Feature",
      "id": 82567290,
      "geometry": {
        "type": "LineString",
        "coordinates": [
          [
            -4.496127,
            54.154905
          ],
          [
            -4.496237,
            54.15491
          ],
          [
            -4.496221,
            54.15502
          ],
          [
            -4.496194,
            54.155018
          ],
          [
            -4.496139,
            54.155016
          ],
          [
            -4.496111,
            54.155015
          ],
          [
            -4.496119,
            54.154958
          ],
          [
            -4.496127,
            54.154905
          ]
        ]
      },
      "properties": {
        "addr:city": "Douglas",
        "addr:country": "IM",
        "addr:street": "Ballabrooie Way",
        "building": "yes",
        "charity": "yes",
        "club": "yes",
        "contact:facebook": "https://www.facebook.com/p/Lions-Club-of-the-Isle-of-Man-100064804596623/",
        "name": "Lions Club of the Isle of Man",
        "ref:charity": "637",
        "source": "Isle of Man Government aerial imagery (2001)",
        "website": "https://lions.im"
      }
    },
    {
      "type": "Feature",
      "id": 92112419,
      "geometry": {
        "type": "LineString",
        "coordinates": [
          [
            -4.617991,
            54.170116
          ],
          [
            -4.617987,
            54.170204
          ],
          [
            -4.617733,
            54.1702
          ],
          [
            -4.617733,
            54.170189
          ],
          [
            -4.617669,
            54.170189
          ],
          [
            -4.617672,
            54.170111
          ],
          [
            -4.617991,
            54.170116
          ]
        ]
      },
      "properties": {
        "addr:postcode": "IM4 3HL",
        "amenity": "cafe",
        "animal": "shelter",
        "building": "yes",
        "charity": "animal",
        "name": "Ard Jerkyll",
        "operator": "ManxSPCA",
        "ref:charity": "26A",
        "website": "https://www.manxspca.com",
        "wheelchair": "limited"
      }
    },
    {
      "type": "Feature",
      "id": 101756496,
      "geometry": {
        "type": "LineString",
        "coordinates": [
          [
            -4.758402,
            54.085398
          ],
          [
            -4.758555,
            54.085402
          ],
          [
            -4.758557,
            54.085482
          ],
          [
            -4.758483,
            54.085482
          ],
          [
            -4.758483,
            54.085496
          ],
          [
            -4.758542,
            54.085496
          ],
          [
            -4.758541,
            54.085546
          ],
          [
            -4.758513,
            54.085546
          ],
          [
            -4.75842,
            54.085545
          ],
          [
            -4.758394,
            54.085545
          ],
          [
            -4.758394,
            54.085531
          ],
          [
            -4.758402,
            54.085398
          ]
        ]
      },
      "properties": {
        "addr:city": "Port Erin",
        "addr:country": "IM",
        "addr:housenumber": "5",
        "addr:postcode": "IM9 6AE",
        "addr:street": "Station Road",
        "building": "retail",
        "building:levels": "1",
        "charity": "yes",
        "name": "Age Concern Isle of Man",
        "operator": "Age Concern Isle of Man",
        "phone": "+44 1624 835412",
        "ref:charity": "549",
        "shop": "charity",
        "website": "https://www.ageconcern.im/"
      }
    },
    {
      "type": "Feature",
      "id": 101875153,
      "geometry": {
        "type": "LineString",
        "coordinates": [
          [
            -4.734669,
            54.07045
          ],
          [
            -4.734602,
            54.070403
          ],
          [
            -4.734398,
            54.070504
          ],
          [
            -4.734464,
            54.07055
          ],
          [
            -4.734546,
            54.07051
          ],
          [
            -4.734669,
            54.07045
          ]
        ]
      },
      "properties": {
        "addr:city": "Port Saint Mary",
        "addr:country": "IM",
        "addr:housename": "Lifeboat Station",
        "addr:postcode": "IM9 5EF",
        "addr:street": "Lime Street",
        "building": "house",
        "charity": "lifeboat",
        "emergency": "water_rescue",
        "listed_status": "Registered",
        "name": "Port St Mary Lifeboat Station",
        "operator": "Royal National Lifeboat Institution",
        "operator:short": "RNLI",
        "operator:type": "charitable",
        "operator:wikidata": "Q2166873",
        "operator:wikipedia": "en:Royal National Lifeboat Institution",
        "ref:registered_building": "304",
        "seamark:name": "Port St Mary Lifeboat Station",
        "seamark:rescue_station:category": "lifeboat",
        "seamark:type": "rescue_station",
        "start_date": "1898",
        "url:registered_building": "https://www.gov.im/media/1373623/304-notice-and-entry-summary.pdf",
        "website": "https://rnli.org/find-my-nearest/lifeboat-stations/port-st-mary-lifeboat-station",
        "wikidata": "Q118188708"
      }
    },
    {
      "type": "Feature",
      "id": 102635562,
      "geometry": {
        "type": "LineString",
        "coordinates": [
          [
            -4.380222,
            54.321224
          ],
          [
            -4.38015,
            54.321263
          ],
          [
            -4.380036,
            54.321193
          ],
          [
            -4.380108,
            54.321153
          ],
          [
            -4.380222,
            54.321224
          ]
        ]
      },
      "properties": {
        "addr:city": "Ramsey",
        "addr:country": "IM",
        "addr:housenumber": "3",
        "addr:postcode": "IM8 1JT",
        "addr:street": "Market Hill",
        "building": "yes",
        "charity": "lifeboat",
        "name": "Royal National Lifeboat Institute",
        "operator:type": "charitable",
        "shop": "gift",
        "source": "Bing",
        "website": "https://rnli.org/find-my-nearest/shops/ramsey-rnli-shop"
      }
    },
    {
      "type": "Feature",
      "id": 102737932,
      "geometry": {
        "type": "LineString",
        "coordinates": [
          [
            -4.378363,
            54.322623
          ],
          [
            -4.37831,
            54.322548
          ],
          [
            -4.37862,
            54.322474
          ],
          [
            -4.378673,
            54.32255
          ],
          [
            -4.378363,
            54.322623
          ]
        ]
      },
      "properties": {
        "addr:city": "Ramsey",
        "addr:country": "IM",
        "addr:housename": "New Norbury Boat House",
        "addr:street": "South Promenade",
        "building": "yes",
        "charity": "lifeboat",
        "emergency": "water_rescue",
        "name": "Ramsey Lifeboat Station",
        "operator": "Royal National Lifeboat Institution",
        "operator:short": "RNLI",
        "operator:type": "charitable",
        "operator:wikidata": "Q2166873",
        "operator:wikipedia": "en:Royal National Lifeboat Institution",
        "seamark:name": "Ramsey Lifeboat Station",
        "seamark:rescue_station:category": "lifeboat",
        "seamark:type": "rescue_station",
        "website": "https://rnli.org/find-my-nearest/lifeboat-stations/ramsey-lifeboat-station"
      }
    },
    {
      "type": "Feature",
      "id": 102856158,
      "geometry": {
        "type": "LineString",
        "coordinates": [
          [
            -4.383947,
            54.322212
          ],
          [
            -4.384014,
            54.322215
          ],
          [
            -4.383993,
            54.322351
          ],
          [
            -4.383927,
            54.322347
          ],
          [
            -4.383935,
            54.322294
          ],
          [
            -4.383947,
            54.322212
          ]
        ]
      },
      "properties": {
        "addr:city": "Ramsey",
        "addr:country": "IM",
        "addr:housenumber": "62",
        "addr:postcode": "IM8 1AJ",
        "addr:street": "Parliament Street",
        "building": "yes",
        "charity": "animal",
        "name": "Bridge Bookshop",
        "shop": "books",
        "website": "https://www.bridge-bookshop.com/"
      }
    },
    {
      "type": "Feature",
      "id": 102856161,
      "geometry": {
        "type": "LineString",
        "coordinates": [
          [
            -4.384014,
            54.322215
          ],
          [
            -4.384071,
            54.322218
          ],
          [
            -4.384054,
            54.322332
          ],
          [
            -4.38405,
            54.322354
          ],
          [
            -4.383993,
            54.322351
          ],
          [
            -4.384014,
            54.322215
          ]
        ]
      },
      "properties": {
        "addr:city": "Ramsey",
        "addr:country": "IM",
        "addr:housenumber": "64",
        "addr:street": "Parliament Street",
        "building": "yes",
        "charity": "animal",
        "name": "ManxSPCA",
        "operator": "ManxSPCA",
        "ref:charity": "26A",
        "shop": "charity"
      }
    },
    {
      "type": "Feature",
      "id": 103485031,
      "geometry": {
        "type": "LineString",
        "coordinates": [
          [
            -4.637784,
            54.083302
          ],
          [
            -4.637795,
            54.083309
          ],
          [
            -4.637837,
            54.083334
          ],
          [
            -4.637677,
            54.083427
          ],
          [
            -4.63765,
            54.083442
          ],
          [
            -4.637578,
            54.083484
          ],
          [
            -4.637524,
            54.083452
          ],
          [
            -4.637583,
            54.083418
          ],
          [
            -4.637552,
            54.083399
          ],
          [
            -4.637542,
            54.083405
          ],
          [
            -4.637533,
            54.083411
          ],
          [
            -4.637475,
            54.083376
          ],
          [
            -4.637538,
            54.08334
          ],
          [
            -4.637626,
            54.083393
          ],
          [
            -4.637727,
            54.083335
          ],
          [
            -4.637784,
            54.083302
          ]
        ]
      },
      "properties": {
        "addr:city": "Ronaldsway",
        "addr:country": "IM",
        "addr:postcode": "IM9 2AT",
        "building": "yes",
        "charity": "yes",
        "fee": "no",
        "museum": "aviation",
        "name": "Manx Aviation and Military Museum",
        "operator": "Manx Aviation and Military Museum",
        "operator:type": "charitable",
        "phone": "+44 1624 829294",
        "ref:charity": "827",
        "source": "Bing",
        "tourism": "museum",
        "website": "http://www.maps.org.im/museum",
        "wikidata": "Q15245777",
        "wikipedia": "en:Manx Aviation and Military Museum"
      }
    },
    {
      "type": "Feature",
      "id": 104794522,
      "geometry": {
        "type": "LineString",
        "coordinates": [
          [
            -4.503048,
            54.173847
          ],
          [
            -4.502446,
            54.173888
          ],
          [
            -4.502421,
            54.173758
          ],
          [
            -4.503111,
            54.173712
          ],
          [
            -4.503048,
            54.173385
          ],
          [
            -4.503161,
            54.173378
          ],
          [
            -4.503164,
            54.173396
          ],
          [
            -4.503212,
            54.173393
          ],
          [
            -4.503225,
            54.173459
          ],
          [
            -4.503327,
            54.173452
          ],
          [
            -4.503328,
            54.173459
          ],
          [
            -4.503428,
            54.173453
          ],
          [
            -4.503442,
            54.173525
          ],
          [
            -4.503351,
            54.173532
          ],
          [
            -4.503353,
            54.173541
          ],
          [
            -4.503299,
            54.173545
          ],
          [
            -4.50334,
            54.173755
          ],
          [
            -4.503351,
            54.173811
          ],
          [
            -4.503314,
            54.173832
          ],
          [
            -4.503349,
            54.174095
          ],
          [
            -4.503293,
            54.174131
          ],
          [
            -4.503338,
            54.174363
          ],
          [
            -4.503156,
            54.174488
          ],
          [
            -4.502903,
            54.174504
          ],
          [
            -4.50288,
            54.174377
          ],
          [
            -4.503052,
            54.174367
          ],
          [
            -4.502954,
            54.174321
          ],
          [
            -4.503041,
            54.174257
          ],
          [
            -4.503137,
            54.174301
          ],
          [
            -4.503109,
            54.174157
          ],
          [
            -4.502979,
            54.174165
          ],
          [
            -4.502956,
            54.174048
          ],
          [
            -4.503085,
            54.174039
          ],
          [
            -4.503048,
            54.173847
          ]
        ]
      },
      "properties": {
        "addr:city": "Douglas",
        "addr:country": "IM",
        "addr:housename": "Hospice, Isle of Man",
        "addr:place": "Strang",
        "addr:postcode": "IM4 4RP",
        "building": "yes",
        "charity": "yes",
        "healthcare": "hospice",
        "name": "Hospice, Isle of Man",
        "operator": "Hospice Care",
        "operator:type": "charitable",
        "phone": "+44 1624 647400",
        "ref:charity": "317",
        "smoking": "no",
        "source": "Bing",
        "website": "https://www.hospice.org.im"
      }
    },
    {
      "type": "Feature",
      "id": 146835161,
      "geometry": {
        "type": "LineString",
        "coordinates": [
          [
            -4.694651,
            54.224013
          ],
          [
            -4.694446,
            54.223985
          ],
          [
            -4.694484,
            54.223889
          ],
          [
            -4.69455,
            54.223898
          ],
          [
            -4.694561,
            54.22387
          ],
          [
            -4.694634,
            54.22388
          ],
          [
            -4.694622,
            54.223908
          ],
          [
            -4.694689,
            54.223917
          ],
          [
            -4.694685,
            54.223927
          ],
          [
            -4.694651,
            54.224013
          ]
        ]
      },
      "properties": {
        "addr:city": "Peel",
        "addr:country": "IM",
        "addr:street": "Shore Road",
        "building": "yes",
        "charity": "yes",
        "contact:facebook": "https://www.facebook.com/PeelCharityShop/",
        "name": "Peel Charity Shop",
        "ref:charity": "815",
        "shop": "clothes;charity"
      }
    },
    {
      "type": "Feature",
      "id": 146972088,
      "geometry": {
        "type": "LineString",
        "coordinates": [
          [
            -4.694878,
            54.22269
          ],
          [
            -4.694993,
            54.222682
          ],
          [
            -4.695008,
            54.222662
          ],
          [
            -4.694862,
            54.222551
          ],
          [
            -4.694817,
            54.222576
          ],
          [
            -4.694845,
            54.222626
          ],
          [
            -4.694878,
            54.22269
          ]
        ]
      },
      "properties": {
        "addr:city": "Peel",
        "addr:country": "IM",
        "addr:housenumber": "2",
        "addr:street": "Michael Street",
        "building": "yes",
        "charity": "yes",
        "name": "Hospice",
        "ref:charity": "317",
        "shop": "charity",
        "website": "https://www.hospiceshops.com"
      }
    },
    {
      "type": "Feature",
      "id": 152690581,
      "geometry": {
        "type": "LineString",
        "coordinates": [
          [
            -4.482116,
            54.151824
          ],
          [
            -4.482033,
            54.151824
          ],
          [
            -4.482033,
            54.15191
          ],
          [
            -4.482061,
            54.15191
          ],
          [
            -4.482061,
            54.151986
          ],
          [
            -4.482116,
            54.151986
          ],
          [
            -4.482116,
            54.151912
          ],
          [
            -4.482116,
            54.151824
          ]
        ]
      },
      "properties": {
        "addr:city": "Douglas",
        "addr:country": "IM",
        "addr:housenumber": "6",
        "addr:postcode": "IM1 2QA",
        "addr:street": "Albert Street",
        "building": "yes",
        "charity": "yes",
        "contact:facebook": "http://www.facebook.com/victimsupportiom",
        "name": "Victim Support Isle of Man",
        "office": "charity",
        "operator": "Victim Support (Isle of Man)",
        "operator:type": "charitable",
        "ref:charity": "963",
        "source:addr:housenumber": "interpolation",
        "website": "https://www.victimsupport.im/"
      }
    },
    {
      "type": "Feature",
      "id": 183946915,
      "geometry": {
        "type": "LineString",
        "coordinates": [
          [
            -4.572982,
            54.123909
          ],
          [
            -4.572826,
            54.123844
          ],
          [
            -4.572816,
            54.123852
          ],
          [
            -4.57275,
            54.123825
          ],
          [
            -4.572701,
            54.123864
          ],
          [
            -4.572776,
            54.123895
          ],
          [
            -4.572726,
            54.123936
          ],
          [
            -4.572604,
            54.123886
          ],
          [
            -4.57252,
            54.123955
          ],
          [
            -4.572607,
            54.123992
          ],
          [
            -4.572657,
            54.123951
          ],
          [
            -4.572838,
            54.124027
          ],
          [
            -4.572982,
            54.123909
          ]
        ]
      },
      "properties": {
        "addr:city": "Santon",
        "addr:postcode": "IM4 1EE",
        "addr:street": "Santon Main Road",
        "amenity": "animal_shelter",
        "animal_shelter": "cat",
        "building": "yes",
        "charity": "yes",
        "name": "Mann Cat Sanctuary",
        "operator": "Mann Cat Sanctuary",
        "operator:type": "charitable",
        "ref:charity": "705",
        "website": "https://www.manncat.com"
      }
    },
    {
      "type": "Feature",
      "id": 233925097,
      "geometry": {
        "type": "LineString",
        "coordinates": [
          [
            -4.405978,
            54.231485
          ],
          [
            -4.405955,
            54.231421
          ],
          [
            -4.406396,
            54.231367
          ],
          [
            -4.406419,
            54.231431
          ],
          [
            -4.406275,
            54.231449
          ],
          [
            -4.405978,
            54.231485
          ]
        ]
      },
      "properties": {
        "addr:city": "Laxey",
        "addr:housenumber": "17",
        "addr:postcode": "IM4 7BD",
        "addr:street": "New Road",
        "alt_name": "The Institute;Working Men's Institute",
        "building": "yes",
        "building:start_date": "1877",
        "charity": "yes",
        "club": "social",
        "listed_status": "Registered",
        "name": "Laxey Working Men's Club",
        "operator": "Laxey Working Men's Institute",
        "operator:type": "charitable",
        "ref:charity": "741;1104",
        "ref:registered_building": "227",
        "source": "Bing",
        "url:registered_building": "https://www.gov.im/media/632537/0500227regbldlaxeyworkingmensinst.pdf",
        "website": "https://theinstitute.im/",
        "wikidata": "Q118188754"
      }
    },
    {
      "type": "Feature",
      "id": 238678567,
      "geometry": {
        "type": "LineString",
        "coordinates": [
          [
            -4.467763,
            54.177303
          ],
          [
            -4.467562,
            54.177291
          ],
          [
            -4.467535,
            54.177444
          ],
          [
            -4.467154,
            54.177421
          ],
          [
            -4.46714,
            54.177502
          ],
          [
            -4.467166,
            54.177504
          ],
          [
            -4.467155,
            54.177562
          ],
          [
            -4.4676,
            54.177589
          ],
          [
            -4.467597,
            54.177609
          ],
          [
            -4.467618,
            54.17761
          ],
          [
            -4.46764,
            54.177612
          ],
          [
            -4.467644,
            54.177591
          ],
          [
            -4.467727,
            54.177596
          ],
          [
            -4.467734,
            54.177554
          ],
          [
            -4.467719,
            54.177553
          ],
          [
            -4.467763,
            54.177303
          ]
        ]
      },
      "properties": {
        "addr:city": "Onchan",
        "addr:country": "IM",
        "addr:housename": "Corrin Court",
        "addr:postcode": "IM3 3AP",
        "addr:street": "Heywood Avenue",
        "building": "yes",
        "charity": "yes",
        "name": "Manx Blind Welfare Society",
        "office": "charity",
        "ref:charity": "132",
        "website": "https://www.sightmatters.im"
      }
    },
    {
      "type": "Feature",
      "id": 328917787,
      "geometry": {
        "type": "LineString",
        "coordinates": [
          [
            -4.70333,
            54.094495
          ],
          [
            -4.70295,
            54.094561
          ],
          [
            -4.70284,
            54.094339
          ],
          [
            -4.70322,
            54.094274
          ],
          [
            -4.70333,
            54.094495
          ]
        ]
      },
      "properties": {
        "addr:city": "Colby",
        "addr:country": "IM",
        "addr:postcode": "IM9 4LR",
        "addr:street": "Colby Main Road",
        "building": "yes",
        "charity": "sport",
        "club": "sport",
        "contact:facebook": "https://www.facebook.com/Colbyfootballclub/",
        "name": "Colby AFC",
        "ref:charity": "832",
        "sport": "soccer",
        "website": "https://colbyafc.com",
        "wikidata": "Q2253674",
        "wikipedia": "en:Colby A.F.C."
      }
    },
    {
      "type": "Feature",
      "id": 412956708,
      "geometry": {
        "type": "LineString",
        "coordinates": [
          [
            -4.404141,
            54.319783
          ],
          [
            -4.40413,
            54.319685
          ],
          [
            -4.404072,
            54.319688
          ],
          [
            -4.404013,
            54.31969
          ],
          [
            -4.404016,
            54.319716
          ],
          [
            -4.40399,
            54.319727
          ],
          [
            -4.403993,
            54.319759
          ],
          [
            -4.404024,
            54.319769
          ],
          [
            -4.404029,
            54.319798
          ],
          [
            -4.403999,
            54.3198
          ],
          [
            -4.403712,
            54.319813
          ],
          [
            -4.403721,
            54.319881
          ],
          [
            -4.403723,
            54.319898
          ],
          [
            -4.403687,
            54.3199
          ],
          [
            -4.403692,
            54.319939
          ],
          [
            -4.403729,
            54.319938
          ],
          [
            -4.40374,
            54.320015
          ],
          [
            -4.404172,
            54.319994
          ],
          [
            -4.404167,
            54.319959
          ],
          [
            -4.403995,
            54.319967
          ],
          [
            -4.403984,
            54.319885
          ],
          [
            -4.404225,
            54.319873
          ],
          [
            -4.404217,
            54.319819
          ],
          [
            -4.404256,
            54.319817
          ],
          [
            -4.404278,
            54.319969
          ],
          [
            -4.404299,
            54.319968
          ],
          [
            -4.404302,
            54.319988
          ],
          [
            -4.404412,
            54.319983
          ],
          [
            -4.404397,
            54.319879
          ],
          [
            -4.404364,
            54.319881
          ],
          [
            -4.404346,
            54.319773
          ],
          [
            -4.404196,
            54.31978
          ],
          [
            -4.404141,
            54.319783
          ]
        ]
      },
      "properties": {
        "addr:city": "Ramsey",
        "addr:housename": "Milntown House",
        "addr:postcode": "IM7 2AB",
        "addr:street": "Lezayre Road",
        "alt_name": "Milntown House",
        "building": "yes",
        "charity": "yes",
        "historic": "house",
        "listed_status": "Registered",
        "name": "Milntown Estate & Gardens",
        "old_name": "Altadale",
        "operator": "The Milntown Trust",
        "operator:type": "charitable",
        "ref:charity": "754",
        "ref:registered_building": "168",
        "tourism": "attraction",
        "url:registered_building": "https://www.gov.im/media/632555/0500168regbldmilntownmansion.pdf",
        "website": "https://www.milntown.org/",
        "wikidata": "Q118188757"
      }
    },
    {
      "type": "Feature",
      "id": 419113935,
      "geometry": {
        "type": "LineString",
        "coordinates": [
          [
            -4.479165,
            54.151676
          ],
          [
            -4.47917,
            54.151713
          ],
          [
            -4.479557,
            54.151696
          ],
          [
            -4.479549,
            54.151657
          ],
          [
            -4.479165,
            54.151676
          ]
        ]
      },
      "properties": {
        "addr:city": "Douglas",
        "addr:housenumber": "59",
        "addr:postcode": "IM1 2EN",
        "addr:street": "Strand Street",
        "building": "retail",
        "building:levels": "2",
        "charity": "yes",
        "name": "Crossroads Care",
        "ref:charity": "383",
        "shop": "charity",
        "source": "Bing;photograph",
        "website": "https://www.crossroadsiom.org/"
      }
    },
    {
      "type": "Feature",
      "id": 773781469,
      "geometry": {
        "type": "LineString",
        "coordinates": [
          [
            -4.395665,
            54.337
          ],
          [
            -4.395262,
            54.33676
          ],
          [
            -4.395153,
            54.336822
          ],
          [
            -4.395314,
            54.336918
          ],
          [
            -4.395256,
            54.336952
          ],
          [
            -4.395224,
            54.336933
          ],
          [
            -4.395035,
            54.33704
          ],
          [
            -4.395205,
            54.337141
          ],
          [
            -4.395307,
            54.337082
          ],
          [
            -4.395266,
            54.337057
          ],
          [
            -4.395247,
            54.337004
          ],
          [
            -4.395283,
            54.336982
          ],
          [
            -4.395439,
            54.337075
          ],
          [
            -4.395507,
            54.337035
          ],
          [
            -4.395554,
            54.337063
          ],
          [
            -4.395665,
            54.337
          ]
        ]
      },
      "properties": {
        "addr:city": "Lezayre",
        "addr:housename": "Grest Care Home",
        "addr:postcode": "IM7 4EA",
        "addr:street": "Andreas Road",
        "amenity": "social_facility",
        "building": "yes",
        "charity": "yes",
        "name": "Grest Care Home",
        "operator": "Grest Trust",
        "operator:type": "charitable",
        "ref:charity": "6",
        "social_facility": "group_home",
        "social_facility:for": "senior",
        "start_date:charity": "1873",
        "website": "https://www.grestcarehome.co.uk",
        "wheelchair": "yes"
      }
    },
    {
      "type": "Feature",
      "id": 1154467407,
      "geometry": {
        "type": "LineString",
        "coordinates": [
          [
            -4.505121,
            54.16171
          ],
          [
            -4.505101,
            54.161631
          ],
          [
            -4.505391,
            54.161605
          ],
          [
            -4.505412,
            54.161684
          ],
          [
            -4.505121,
            54.16171
          ]
        ]
      },
      "properties": {
        "addr:city": "Braddan",
        "addr:housename": "Braddan Bridge House",
        "addr:postcode": "IM4 4TN",
        "addr:street": "Peel Road",
        "building": "yes",
        "charity": "yes",
        "name": "Joey Dunlop Foundation",
        "note": "holiday accommodation for disabled visitors",
        "operator": "Joey Dunlop Foundation",
        "operator:type": "charitable",
        "ref:charity": "842",
        "tourism": "chalet",
        "website": "https://www.joeydunlopfoundation.com"
      }
    },
    {
      "type": "Feature",
      "id": 1158812324,
      "geometry": {
        "type": "LineString",
        "coordinates": [
          [
            -4.483909,
            54.15306
          ],
          [
            -4.483943,
            54.153107
          ],
          [
            -4.484083,
            54.153072
          ],
          [
            -4.484049,
            54.153025
          ],
          [
            -4.483909,
            54.15306
          ]
        ]
      },
      "properties": {
        "addr:city": "Douglas",
        "addr:country": "IM",
        "addr:housenumber": "88",
        "addr:street": "Bucks Road",
        "building": "terrace",
        "charity": "animal",
        "contact:website": "https://www.manxspca.com/",
        "name": "ManxSPCA",
        "opening_hours": "Mo-Sa 10:00-16:00",
        "operator": "ManxSPCA",
        "phone": "+44 1624 851672",
        "ref:charity": "26A",
        "shop": "charity"
      }
    },
    {
      "type": "Feature",
      "id": 1220527325,
      "geometry": {
        "type": "LineString",
        "coordinates": [
          [
            -4.483629,
            54.152662
          ],
          [
            -4.483666,
            54.152713
          ],
          [
            -4.483802,
            54.152679
          ],
          [
            -4.483765,
            54.152628
          ],
          [
            -4.483629,
            54.152662
          ]
        ]
      },
      "properties": {
        "addr:city": "Douglas",
        "addr:country": "IM",
        "addr:housenumber": "76",
        "addr:postcode": "IM1 3AF",
        "addr:street": "Bucks Road",
        "building": "terrace",
        "charity": "yes",
        "name": "Hospice",
        "opening_hours": "Mo-Sa 10:00-16:00",
        "ref:charity": "317",
        "shop": "charity",
        "website": "https://www.hospiceshops.com/"
      }
    },
    {
      "type": "Feature",
      "id": 1270919366,
      "geometry": {
        "type": "LineString",
        "coordinates": [
          [
            -4.475514,
            54.169624
          ],
          [
            -4.475746,
            54.169979
          ],
          [
            -4.475576,
            54.170017
          ],
          [
            -4.47557,
            54.170008
          ],
          [
            -4.475357,
            54.170056
          ],
          [
            -4.475363,
            54.170065
          ],
          [
            -4.475256,
            54.170088
          ],
          [
            -4.47525,
            54.17008
          ],
          [
            -4.475129,
            54.170107
          ],
          [
            -4.47514,
            54.170124
          ],
          [
            -4.474944,
            54.170167
          ],
          [
            -4.474868,
            54.17005
          ],
          [
            -4.475071,
            54.170005
          ],
          [
            -4.475088,
            54.170031
          ],
          [
            -4.47519,
            54.170008
          ],
          [
            -4.475172,
            54.16998
          ],
          [
            -4.475311,
            54.169949
          ],
          [
            -4.475333,
            54.169982
          ],
          [
            -4.47551,
            54.169942
          ],
          [
            -4.475484,
            54.169902
          ],
          [
            -4.475459,
            54.169907
          ],
          [
            -4.475429,
            54.169862
          ],
          [
            -4.475456,
            54.169856
          ],
          [
            -4.475331,
            54.169665
          ],
          [
            -4.475514,
            54.169624
          ]
        ]
      },
      "properties": {
        "addr:city": "Douglas",
        "addr:postcode": "IM2 6BG",
        "addr:street": "Glencrutchery Road",
        "building": "yes",
        "charity": "yes",
        "name": "St John Ambulance IOM",
        "office": "yes",
        "ref:charity": "1112",
        "website": "https://sja.org.im"
      }
    },
    {
      "type": "Feature",
      "id": 1287655063,
      "geometry": {
        "type": "LineString",
        "coordinates": [
          [
            -4.504912,
            54.154795
          ],
          [
            -4.504675,
            54.154786
          ],
          [
            -4.50469,
            54.154654
          ],
          [
            -4.504927,
            54.154663
          ],
          [
            -4.504912,
            54.154795
          ]
        ]
      },
      "properties": {
        "addr:city": "Douglas",
        "addr:postcode": "IM2 1HE",
        "addr:street": "New Castletown Road",
        "addr:substreet": "Mill Mount",
        "building": "retail",
        "charity": "yes",
        "name": "Crossroads Home Interiors Store",
        "opening_hours": "Mo-Sa 10:00-17:00",
        "operator": "Crossroads",
        "operator:type": "charitable",
        "ref:charity": "383",
        "shop": "interior_decoration",
        "website": "https://www.crossroadsiom.org/",
        "wheelchair": "limited",
        "wheelchair:description": "Dedicated accessible parking bay outside the store. Please knock on the double doors next to the bay so a member of the shop team can open them as the main entrance has a steep slope."
      }
    }
  ]
}