{
  "type": "FeatureCollection",
  "features": [
    {
      "type": "Feature",
      "id": 283504272,
      "geometry": {
        "type": "Point",
        "coordinates": [
          -4.48428,
          54.165288
        ]
      },
      "properties": {
        "amenity": "fuel",
        "brand": "Ellan Vannin Fuels"
      }
    },
    {
      "type": "Feature",
      "id": 283504885,
      "geometry": {
        "type": "Point",
        "coordinates": [
          -4.639136,
          54.170537
        ]
      },
      "properties": {
        "amenity": "fuel",
        "brand": "EVF",
        "mapillary": "159041136419666",
        "survey:date": "2021-09-20"
      }
    },
    {
      "type": "Feature",
      "id": 283505240,
      "geometry": {
        "type": "Point",
        "coordinates": [
          -4.457233,
          54.173653
        ]
      },
      "properties": {
        "amenity": "fuel",
        "brand": "Corkills",
        "mapillary": "422312739462222",
        "survey:date": "2021-09-24"
      }
    },
    {
      "type": "Feature",
      "id": 283510235,
      "geometry": {
        "type": "Point",
        "coordinates": [
          -4.689079,
          54.223203
        ]
      },
      "properties": {
        "amenity": "fuel",
        "brand": "Ellan Vannin Fuels",
        "name": "EVF",
        "old_operator": "Total"
      }
    },
    {
      "type": "Feature",
      "id": 283518410,
      "geometry": {
        "type": "Point",
        "coordinates": [
          -4.38669,
          54.321662
        ]
      },
      "properties": {
        "addr:city": "Ramsey",
        "addr:country": "IM",
        "addr:street": "Parliament Square",
        "amenity": "fuel",
        "brand": "Ellan Vannin Fuels",
        "name": "Spar Ramsey",
        "wheelchair": "yes"
      }
    },
    {
      "type": "Feature",
      "id": 754041388,
      "geometry": {
        "type": "Point",
        "coordinates": [
          -4.524387,
          54.169889
        ]
      },
      "properties": {
        "amenity": "fuel",
        "brand": "Kaneens",
        "mapillary": "3331704693723754",
        "name": "Kaneens",
        "survey:date": "2021-09-16"
      }
    },
    {
      "type": "Feature",
      "id": 10771295459,
      "geometry": {
        "type": "Point",
        "coordinates": [
          -4.387493,
          54.322201
        ]
      },
      "properties": {
        "amenity": "fuel",
        "brand": "Ellan Vannin Fuels",
        "compressed_air": "yes"
      }
    },
    {
      "type": "Feature",
      "id": 11439549919,
      "geometry": {
        "type": "Point",
        "coordinates": [
          -4.489325,
          54.149408
        ]
      },
      "properties": {
        "amenity": "fuel"
      }
    },
    {
      "type": "Feature",
      "id": 11439549920,
      "geometry": {
        "type": "Point",
        "coordinates": [
          -4.489313,
          54.149453
        ]
      },
      "properties": {
        "amenity": "fuel"
      }
    },
    {
      "type": "Feature",
      "id": 11439549921,
      "geometry": {
        "type": "Point",
        "coordinates": [
          -4.489216,
          54.149443
        ]
      },
      "properties": {
        "amenity": "fuel"
      }
    },
    {
      "type": "Feature",
      "id": 11439549922,
      "geometry": {
        "type": "Point",
        "coordinates": [
          -4.48923,
          54.1494
        ]
      },
      "properties": {
        "amenity": "fuel",
        "brand": "EVF",
        "name": "Brown Bobby",
        "source": "Isle of Man Government aerial imagery (2001)"
      }
    },
    {
      "type": "Feature",
      "id": 11439549923,
      "geometry": {
        "type": "Point",
        "coordinates": [
          -4.48924,
          54.149357
        ]
      },
      "properties": {
        "amenity": "fuel"
      }
    }
  ]
}