{
  "type": "FeatureCollection",
  "features": [
    {
      "type": "Feature",
      "id": 504471756,
      "geometry": {
        "type": "Point",
        "coordinates": [
          -4.480963,
          54.149718
        ]
      },
      "properties": {
        "addr:country": "IM",
        "addr:housenumber": "1",
        "addr:street": "Athol Street",
        "name": "Bespoke Recruitment",
        "office": "employment_agency",
        "postal_code": "IM1 1LD",
        "website": "https://www.bespoke.co.im/"
      }
    },
    {
      "type": "Feature",
      "id": 504471758,
      "geometry": {
        "type": "Point",
        "coordinates": [
          -4.480415,
          54.150837
        ]
      },
      "properties": {
        "addr:city": "Douglas",
        "addr:country": "IM",
        "addr:housenumber": "7",
        "addr:street": "Mount Pleasant",
        "name": "Miracles",
        "office": "employment_agency",
        "postal_code": "IM1 2PU",
        "website": "http://www.miracles.co.im"
      }
    },
    {
      "type": "Feature",
      "id": 549539681,
      "geometry": {
        "type": "Point",
        "coordinates": [
          -4.696624,
          54.22414
        ]
      },
      "properties": {
        "name": "Cubbon & Associates",
        "office": "financial"
      }
    },
    {
      "type": "Feature",
      "id": 763370807,
      "geometry": {
        "type": "Point",
        "coordinates": [
          -4.75731,
          54.085979
        ]
      },
      "properties": {
        "addr:city": "Port Erin",
        "addr:country": "IM",
        "addr:housename": "Museum Building",
        "addr:postcode": "IM9 6AH",
        "addr:street": "Church Road",
        "name": "K5 Tax & Accounts",
        "office": "accountant",
        "source": "survey",
        "website": "https://k5ltd.im/"
      }
    },
    {
      "type": "Feature",
      "id": 763370835,
      "geometry": {
        "type": "Point",
        "coordinates": [
          -4.757428,
          54.085981
        ]
      },
      "properties": {
        "name": "LVW Law",
        "office": "lawyer",
        "source": "survey"
      }
    },
    {
      "type": "Feature",
      "id": 936625322,
      "geometry": {
        "type": "Point",
        "coordinates": [
          -4.478993,
          54.148026
        ]
      },
      "properties": {
        "addr:city": "Douglas",
        "addr:housename": "Market Hall",
        "addr:housenumber": "1",
        "addr:postcode": "IM1 2BQ",
        "addr:street": "Market Hill",
        "amenity": "cafe",
        "contact:facebook": "https://www.facebook.com/workcafeisleofman",
        "contact:instagram": "https://www.instagram.com/workcafeiom/",
        "internet_access": "wlan",
        "internet_access:fee": "no",
        "name": "Santander Work Caf\u00e9",
        "office": "coworking",
        "opening_hours": "Mo-Fr 08:00-17:00",
        "phone": "+44 8000 84 28 88",
        "website": "https://www.workcafe.im"
      }
    },
    {
      "type": "Feature",
      "id": 1069189745,
      "geometry": {
        "type": "Point",
        "coordinates": [
          -4.48573,
          54.148864
        ]
      },
      "properties": {
        "addr:country": "IM",
        "addr:housename": "Atholl House",
        "addr:housenumber": "29-31",
        "addr:street": "Hope Street",
        "name": "Callow Matthewman & Co.",
        "office": "accountant"
      }
    },
    {
      "type": "Feature",
      "id": 1069189753,
      "geometry": {
        "type": "Point",
        "coordinates": [
          -4.485537,
          54.148948
        ]
      },
      "properties": {
        "name": "OSM Copiers",
        "office": "printer"
      }
    },
    {
      "type": "Feature",
      "id": 2677623903,
      "geometry": {
        "type": "Point",
        "coordinates": [
          -4.626706,
          54.086985
        ]
      },
      "properties": {
        "name": "EAM Ltd",
        "office": "aviation"
      }
    },
    {
      "type": "Feature",
      "id": 2689679569,
      "geometry": {
        "type": "Point",
        "coordinates": [
          -4.73928,
          54.077522
        ]
      },
      "properties": {
        "addr:city": "Port St Mary",
        "addr:housename": "Beach House",
        "addr:postcode": "IM9 5AE",
        "addr:street": "Bay View Road",
        "name": "Corlett Bolton",
        "office": "lawyer"
      }
    },
    {
      "type": "Feature",
      "id": 3028469410,
      "geometry": {
        "type": "Point",
        "coordinates": [
          -4.483307,
          54.151397
        ]
      },
      "properties": {
        "addr:city": "Douglas",
        "addr:country": "IM",
        "addr:housenumber": "2",
        "addr:locality": "Sydney Mount",
        "addr:postcode": "IM1 1QD",
        "addr:street": "Bucks Road",
        "name": "Kelly Luft Stanley & Ashton",
        "office": "lawyer",
        "phone": "+44 1624 674316",
        "source": "local knowledge;note",
        "website": "https://www.kellyluft.com"
      }
    },
    {
      "type": "Feature",
      "id": 3602796500,
      "geometry": {
        "type": "Point",
        "coordinates": [
          -4.58672,
          54.145634
        ]
      },
      "properties": {
        "addr:city": "St Marks",
        "addr:place": "Ballahowin",
        "addr:postcode": "IM9 3AS",
        "name": "Tent City Office",
        "office": "yes",
        "phone": "+44 1624 853018"
      }
    },
    {
      "type": "Feature",
      "id": 4197755659,
      "geometry": {
        "type": "Point",
        "coordinates": [
          -4.476393,
          54.149019
        ]
      },
      "properties": {
        "addr:city": "Douglas",
        "addr:housename": "Jubilee Buildings",
        "addr:postcode": "IM1 2LR",
        "addr:street": "Victoria Street",
        "name": "Tower Insurance",
        "office": "insurance"
      }
    },
    {
      "type": "Feature",
      "id": 4200367948,
      "geometry": {
        "type": "Point",
        "coordinates": [
          -4.476666,
          54.149287
        ]
      },
      "properties": {
        "addr:city": "Douglas",
        "addr:housename": "Villiers House",
        "addr:housenumber": "2",
        "addr:postcode": "IM1 2LN",
        "addr:street": "Victoria Street",
        "name": "Black Horse",
        "office": "financial",
        "website": "https://www.blackhorseoffshore.co.uk/about-us/isle-of-man-team/"
      }
    },
    {
      "type": "Feature",
      "id": 4425268637,
      "geometry": {
        "type": "Point",
        "coordinates": [
          -4.509274,
          54.174259
        ]
      },
      "properties": {
        "entrance": "main",
        "office": "company",
        "operator": "Manx Care",
        "source": "survey"
      }
    },
    {
      "type": "Feature",
      "id": 4720363784,
      "geometry": {
        "type": "Point",
        "coordinates": [
          -4.52233,
          54.358738
        ]
      },
      "properties": {
        "addr:city": "Jurby",
        "addr:housenumber": "Hangar 266",
        "addr:postcode": "IM7 3BD",
        "addr:street": "New Road",
        "name": "Island Aggregates Technical Laboratory",
        "office": "company",
        "operator": "Island Aggregates Limited"
      }
    },
    {
      "type": "Feature",
      "id": 5252054773,
      "geometry": {
        "type": "Point",
        "coordinates": [
          -4.448577,
          54.177594
        ]
      },
      "properties": {
        "addr:city": "Onchan",
        "addr:country": "IM",
        "addr:housenumber": "44",
        "addr:postcode": "IM3 4HR",
        "addr:street": "Whitebridge Road",
        "building": "house",
        "building:levels": "2",
        "name": "Blue Goose Systems",
        "office": "it",
        "source:addr:postcode": "Isle of Man Land Registry Land Transactions"
      }
    },
    {
      "type": "Feature",
      "id": 5331323721,
      "geometry": {
        "type": "Point",
        "coordinates": [
          -4.496706,
          54.151171
        ]
      },
      "properties": {
        "addr:postcode": "IM1 5EP",
        "addr:street": "Peel Road",
        "name": "Browne Craine and Co",
        "office": "company"
      }
    },
    {
      "type": "Feature",
      "id": 5448644574,
      "geometry": {
        "type": "Point",
        "coordinates": [
          -4.693888,
          54.222583
        ]
      },
      "properties": {
        "addr:city": "Peel",
        "addr:housenumber": "20/22",
        "addr:postcode": "IM5 1HB",
        "addr:street": "Michael Street",
        "name": "Balanced Health Clinic",
        "office": "therapist",
        "opening_hours": "Mo-Sa 09:00-19:00"
      }
    },
    {
      "type": "Feature",
      "id": 8279648061,
      "geometry": {
        "type": "Point",
        "coordinates": [
          -4.483305,
          54.151286
        ]
      },
      "properties": {
        "addr:city": "Douglas",
        "addr:country": "IM",
        "addr:housenumber": "1",
        "addr:locality": "Sydney Mount",
        "addr:street": "Bucks Road",
        "name": "ITEX",
        "office": "yes",
        "website": "https://www.itex.im"
      }
    },
    {
      "type": "Feature",
      "id": 8328949334,
      "geometry": {
        "type": "Point",
        "coordinates": [
          -4.484132,
          54.148702
        ]
      },
      "properties": {
        "addr:city": "Douglas",
        "addr:country": "IM",
        "addr:housename": "Britannia House",
        "addr:postcode": "IM1 1JD",
        "addr:street": "Athol Street",
        "description": "TBS Internet is a digital certificate aggregator and is specialized in digital signature solutions.",
        "email": "marianne.bonjour@tbs-internet.co.uk",
        "name": "TBS Internet Ltd",
        "office": "company",
        "opening_hours": "Mo-Fr 09:00-17:00",
        "phone": "+44-1624-640369",
        "website": "https://www.tbs-certificates.co.uk/"
      }
    },
    {
      "type": "Feature",
      "id": 9235558642,
      "geometry": {
        "type": "Point",
        "coordinates": [
          -4.379195,
          54.322751
        ]
      },
      "properties": {
        "addr:postcode": "IM8 1BG",
        "addr:street": "East Quay",
        "name": "WS Mezeron",
        "office": "shipping_agent"
      }
    },
    {
      "type": "Feature",
      "id": 10202572225,
      "geometry": {
        "type": "Point",
        "coordinates": [
          -4.73382,
          54.070614
        ]
      },
      "properties": {
        "entrance": "main",
        "name": "Harbour Master's Office",
        "office": "harbour"
      }
    },
    {
      "type": "Feature",
      "id": 10287638481,
      "geometry": {
        "type": "Point",
        "coordinates": [
          -4.499373,
          54.151082
        ]
      },
      "properties": {
        "name": "Oddbins",
        "office": "yes"
      }
    },
    {
      "type": "Feature",
      "id": 10289485871,
      "geometry": {
        "type": "Point",
        "coordinates": [
          -4.480872,
          54.152274
        ]
      },
      "properties": {
        "addr:city": "Douglas",
        "addr:housenumber": "26",
        "addr:street": "Finch Road",
        "name": "Ambitions",
        "office": "employment_agency",
        "source:addr:housenumber": "mapillary",
        "website": "https://ambitions.co.im"
      }
    },
    {
      "type": "Feature",
      "id": 10297500670,
      "geometry": {
        "type": "Point",
        "coordinates": [
          -4.404178,
          54.230099
        ]
      },
      "properties": {
        "addr:city": "Laxey",
        "addr:housename": "Alexander Buildings",
        "addr:housenumber": "37",
        "addr:postcode": "IM4 7BQ",
        "addr:street": "New Road",
        "name": "Nicola Bowker & Co",
        "office": "accountant",
        "website": "https://www.nicolabowker.co.uk"
      }
    },
    {
      "type": "Feature",
      "id": 10618502536,
      "geometry": {
        "type": "Point",
        "coordinates": [
          -4.481683,
          54.149352
        ]
      },
      "properties": {
        "addr:city": "Douglas",
        "addr:country": "IM",
        "addr:housename": "The Old Courthouse",
        "addr:postcode": "IM1 1LD",
        "addr:street": "Athol Street",
        "brand": "Deloitte",
        "brand:wikidata": "Q491748",
        "name": "Deloitte",
        "office": "consulting"
      }
    },
    {
      "type": "Feature",
      "id": 10618502559,
      "geometry": {
        "type": "Point",
        "coordinates": [
          -4.486783,
          54.148734
        ]
      },
      "properties": {
        "addr:city": "Douglas",
        "addr:housename": "Ragnall House",
        "addr:housenumber": "18",
        "addr:postcode": "IM1 4LZ",
        "addr:street": "Peel Road",
        "name": "Evolution Recruitment",
        "office": "employment_agency",
        "source": "streetside",
        "website": "https://evolution.co.im"
      }
    },
    {
      "type": "Feature",
      "id": 10618669240,
      "geometry": {
        "type": "Point",
        "coordinates": [
          -4.485672,
          54.149461
        ]
      },
      "properties": {
        "addr:city": "Douglas",
        "addr:floor": "1",
        "addr:housename": "Rose House",
        "addr:housenumber": "51-59",
        "addr:postcode": "IM1 1AZ",
        "addr:street": "Circular Road",
        "name": "Iforium",
        "office": "company",
        "website": "https://www.iforium.com/"
      }
    },
    {
      "type": "Feature",
      "id": 10620013851,
      "geometry": {
        "type": "Point",
        "coordinates": [
          -4.483929,
          54.150804
        ]
      },
      "properties": {
        "addr:city": "Douglas",
        "addr:housename": "Capital House",
        "addr:postcode": "IM1 1AG",
        "addr:street": "Circular Road",
        "name": "Capital International Group",
        "office": "yes"
      }
    },
    {
      "type": "Feature",
      "id": 10623703242,
      "geometry": {
        "type": "Point",
        "coordinates": [
          -4.481449,
          54.149777
        ]
      },
      "properties": {
        "addr:city": "Douglas",
        "addr:housenumber": "14",
        "addr:street": "Athol Street",
        "name": "Athena",
        "office": "yes"
      }
    },
    {
      "type": "Feature",
      "id": 10623703243,
      "geometry": {
        "type": "Point",
        "coordinates": [
          -4.481628,
          54.149701
        ]
      },
      "properties": {
        "addr:city": "Douglas",
        "addr:housenumber": "14",
        "addr:postcode": "IM1 1JA",
        "addr:street": "Athol Street",
        "name": "LMS Partners",
        "office": "company",
        "website": "https://lmspartners.co.im/"
      }
    },
    {
      "type": "Feature",
      "id": 10674039104,
      "geometry": {
        "type": "Point",
        "coordinates": [
          -4.477911,
          54.15966
        ]
      },
      "properties": {
        "addr:city": "Douglas",
        "addr:housename": "The Old Bakery",
        "addr:postcode": "IM2 4HD",
        "addr:street": "Victoria Road",
        "addr:substreet": "James Place",
        "name": "Manxmove",
        "office": "estate_agent",
        "phone": "+44 1624 619966",
        "source": "streetside;mapillary",
        "website": "https://www.manxmove.im"
      }
    },
    {
      "type": "Feature",
      "id": 10688883209,
      "geometry": {
        "type": "Point",
        "coordinates": [
          -4.629497,
          54.096187
        ]
      },
      "properties": {
        "addr:city": "Ballasalla",
        "addr:housename": "Portland House",
        "addr:postcode": "IM99 6AB",
        "addr:street": "Station Road",
        "addr:unit": "PO Box 1",
        "name": "UHY Crossleys",
        "office": "accountant",
        "website": "https://www.crossleys.com"
      }
    },
    {
      "type": "Feature",
      "id": 10709045253,
      "geometry": {
        "type": "Point",
        "coordinates": [
          -4.48057,
          54.149885
        ]
      },
      "properties": {
        "addr:city": "Douglas",
        "addr:housenumber": "10-12",
        "addr:postcode": "IM1 1EJ",
        "addr:street": "Prospect Hill",
        "name": "Financial Options",
        "office": "financial_advisor",
        "website": "https://financialoptions.co.im"
      }
    },
    {
      "type": "Feature",
      "id": 10709045254,
      "geometry": {
        "type": "Point",
        "coordinates": [
          -4.48057,
          54.149834
        ]
      },
      "properties": {
        "addr:city": "Douglas",
        "addr:housenumber": "10-12",
        "addr:postcode": "IM1 1EJ",
        "addr:street": "Prospect Hill",
        "name": "Chase Wealth Solutions",
        "office": "financial_advisor",
        "website": "https://www.chasewealth.im"
      }
    },
    {
      "type": "Feature",
      "id": 10710776623,
      "geometry": {
        "type": "Point",
        "coordinates": [
          -4.486356,
          54.152111
        ]
      },
      "properties": {
        "addr:city": "Douglas",
        "addr:country": "IM",
        "addr:housenumber": "40",
        "addr:postcode": "IM1 3DH",
        "addr:street": "Allan Street",
        "name": "Douglas Auction House",
        "office": "company",
        "source": "mapillary",
        "source:addr:housenumber": "interpolation",
        "source:addr:postcode": "Isle of Man Government Planning Applications"
      }
    },
    {
      "type": "Feature",
      "id": 10710776632,
      "geometry": {
        "type": "Point",
        "coordinates": [
          -4.485552,
          54.152684
        ]
      },
      "properties": {
        "addr:city": "Douglas",
        "addr:housename": "The Saleroom",
        "addr:housenumber": "8-10",
        "addr:postcode": "IM1 3DQ",
        "addr:street": "Allan Street",
        "name": "Chrystals Auctions",
        "office": "yes",
        "website": "https://www.chrystalsauctions.im"
      }
    },
    {
      "type": "Feature",
      "id": 10710776633,
      "geometry": {
        "type": "Point",
        "coordinates": [
          -4.485501,
          54.152716
        ]
      },
      "properties": {
        "addr:city": "Douglas",
        "addr:housename": "The Saleroom",
        "addr:housenumber": "8-10",
        "addr:postcode": "IM1 3DQ",
        "addr:street": "Allan Street",
        "name": "Murray's Auctions",
        "office": "yes",
        "website": "https://www.murrays.im"
      }
    },
    {
      "type": "Feature",
      "id": 10716379660,
      "geometry": {
        "type": "Point",
        "coordinates": [
          -4.45643,
          54.173712
        ]
      },
      "properties": {
        "addr:city": "Onchan",
        "addr:country": "IM",
        "addr:housenumber": "8-12",
        "addr:postcode": "IM3 1AS",
        "addr:street": "Onchan Main Road",
        "name": "Kestrel Insurance",
        "office": "insurance",
        "source": "streetside"
      }
    },
    {
      "type": "Feature",
      "id": 10727513210,
      "geometry": {
        "type": "Point",
        "coordinates": [
          -4.494449,
          54.150855
        ]
      },
      "properties": {
        "addr:city": "Douglas",
        "addr:housename": "Dorchester House",
        "addr:postcode": "IM1 4RE",
        "addr:street": "Belmont Hill",
        "name": "Bernhard Schulte Shipmanagement (Isle of Man) Limited",
        "office": "yes"
      }
    },
    {
      "type": "Feature",
      "id": 10743122509,
      "geometry": {
        "type": "Point",
        "coordinates": [
          -4.495736,
          54.169796
        ]
      },
      "properties": {
        "addr:city": "Tromode",
        "addr:place": "Tromode Estate",
        "addr:postcode": "IM4 4QB",
        "addr:street": "Carr's Lane",
        "contact:phone": "+44 1624 610121",
        "name": "LV Home Care",
        "office": "home_care",
        "website": "https://lv.care/iom/contact/"
      }
    },
    {
      "type": "Feature",
      "id": 10743252790,
      "geometry": {
        "type": "Point",
        "coordinates": [
          -4.482425,
          54.151848
        ]
      },
      "properties": {
        "addr:city": "Douglas",
        "addr:country": "IM",
        "addr:housename": "Court View Chambers",
        "addr:housenumber": "14",
        "addr:postcode": "IM1 2QA",
        "addr:street": "Albert Street",
        "name": "Ian Kermode",
        "office": "lawyer",
        "website": "https://www.ik.im"
      }
    },
    {
      "type": "Feature",
      "id": 10743252792,
      "geometry": {
        "type": "Point",
        "coordinates": [
          -4.481901,
          54.151857
        ]
      },
      "properties": {
        "addr:city": "Douglas",
        "addr:country": "IM",
        "addr:housename": "Chancery House",
        "addr:housenumber": "2",
        "addr:postcode": "IM1 2QA",
        "addr:street": "Albert Street",
        "name": "Colaw",
        "office": "yes",
        "source:addr:housenumber": "interpolation",
        "website": "https://www.colaw.co.im"
      }
    },
    {
      "type": "Feature",
      "id": 10743252793,
      "geometry": {
        "type": "Point",
        "coordinates": [
          -4.481905,
          54.151925
        ]
      },
      "properties": {
        "addr:city": "Douglas",
        "addr:country": "IM",
        "addr:housename": "Chancery House",
        "addr:housenumber": "2",
        "addr:postcode": "IM1 2QA",
        "addr:street": "Albert Street",
        "name": "Corbridges",
        "office": "lawyer",
        "website": "https://www.corbridges.com"
      }
    },
    {
      "type": "Feature",
      "id": 10766945207,
      "geometry": {
        "type": "Point",
        "coordinates": [
          -4.383115,
          54.321109
        ]
      },
      "properties": {
        "name": "Manx Taxis",
        "office": "taxi",
        "source": "note"
      }
    },
    {
      "type": "Feature",
      "id": 10853999903,
      "geometry": {
        "type": "Point",
        "coordinates": [
          -4.65349,
          54.076862
        ]
      },
      "properties": {
        "contact:email": "help@plumbingandheating.im",
        "contact:phone": "+44 7624 456885;+44 7624 498391",
        "entrance": "main",
        "name": "Pure Plumbing & Heating",
        "office": "yes"
      }
    },
    {
      "type": "Feature",
      "id": 10877834558,
      "geometry": {
        "type": "Point",
        "coordinates": [
          -4.509742,
          54.174389
        ]
      },
      "properties": {
        "entrance": "main",
        "name": "Estates Facilities Management",
        "office": "company"
      }
    },
    {
      "type": "Feature",
      "id": 10901582419,
      "geometry": {
        "type": "Point",
        "coordinates": [
          -4.475081,
          54.148605
        ]
      },
      "properties": {
        "addr:city": "Douglas",
        "addr:country": "IM",
        "addr:housename": "Peveril Buildings",
        "addr:street": "Peveril Square",
        "name": "Suntera Global",
        "office": "company",
        "website": "https://www.suntera.com"
      }
    },
    {
      "type": "Feature",
      "id": 10929268791,
      "geometry": {
        "type": "Point",
        "coordinates": [
          -4.480355,
          54.148581
        ]
      },
      "properties": {
        "addr:city": "Douglas",
        "addr:country": "IM",
        "addr:housename": "Falcon House",
        "addr:housenumber": "22-24",
        "addr:postcode": "IM1 1EL",
        "addr:street": "Ridgeway Street",
        "name": "Investasure",
        "office": "financial_advisor",
        "website": "https://investasure.co.im"
      }
    },
    {
      "type": "Feature",
      "id": 11261590893,
      "geometry": {
        "type": "Point",
        "coordinates": [
          -4.454522,
          54.174856
        ]
      },
      "properties": {
        "addr:city": "Onchan",
        "addr:country": "IM",
        "addr:housenumber": "10a",
        "addr:street": "Elm Tree Road",
        "contact:phone": "+44 1624 639188",
        "entrance": "main",
        "name": "Mullen Consulting",
        "office": "surveyor"
      }
    },
    {
      "type": "Feature",
      "id": 11261590905,
      "geometry": {
        "type": "Point",
        "coordinates": [
          -4.455375,
          54.174178
        ]
      },
      "properties": {
        "addr:city": "Onchan",
        "addr:country": "IM",
        "addr:housenumber": "24a",
        "addr:street": "Onchan Main Road",
        "contact:phone": "+44 1624 621436",
        "contact:website": "https://smart-energy-solutions.uk/",
        "entrance": "main",
        "name": "Smart Energy Solutions",
        "office": "consultant"
      }
    },
    {
      "type": "Feature",
      "id": 11261590910,
      "geometry": {
        "type": "Point",
        "coordinates": [
          -4.454851,
          54.174729
        ]
      },
      "properties": {
        "addr:city": "Onchan",
        "addr:country": "IM",
        "addr:housename": "Elm Tree House",
        "addr:street": "Onchan Main Road",
        "contact:phone": "+44 1624 611146",
        "entrance": "main",
        "name": "Sterling",
        "office": "wealth_management"
      }
    },
    {
      "type": "Feature",
      "id": 11362408576,
      "geometry": {
        "type": "Point",
        "coordinates": [
          -4.481502,
          54.152384
        ]
      },
      "properties": {
        "addr:city": "Douglas",
        "addr:housenumber": "12",
        "addr:postcode": "IM1 2QG",
        "addr:street": "Mount Havelock",
        "aerospace:product": "lunar_data_storage",
        "company": "information",
        "computer:data": "DRaaS;SSaaS;storage",
        "lunar:product": "data_storage",
        "name": "Eayst Noa",
        "office": "company",
        "operator": "Lonestar Data Holdings",
        "website": "https://www.eaystnoa.com"
      }
    },
    {
      "type": "Feature",
      "id": 11492613763,
      "geometry": {
        "type": "Point",
        "coordinates": [
          -4.495847,
          54.169867
        ]
      },
      "properties": {
        "addr:city": "Tromode",
        "addr:place": "Tromode Estate",
        "addr:postcode": "IM4 4QB",
        "addr:street": "Carr's Lane",
        "contact:phone": "+44 1624 852140",
        "contact:website": "https://www.follan.co.uk/",
        "leisure": "fitness_centre",
        "massage": "osteopath;therapeutic",
        "name": "Follan Natural Health Centre",
        "office": "yes",
        "shop": "massage",
        "sport": "yoga"
      }
    },
    {
      "type": "Feature",
      "id": 11492613764,
      "geometry": {
        "type": "Point",
        "coordinates": [
          -4.495959,
          54.169938
        ]
      },
      "properties": {
        "addr:city": "Tromode",
        "addr:place": "Tromode Estate",
        "addr:postcode": "IM4 4QB",
        "addr:street": "Carr's Lane",
        "contact:phone": "+44 1624 668191",
        "name": "Cruse Bereavement Care",
        "office": "yes",
        "website": "https://www.cruseisleofman.org/"
      }
    },
    {
      "type": "Feature",
      "id": 11548068969,
      "geometry": {
        "type": "Point",
        "coordinates": [
          -4.482588,
          54.149262
        ]
      },
      "properties": {
        "name": "Entain",
        "office": "company"
      }
    },
    {
      "type": "Feature",
      "id": 11548075571,
      "geometry": {
        "type": "Point",
        "coordinates": [
          -4.48416,
          54.147905
        ]
      },
      "properties": {
        "name": "Mayfly Entertainment",
        "office": "company",
        "website": "https://www.mayflyentertainment.com/"
      }
    },
    {
      "type": "Feature",
      "id": 11548098669,
      "geometry": {
        "type": "Point",
        "coordinates": [
          -4.483187,
          54.149955
        ]
      },
      "properties": {
        "name": "Playtech plc",
        "office": "company",
        "website": "https://www.playtech.com/"
      }
    },
    {
      "type": "Feature",
      "id": 11548098670,
      "geometry": {
        "type": "Point",
        "coordinates": [
          -4.480236,
          54.148196
        ]
      },
      "properties": {
        "addr:street": "Ridgeway Street",
        "name": "Paddy Power Online Ltd",
        "office": "company",
        "website": "https://www.paddypower.com/"
      }
    },
    {
      "type": "Feature",
      "id": 59286000,
      "geometry": {
        "type": "LineString",
        "coordinates": [
          [
            -4.471647,
            54.163696
          ],
          [
            -4.471568,
            54.163777
          ],
          [
            -4.470973,
            54.163803
          ],
          [
            -4.470843,
            54.16381
          ],
          [
            -4.470836,
            54.163778
          ],
          [
            -4.47076,
            54.163784
          ],
          [
            -4.470733,
            54.163711
          ],
          [
            -4.47075,
            54.163709
          ],
          [
            -4.470731,
            54.163652
          ],
          [
            -4.470752,
            54.163639
          ],
          [
            -4.47081,
            54.163638
          ],
          [
            -4.470836,
            54.163646
          ],
          [
            -4.470855,
            54.163636
          ],
          [
            -4.470892,
            54.163632
          ],
          [
            -4.47092,
            54.163645
          ],
          [
            -4.470926,
            54.16367
          ],
          [
            -4.470945,
            54.163671
          ],
          [
            -4.470963,
            54.16368
          ],
          [
            -4.47097,
            54.163691
          ],
          [
            -4.471105,
            54.163685
          ],
          [
            -4.471107,
            54.163671
          ],
          [
            -4.471261,
            54.163665
          ],
          [
            -4.471265,
            54.16368
          ],
          [
            -4.471646,
            54.163676
          ],
          [
            -4.471647,
            54.163696
          ]
        ]
      },
      "properties": {
        "addr:city": "Douglas",
        "addr:country": "IM",
        "addr:housename": "Falcon Cliff",
        "addr:street": "Palace Road",
        "architect": "John Robinson",
        "building": "office",
        "building:start_date": "1836",
        "listed_status": "Registered",
        "office": "yes",
        "ref:registered_building": "112",
        "source": "Isle of Man Government aerial imagery (2001)",
        "url:registered_building": "https://www.gov.im/media/632171/0500112regbldfalconcliffhotel.pdf",
        "was:tourism": "hotel",
        "wikidata": "Q118188651"
      }
    },
    {
      "type": "Feature",
      "id": 59384786,
      "geometry": {
        "type": "LineString",
        "coordinates": [
          [
            -4.485534,
            54.147754
          ],
          [
            -4.485221,
            54.147745
          ],
          [
            -4.485137,
            54.14773
          ],
          [
            -4.485069,
            54.147705
          ],
          [
            -4.4849,
            54.147564
          ],
          [
            -4.484909,
            54.147513
          ],
          [
            -4.485265,
            54.147534
          ],
          [
            -4.485263,
            54.147557
          ],
          [
            -4.485326,
            54.147559
          ],
          [
            -4.485323,
            54.147593
          ],
          [
            -4.485347,
            54.147594
          ],
          [
            -4.48534,
            54.147664
          ],
          [
            -4.485541,
            54.14767
          ],
          [
            -4.485534,
            54.147754
          ]
        ]
      },
      "properties": {
        "addr:city": "Douglas",
        "addr:country": "IM",
        "addr:housename": "Custom House",
        "addr:place": "North Quay",
        "building": "yes",
        "government": "customs",
        "office": "government",
        "source": "Isle of Man Government aerial imagery (2001)"
      }
    },
    {
      "type": "Feature",
      "id": 59522588,
      "geometry": {
        "type": "LineString",
        "coordinates": [
          [
            -4.53626,
            54.153239
          ],
          [
            -4.536016,
            54.153433
          ],
          [
            -4.536171,
            54.1535
          ],
          [
            -4.536079,
            54.153573
          ],
          [
            -4.535939,
            54.153513
          ],
          [
            -4.535787,
            54.153634
          ],
          [
            -4.535588,
            54.153548
          ],
          [
            -4.535739,
            54.153428
          ],
          [
            -4.535455,
            54.153305
          ],
          [
            -4.535573,
            54.153212
          ],
          [
            -4.535854,
            54.153333
          ],
          [
            -4.536074,
            54.153159
          ],
          [
            -4.53626,
            54.153239
          ]
        ]
      },
      "properties": {
        "addr:city": "Braddan",
        "addr:country": "IM",
        "addr:housename": "International House",
        "addr:postcode": "IM2 2SP",
        "addr:street": "Isle of Man Business Park",
        "building": "office",
        "name": "IFGL",
        "office": "company",
        "source": "Isle of Man Government aerial imagery (2001)",
        "website": "https://www.ifg-ltd.com/"
      }
    },
    {
      "type": "Feature",
      "id": 59522596,
      "geometry": {
        "type": "LineString",
        "coordinates": [
          [
            -4.532072,
            54.153771
          ],
          [
            -4.531948,
            54.154091
          ],
          [
            -4.531734,
            54.154062
          ],
          [
            -4.531773,
            54.153961
          ],
          [
            -4.531719,
            54.153954
          ],
          [
            -4.531762,
            54.153844
          ],
          [
            -4.531803,
            54.153849
          ],
          [
            -4.531845,
            54.153741
          ],
          [
            -4.532072,
            54.153771
          ]
        ]
      },
      "properties": {
        "addr:city": "Douglas",
        "addr:housename": "Restart Court",
        "addr:postcode": "IM2 2QZ",
        "addr:street": "Vicarage Drive",
        "building": "office",
        "building:levels": "2",
        "name": "Argon",
        "office": "company",
        "source": "Isle of Man Government aerial imagery (2001)",
        "website": "https://www.argon.im/"
      }
    },
    {
      "type": "Feature",
      "id": 59522606,
      "geometry": {
        "type": "LineString",
        "coordinates": [
          [
            -4.528192,
            54.151277
          ],
          [
            -4.528247,
            54.151235
          ],
          [
            -4.528366,
            54.151144
          ],
          [
            -4.528514,
            54.15121
          ],
          [
            -4.52834,
            54.151344
          ],
          [
            -4.528192,
            54.151277
          ]
        ]
      },
      "properties": {
        "addr:city": "Douglas",
        "addr:country": "IM",
        "addr:place": "Spring Valley Industrial Estate",
        "addr:unit": "33",
        "building": "industrial",
        "name": "ADT Security",
        "office": "security_services",
        "source": "Isle of Man Government aerial imagery (2001)"
      }
    },
    {
      "type": "Feature",
      "id": 59652554,
      "geometry": {
        "type": "LineString",
        "coordinates": [
          [
            -4.662619,
            54.077083
          ],
          [
            -4.662477,
            54.077195
          ],
          [
            -4.662167,
            54.07706
          ],
          [
            -4.661872,
            54.077293
          ],
          [
            -4.661669,
            54.077205
          ],
          [
            -4.661728,
            54.077158
          ],
          [
            -4.661666,
            54.077131
          ],
          [
            -4.661723,
            54.077086
          ],
          [
            -4.661783,
            54.077112
          ],
          [
            -4.661949,
            54.07698
          ],
          [
            -4.661883,
            54.076952
          ],
          [
            -4.662027,
            54.076838
          ],
          [
            -4.662095,
            54.076868
          ],
          [
            -4.662156,
            54.07682
          ],
          [
            -4.662354,
            54.076906
          ],
          [
            -4.662305,
            54.076946
          ],
          [
            -4.662619,
            54.077083
          ]
        ]
      },
      "properties": {
        "addr:city": "Castletown",
        "addr:housename": "Royal Court",
        "addr:postcode": "IM9 1RA",
        "addr:street": "Arbory Road",
        "building": "yes",
        "name": "Friends Provident International",
        "office": "financial",
        "source": "Isle of Man Government aerial imagery (2001)"
      }
    },
    {
      "type": "Feature",
      "id": 59995917,
      "geometry": {
        "type": "LineString",
        "coordinates": [
          [
            -4.630205,
            54.093382
          ],
          [
            -4.630064,
            54.093339
          ],
          [
            -4.630037,
            54.093369
          ],
          [
            -4.629933,
            54.093336
          ],
          [
            -4.629939,
            54.093329
          ],
          [
            -4.629906,
            54.093319
          ],
          [
            -4.629924,
            54.093298
          ],
          [
            -4.629881,
            54.093284
          ],
          [
            -4.63008,
            54.093064
          ],
          [
            -4.630091,
            54.093067
          ],
          [
            -4.630214,
            54.093105
          ],
          [
            -4.630189,
            54.093133
          ],
          [
            -4.630377,
            54.093192
          ],
          [
            -4.630453,
            54.093215
          ],
          [
            -4.630475,
            54.093192
          ],
          [
            -4.630584,
            54.093226
          ],
          [
            -4.63052,
            54.093296
          ],
          [
            -4.630473,
            54.093282
          ],
          [
            -4.630379,
            54.093387
          ],
          [
            -4.630296,
            54.093361
          ],
          [
            -4.630261,
            54.093399
          ],
          [
            -4.630205,
            54.093382
          ]
        ]
      },
      "properties": {
        "addr:city": "Ballasalla",
        "addr:postcode": "IM9 2AN",
        "addr:street": "Douglas Road",
        "building": "yes",
        "name": "Pooil Vaaish",
        "office": "company",
        "source": "Isle of Man Government aerial imagery (2001); Bing",
        "website": "https://pooilvaaish.com/"
      }
    },
    {
      "type": "Feature",
      "id": 60048699,
      "geometry": {
        "type": "LineString",
        "coordinates": [
          [
            -4.755415,
            54.086996
          ],
          [
            -4.755616,
            54.086989
          ],
          [
            -4.755624,
            54.08707
          ],
          [
            -4.755566,
            54.087072
          ],
          [
            -4.755572,
            54.087124
          ],
          [
            -4.755632,
            54.087122
          ],
          [
            -4.75564,
            54.087203
          ],
          [
            -4.755438,
            54.08721
          ],
          [
            -4.755415,
            54.086996
          ]
        ]
      },
      "properties": {
        "addr:city": "Port Erin",
        "addr:country": "IM",
        "addr:postcode": "IM9 6AN",
        "addr:street": "Bridson Street",
        "building": "yes",
        "name": "Port Erin Commissioners",
        "office": "government",
        "source": "Isle of Man Government aerial imagery (2001)",
        "website": "http://www.porterin.gov.im"
      }
    },
    {
      "type": "Feature",
      "id": 60582635,
      "geometry": {
        "type": "LineString",
        "coordinates": [
          [
            -4.651606,
            54.077766
          ],
          [
            -4.651144,
            54.07778
          ],
          [
            -4.651185,
            54.077704
          ],
          [
            -4.651063,
            54.077681
          ],
          [
            -4.651105,
            54.077608
          ],
          [
            -4.651638,
            54.077705
          ],
          [
            -4.651606,
            54.077766
          ]
        ]
      },
      "properties": {
        "addr:city": "Castletown",
        "addr:housename": "The Engine House",
        "addr:postcode": "IM9 1TG",
        "addr:street": "Alexandra Road",
        "building": "yes",
        "contact:facebook": "https://www.facebook.com/EngineIOM",
        "name": "The Engine House",
        "office": "coworking",
        "website": "https://eng.im/castletown.html"
      }
    },
    {
      "type": "Feature",
      "id": 61580822,
      "geometry": {
        "type": "LineString",
        "coordinates": [
          [
            -4.481044,
            54.151206
          ],
          [
            -4.480857,
            54.151199
          ],
          [
            -4.480867,
            54.151095
          ],
          [
            -4.481054,
            54.151102
          ],
          [
            -4.481044,
            54.151206
          ]
        ]
      },
      "properties": {
        "addr:country": "IM",
        "addr:housenumber": "4",
        "addr:street": "Finch Road",
        "building": "yes",
        "listed_status": "Registered",
        "name": "Corlett Bolton & Co",
        "office": "lawyer",
        "postal_code": "IM1 2PT",
        "ref:registered_building": "93",
        "source": "Isle of Man Government aerial imagery (2001)",
        "url:registered_building": "https://www.gov.im/media/632087/0500093regbldoffice4finchroad.pdf",
        "website": "https://www.corlettbolton.com/",
        "wikidata": "Q118188638"
      }
    },
    {
      "type": "Feature",
      "id": 61597682,
      "geometry": {
        "type": "LineString",
        "coordinates": [
          [
            -4.500608,
            54.169928
          ],
          [
            -4.500349,
            54.170026
          ],
          [
            -4.500167,
            54.16986
          ],
          [
            -4.500426,
            54.169763
          ],
          [
            -4.500608,
            54.169928
          ]
        ]
      },
      "properties": {
        "addr:housename": "Greenlight House",
        "addr:postcode": "IM4 4QJ",
        "addr:street": "Ballafletcher Farm Road",
        "building": "office",
        "business": "television",
        "name": "Greenlight Television",
        "note": "Television Production Company",
        "office": "company",
        "phone": "+44 1624 611601",
        "source": "Isle of Man Government aerial imagery (2001)",
        "website": "https://www.greenlight.tv/"
      }
    },
    {
      "type": "Feature",
      "id": 62092195,
      "geometry": {
        "type": "LineString",
        "coordinates": [
          [
            -4.481964,
            54.153145
          ],
          [
            -4.481602,
            54.153147
          ],
          [
            -4.4816,
            54.152982
          ],
          [
            -4.481962,
            54.15298
          ],
          [
            -4.481964,
            54.153145
          ]
        ]
      },
      "properties": {
        "addr:city": "Douglas",
        "addr:country": "IM",
        "addr:housename": "Sovereign House",
        "addr:housenumber": "4",
        "addr:postcode": "IM1 2SD",
        "addr:street": "Christian Road",
        "building": "yes",
        "name": "Sovereign Trust (Isle of Man) Ltd",
        "office": "company",
        "source": "Isle of Man Government aerial imagery (2001);mapillary",
        "website": "https://www.sovereigngroup.com/offices/isle-of-man/"
      }
    },
    {
      "type": "Feature",
      "id": 62118204,
      "geometry": {
        "type": "LineString",
        "coordinates": [
          [
            -4.477993,
            54.149011
          ],
          [
            -4.478097,
            54.149079
          ],
          [
            -4.478022,
            54.14912
          ],
          [
            -4.477991,
            54.149119
          ],
          [
            -4.477904,
            54.149059
          ],
          [
            -4.477993,
            54.149011
          ]
        ]
      },
      "properties": {
        "addr:alt_housename": "Unite House",
        "addr:city": "Douglas",
        "addr:country": "IM",
        "addr:housename": "Transport House",
        "addr:housenumber": "25",
        "addr:street": "Fort Street",
        "building": "yes",
        "building:colour": "red",
        "building:levels": "2",
        "contact:facebook": "https://www.facebook.com/UniteIOM",
        "name": "Unite The Union",
        "office": "trade_union",
        "old_name": "Transport & General Workers Union",
        "source": "Isle of Man Government aerial imagery (2001);survey;"
      }
    },
    {
      "type": "Feature",
      "id": 78029284,
      "geometry": {
        "type": "LineString",
        "coordinates": [
          [
            -4.456082,
            54.178747
          ],
          [
            -4.456167,
            54.178313
          ],
          [
            -4.456405,
            54.178329
          ],
          [
            -4.456392,
            54.178395
          ],
          [
            -4.456453,
            54.178399
          ],
          [
            -4.456455,
            54.178385
          ],
          [
            -4.456681,
            54.1784
          ],
          [
            -4.45663,
            54.178657
          ],
          [
            -4.456516,
            54.178649
          ],
          [
            -4.45651,
            54.178677
          ],
          [
            -4.456337,
            54.178666
          ],
          [
            -4.456325,
            54.178726
          ],
          [
            -4.456193,
            54.178717
          ],
          [
            -4.456185,
            54.178754
          ],
          [
            -4.456082,
            54.178747
          ]
        ]
      },
      "properties": {
        "addr:city": "Onchan",
        "addr:housename": "Old CVI Optics Factory",
        "addr:postcode": "IM3 4PA",
        "addr:street": "Second Avenue",
        "building": "industrial",
        "name": "Douglas Auction House",
        "office": "yes",
        "source": "Isle of Man Government aerial imagery (2001)",
        "website": "https://douglasauctionhouse.co.uk/"
      }
    },
    {
      "type": "Feature",
      "id": 79141571,
      "geometry": {
        "type": "LineString",
        "coordinates": [
          [
            -4.483852,
            54.15143
          ],
          [
            -4.483788,
            54.151433
          ],
          [
            -4.483615,
            54.151347
          ],
          [
            -4.483604,
            54.151313
          ],
          [
            -4.483638,
            54.15128
          ],
          [
            -4.483892,
            54.151405
          ],
          [
            -4.483852,
            54.15143
          ]
        ]
      },
      "properties": {
        "building": "yes",
        "name": "Ultimate Cleaning Services",
        "office": "yes",
        "source": "Isle of Man Government aerial imagery (2001)"
      }
    },
    {
      "type": "Feature",
      "id": 79141602,
      "geometry": {
        "type": "LineString",
        "coordinates": [
          [
            -4.481556,
            54.15055
          ],
          [
            -4.481497,
            54.150546
          ],
          [
            -4.481433,
            54.150499
          ],
          [
            -4.481647,
            54.150415
          ],
          [
            -4.481733,
            54.150374
          ],
          [
            -4.481776,
            54.150402
          ],
          [
            -4.481556,
            54.15055
          ]
        ]
      },
      "properties": {
        "addr:city": "Douglas",
        "addr:country": "IM",
        "addr:housename": "Nivison House",
        "addr:housenumber": "31",
        "addr:postcode": "IM1 1QS",
        "addr:street": "Prospect Hill",
        "building": "yes",
        "name": "The Jobcentre",
        "office": "employment_agency",
        "source": "Isle of Man Government aerial imagery (2001)",
        "website": "https://www.gov.im/dti/jobcentre"
      }
    },
    {
      "type": "Feature",
      "id": 79141608,
      "geometry": {
        "type": "LineString",
        "coordinates": [
          [
            -4.483041,
            54.148857
          ],
          [
            -4.482863,
            54.148934
          ],
          [
            -4.482736,
            54.148833
          ],
          [
            -4.482691,
            54.148801
          ],
          [
            -4.482866,
            54.148721
          ],
          [
            -4.483041,
            54.148857
          ]
        ]
      },
      "properties": {
        "addr:city": "Douglas",
        "addr:housenumber": "33-37",
        "addr:postcode": "IM1 1LB",
        "addr:street": "Athol Street",
        "building": "yes",
        "name": "Estrera",
        "office": "yes",
        "source": "Isle of Man Government aerial imagery (2001)"
      }
    },
    {
      "type": "Feature",
      "id": 79141609,
      "geometry": {
        "type": "LineString",
        "coordinates": [
          [
            -4.482695,
            54.149009
          ],
          [
            -4.482522,
            54.148876
          ],
          [
            -4.482691,
            54.148801
          ],
          [
            -4.482863,
            54.148934
          ],
          [
            -4.482695,
            54.149009
          ]
        ]
      },
      "properties": {
        "addr:city": "Douglas",
        "addr:housenumber": "29/31",
        "addr:postcode": "IM1 1LB",
        "addr:street": "Athol Street",
        "building": "yes",
        "listed_status": "Registered",
        "name": "Fedelta",
        "office": "company",
        "ref:registered_building": "199",
        "source": "Isle of Man Government aerial imagery (2001)",
        "url:registered_building": "https://www.gov.im/media/632399/0500199regbld31atholstreet.pdf",
        "wikidata": "Q118188683"
      }
    },
    {
      "type": "Feature",
      "id": 79141614,
      "geometry": {
        "type": "LineString",
        "coordinates": [
          [
            -4.483113,
            54.148978
          ],
          [
            -4.483034,
            54.149013
          ],
          [
            -4.483106,
            54.149069
          ],
          [
            -4.483193,
            54.149137
          ],
          [
            -4.483272,
            54.149103
          ],
          [
            -4.483212,
            54.149055
          ],
          [
            -4.483113,
            54.148978
          ]
        ]
      },
      "properties": {
        "addr:city": "Douglas",
        "addr:housename": "Millennium House",
        "addr:housenumber": "46",
        "addr:postcode": "IM1 1JB",
        "addr:street": "Athol Street",
        "building": "yes",
        "name": "Apex",
        "office": "company",
        "source": "Isle of Man Government aerial imagery (2001)"
      }
    },
    {
      "type": "Feature",
      "id": 79141615,
      "geometry": {
        "type": "LineString",
        "coordinates": [
          [
            -4.482369,
            54.149149
          ],
          [
            -4.482284,
            54.149186
          ],
          [
            -4.482128,
            54.149063
          ],
          [
            -4.482214,
            54.149026
          ],
          [
            -4.482369,
            54.149149
          ]
        ]
      },
      "properties": {
        "addr:country": "IM",
        "addr:housename": "Athol Chambers",
        "addr:housenumber": "21",
        "addr:street": "Athol Street",
        "building": "yes",
        "name": "Carter Jones McDonald",
        "office": "lawyer",
        "postal_code": "IM1 1LB",
        "source": "Isle of Man Government aerial imagery (2001)",
        "website": "http://www.carterjonesmcdonald.com"
      }
    },
    {
      "type": "Feature",
      "id": 79141617,
      "geometry": {
        "type": "LineString",
        "coordinates": [
          [
            -4.483041,
            54.148857
          ],
          [
            -4.482866,
            54.148721
          ],
          [
            -4.48302,
            54.148652
          ],
          [
            -4.483197,
            54.148788
          ],
          [
            -4.483041,
            54.148857
          ]
        ]
      },
      "properties": {
        "addr:city": "Douglas",
        "addr:housenumber": "33-37",
        "addr:postcode": "IM1 1LB",
        "addr:street": "Athol Street",
        "building": "yes",
        "name": "Appleby",
        "office": "lawyer",
        "source": "Isle of Man Government aerial imagery (2001)"
      }
    },
    {
      "type": "Feature",
      "id": 79141622,
      "geometry": {
        "type": "LineString",
        "coordinates": [
          [
            -4.482682,
            54.149166
          ],
          [
            -4.482778,
            54.149237
          ],
          [
            -4.482688,
            54.149278
          ],
          [
            -4.482665,
            54.14926
          ],
          [
            -4.482591,
            54.149206
          ],
          [
            -4.482682,
            54.149166
          ]
        ]
      },
      "properties": {
        "addr:city": "Douglas",
        "addr:housenumber": "34",
        "addr:postcode": "IM1 1JB",
        "addr:street": "Athol Street",
        "building": "yes",
        "name": "Blackfords",
        "office": "company",
        "source": "Isle of Man Government aerial imagery (2001)",
        "website": "https://www.blackfords.im"
      }
    },
    {
      "type": "Feature",
      "id": 79141634,
      "geometry": {
        "type": "LineString",
        "coordinates": [
          [
            -4.482429,
            54.149278
          ],
          [
            -4.482506,
            54.149244
          ],
          [
            -4.482576,
            54.149299
          ],
          [
            -4.482669,
            54.149372
          ],
          [
            -4.482592,
            54.149405
          ],
          [
            -4.482508,
            54.14934
          ],
          [
            -4.482429,
            54.149278
          ]
        ]
      },
      "properties": {
        "addr:city": "Douglas",
        "addr:housenumber": "30",
        "addr:postcode": "IM1 1JB",
        "addr:street": "Athol Street",
        "building": "yes",
        "name": "Chapman Chartered Surveyors",
        "office": "yes",
        "source": "Isle of Man Government aerial imagery (2001)"
      }
    },
    {
      "type": "Feature",
      "id": 79141636,
      "geometry": {
        "type": "LineString",
        "coordinates": [
          [
            -4.482,
            54.149305
          ],
          [
            -4.481828,
            54.149229
          ],
          [
            -4.481935,
            54.14917
          ],
          [
            -4.482059,
            54.149098
          ],
          [
            -4.482128,
            54.149063
          ],
          [
            -4.482284,
            54.149186
          ],
          [
            -4.482,
            54.149305
          ]
        ]
      },
      "properties": {
        "addr:country": "IM",
        "addr:housenumber": "15-19",
        "addr:street": "Athol Street",
        "building": "yes",
        "name": "Cains",
        "office": "lawyer",
        "postal_code": "IM1 1LB",
        "source": "Isle of Man Government aerial imagery (2001)"
      }
    },
    {
      "type": "Feature",
      "id": 79143412,
      "geometry": {
        "type": "LineString",
        "coordinates": [
          [
            -4.482155,
            54.14952
          ],
          [
            -4.482135,
            54.149529
          ],
          [
            -4.482026,
            54.149447
          ],
          [
            -4.482103,
            54.149416
          ],
          [
            -4.482248,
            54.149479
          ],
          [
            -4.482155,
            54.14952
          ]
        ]
      },
      "properties": {
        "addr:city": "Douglas",
        "addr:country": "IM",
        "addr:housenumber": "24",
        "addr:postcode": "IM1 1JA",
        "addr:street": "Athol Street",
        "building": "yes",
        "name": "Sanctuary Trust",
        "office": "company",
        "source": "Isle of Man Government aerial imagery (2001)",
        "website": "https://www.sanctuary-trust.com/"
      }
    },
    {
      "type": "Feature",
      "id": 79144547,
      "geometry": {
        "type": "LineString",
        "coordinates": [
          [
            -4.495855,
            54.170066
          ],
          [
            -4.495909,
            54.170111
          ],
          [
            -4.495873,
            54.170126
          ],
          [
            -4.495885,
            54.170136
          ],
          [
            -4.495856,
            54.170148
          ],
          [
            -4.495846,
            54.17014
          ],
          [
            -4.495806,
            54.170157
          ],
          [
            -4.495749,
            54.17011
          ],
          [
            -4.495764,
            54.170104
          ],
          [
            -4.495855,
            54.170066
          ]
        ]
      },
      "properties": {
        "addr:city": "Tromode",
        "addr:country": "IM",
        "addr:housenumber": "Unit 4",
        "addr:street": "Carr's Lane",
        "building": "industrial",
        "name": "Clucas PLC",
        "office": "company",
        "source": "Isle of Man Government aerial imagery (2001)"
      }
    },
    {
      "type": "Feature",
      "id": 79144669,
      "geometry": {
        "type": "LineString",
        "coordinates": [
          [
            -4.498314,
            54.170075
          ],
          [
            -4.497497,
            54.170272
          ],
          [
            -4.49739,
            54.170119
          ],
          [
            -4.497282,
            54.170145
          ],
          [
            -4.497232,
            54.170075
          ],
          [
            -4.497339,
            54.170049
          ],
          [
            -4.497279,
            54.169964
          ],
          [
            -4.497161,
            54.169992
          ],
          [
            -4.4971,
            54.169906
          ],
          [
            -4.497928,
            54.169706
          ],
          [
            -4.497988,
            54.169791
          ],
          [
            -4.498096,
            54.169765
          ],
          [
            -4.498314,
            54.170075
          ]
        ]
      },
      "properties": {
        "addr:city": "Cronkbourne",
        "addr:country": "IM",
        "addr:postcode": "IM4 4QE",
        "addr:street": "Ballafletcher Farm Road",
        "building": "industrial",
        "industrial": "food_industry",
        "man_made": "works",
        "name": "Isle of Man Creamery",
        "office": "company",
        "source": "Isle of Man Government aerial imagery (2001)",
        "website": "https://www.isleofmancreamery.com/"
      }
    },
    {
      "type": "Feature",
      "id": 79144679,
      "geometry": {
        "type": "LineString",
        "coordinates": [
          [
            -4.499219,
            54.171159
          ],
          [
            -4.499481,
            54.171263
          ],
          [
            -4.499327,
            54.171396
          ],
          [
            -4.499615,
            54.17151
          ],
          [
            -4.499535,
            54.171579
          ],
          [
            -4.499497,
            54.171564
          ],
          [
            -4.49939,
            54.171656
          ],
          [
            -4.499275,
            54.17161
          ],
          [
            -4.499238,
            54.171641
          ],
          [
            -4.499155,
            54.171608
          ],
          [
            -4.498914,
            54.171816
          ],
          [
            -4.498868,
            54.171782
          ],
          [
            -4.498806,
            54.17184
          ],
          [
            -4.498863,
            54.171861
          ],
          [
            -4.498554,
            54.17215
          ],
          [
            -4.498184,
            54.172014
          ],
          [
            -4.498467,
            54.171749
          ],
          [
            -4.498567,
            54.171786
          ],
          [
            -4.49878,
            54.171586
          ],
          [
            -4.498693,
            54.171554
          ],
          [
            -4.498789,
            54.171465
          ],
          [
            -4.49875,
            54.171433
          ],
          [
            -4.498975,
            54.171239
          ],
          [
            -4.499079,
            54.17128
          ],
          [
            -4.499219,
            54.171159
          ]
        ]
      },
      "properties": {
        "addr:city": "Cronkbourne",
        "addr:country": "IM",
        "addr:postcode": "IM4 4QE",
        "addr:street": "Ballafletcher Farm Road",
        "alt_name": "Abattoir",
        "building": "abattoir",
        "contact:facebook": "https://www.facebook.com/iommeat/",
        "industrial": "food_processing",
        "name": "Isle of Man Meats",
        "office": "company",
        "source": "Isle of Man Government aerial imagery (2001)",
        "website": "https://www.iommeats.com"
      }
    },
    {
      "type": "Feature",
      "id": 80981736,
      "geometry": {
        "type": "LineString",
        "coordinates": [
          [
            -4.475145,
            54.148198
          ],
          [
            -4.474948,
            54.148116
          ],
          [
            -4.474976,
            54.148089
          ],
          [
            -4.474937,
            54.148073
          ],
          [
            -4.475249,
            54.14774
          ],
          [
            -4.475306,
            54.147757
          ],
          [
            -4.475408,
            54.147787
          ],
          [
            -4.475236,
            54.147975
          ],
          [
            -4.475162,
            54.148042
          ],
          [
            -4.475324,
            54.148104
          ],
          [
            -4.47523,
            54.148187
          ],
          [
            -4.475175,
            54.148168
          ],
          [
            -4.475145,
            54.148198
          ]
        ]
      },
      "properties": {
        "addr:city": "Douglas",
        "addr:country": "IM",
        "addr:housename": "Imperial Buildings",
        "addr:postcode": "IM1 2BY",
        "addr:street": "Bath Place",
        "building": "office",
        "name": "Isle of Man Steam Packet Company",
        "office": "company",
        "source": "Isle of Man Government aerial imagery (2001)",
        "wheelchair": "no"
      }
    },
    {
      "type": "Feature",
      "id": 82659048,
      "geometry": {
        "type": "LineString",
        "coordinates": [
          [
            -4.487025,
            54.14952
          ],
          [
            -4.487089,
            54.149482
          ],
          [
            -4.4875,
            54.149507
          ],
          [
            -4.487476,
            54.149614
          ],
          [
            -4.487449,
            54.149743
          ],
          [
            -4.487142,
            54.14972
          ],
          [
            -4.487125,
            54.149692
          ],
          [
            -4.487025,
            54.14952
          ]
        ]
      },
      "properties": {
        "addr:city": "Douglas",
        "addr:country": "IM",
        "addr:housenumber": "26",
        "addr:postcode": "IM1 4NH",
        "addr:street": "Circular Road",
        "addr:substreet": "Belmont Terrace",
        "building": "office",
        "contact:website": "https://derivco.com/locations/isle-of-man/",
        "name": "Derivco IOM",
        "office": "company",
        "source": "Isle of Man Government aerial imagery (2001)"
      }
    },
    {
      "type": "Feature",
      "id": 91347946,
      "geometry": {
        "type": "LineString",
        "coordinates": [
          [
            -4.650964,
            54.074051
          ],
          [
            -4.650786,
            54.07401
          ],
          [
            -4.65084,
            54.07394
          ],
          [
            -4.650965,
            54.073973
          ],
          [
            -4.650979,
            54.073955
          ],
          [
            -4.651028,
            54.073969
          ],
          [
            -4.650964,
            54.074051
          ]
        ]
      },
      "properties": {
        "addr:city": "Castletown",
        "addr:country": "IM",
        "addr:housename": "Bridge Court",
        "addr:housenumber": "10",
        "addr:postcode": "IM9 1AX",
        "addr:street": "Bridge Street",
        "building": "yes",
        "contact:email": "mail@rushen-coroner.co.uk",
        "contact:fax": "+44 7092 136805",
        "contact:phone": "+44 1624 822871",
        "contact:website": "http://www.rushen-coroner.co.uk/",
        "government": "coroner",
        "name": "Coroner of Rushen",
        "office": "government",
        "opening_hours": "Mo-Fr 10:00-13:00"
      }
    },
    {
      "type": "Feature",
      "id": 101772793,
      "geometry": {
        "type": "LineString",
        "coordinates": [
          [
            -4.757698,
            54.085617
          ],
          [
            -4.757596,
            54.085615
          ],
          [
            -4.757597,
            54.085478
          ],
          [
            -4.757597,
            54.085386
          ],
          [
            -4.757705,
            54.085387
          ],
          [
            -4.757698,
            54.085617
          ]
        ]
      },
      "properties": {
        "addr:city": "Port Erin",
        "addr:country": "IM",
        "addr:housename": "The Old Bank",
        "addr:housenumber": "19",
        "addr:postcode": "IM9 6AE",
        "addr:street": "Station Road",
        "building": "yes",
        "building:levels": "1",
        "contact:phone": "+44 1624 832042",
        "contact:website": "https://manxcover.com",
        "name": "Manx Cover (Blackford & Co. Insurance Agents)",
        "office": "insurance",
        "source": "survey"
      }
    },
    {
      "type": "Feature",
      "id": 101784724,
      "geometry": {
        "type": "LineString",
        "coordinates": [
          [
            -4.738417,
            54.072441
          ],
          [
            -4.738525,
            54.072418
          ],
          [
            -4.738582,
            54.072475
          ],
          [
            -4.738464,
            54.072497
          ],
          [
            -4.738411,
            54.072497
          ],
          [
            -4.738417,
            54.072441
          ]
        ]
      },
      "properties": {
        "addr:city": "Port Saint Mary",
        "addr:country": "IM",
        "addr:housename": "Metals House",
        "addr:street": "Athol Street",
        "building": "yes",
        "name": "Metalco Engineering Ltd",
        "office": "engineering"
      }
    },
    {
      "type": "Feature",
      "id": 102785180,
      "geometry": {
        "type": "LineString",
        "coordinates": [
          [
            -4.381625,
            54.3216
          ],
          [
            -4.381499,
            54.321572
          ],
          [
            -4.38148,
            54.321562
          ],
          [
            -4.381474,
            54.321542
          ],
          [
            -4.381544,
            54.32144
          ],
          [
            -4.381701,
            54.321469
          ],
          [
            -4.381625,
            54.3216
          ]
        ]
      },
      "properties": {
        "addr:city": "Ramsey",
        "addr:country": "IM",
        "addr:housenumber": "9",
        "addr:postcode": "IM8 1AS",
        "addr:street": "Parliament Street",
        "building": "yes",
        "name": "Cowley Groves",
        "office": "estate_agent",
        "website": "https://www.cowleygroves.com/"
      }
    },
    {
      "type": "Feature",
      "id": 102785218,
      "geometry": {
        "type": "LineString",
        "coordinates": [
          [
            -4.382165,
            54.321719
          ],
          [
            -4.382086,
            54.321698
          ],
          [
            -4.38222,
            54.321518
          ],
          [
            -4.382259,
            54.321527
          ],
          [
            -4.382212,
            54.321587
          ],
          [
            -4.382261,
            54.3216
          ],
          [
            -4.382165,
            54.321719
          ]
        ]
      },
      "properties": {
        "addr:city": "Ramsey",
        "addr:country": "IM",
        "addr:housenumber": "21",
        "addr:postcode": "IM8 1AS",
        "addr:street": "Parliament Street",
        "building": "yes",
        "name": "Property Wise",
        "office": "estate_agent",
        "website": "https://www.propertywise.co.im/"
      }
    },
    {
      "type": "Feature",
      "id": 102856108,
      "geometry": {
        "type": "LineString",
        "coordinates": [
          [
            -4.387309,
            54.32311
          ],
          [
            -4.387242,
            54.322946
          ],
          [
            -4.387466,
            54.322915
          ],
          [
            -4.387533,
            54.323077
          ],
          [
            -4.387309,
            54.32311
          ]
        ]
      },
      "properties": {
        "addr:city": "Ramsey",
        "addr:housenumber": "2",
        "addr:street": "Bowring Road",
        "building": "yes",
        "fixme": "may have renamed to Atla Group and moved to 77 Parliament St?",
        "name": "Harding Lewis",
        "office": "accountant",
        "source": "streetside;mapillary"
      }
    },
    {
      "type": "Feature",
      "id": 102856121,
      "geometry": {
        "type": "LineString",
        "coordinates": [
          [
            -4.386113,
            54.3221
          ],
          [
            -4.386111,
            54.322118
          ],
          [
            -4.386101,
            54.322213
          ],
          [
            -4.386221,
            54.322218
          ],
          [
            -4.386233,
            54.322105
          ],
          [
            -4.386113,
            54.3221
          ]
        ]
      },
      "properties": {
        "addr:city": "Ramsey",
        "addr:housenumber": "1-2",
        "addr:postcode": "IM8 1AH",
        "addr:street": "Parliament Square",
        "building": "yes",
        "name": "Kestrel Insurance",
        "office": "insurance",
        "source": "mapillary",
        "website": "https://www.kestrel-insurance.com"
      }
    },
    {
      "type": "Feature",
      "id": 102856165,
      "geometry": {
        "type": "LineString",
        "coordinates": [
          [
            -4.387185,
            54.323129
          ],
          [
            -4.387232,
            54.323235
          ],
          [
            -4.38758,
            54.323183
          ],
          [
            -4.387533,
            54.323077
          ],
          [
            -4.387309,
            54.32311
          ],
          [
            -4.387185,
            54.323129
          ]
        ]
      },
      "properties": {
        "addr:city": "Ramsey",
        "addr:housename": "Commerce House",
        "addr:housenumber": "1",
        "addr:postcode": "IM8 2LQ",
        "addr:street": "Bowring Road",
        "building": "yes",
        "fixme": "unlikely to actually be 1 Bowring Road as listed on company website",
        "name": "LJ Fiduciary",
        "office": "yes",
        "source": "mapillary",
        "website": "https://www.ljfiduciary.com/"
      }
    },
    {
      "type": "Feature",
      "id": 102856197,
      "geometry": {
        "type": "LineString",
        "coordinates": [
          [
            -4.383852,
            54.322208
          ],
          [
            -4.38386,
            54.322208
          ],
          [
            -4.383947,
            54.322212
          ],
          [
            -4.383935,
            54.322294
          ],
          [
            -4.383847,
            54.32229
          ],
          [
            -4.38384,
            54.322289
          ],
          [
            -4.383852,
            54.322208
          ]
        ]
      },
      "properties": {
        "addr:city": "Ramsey",
        "addr:country": "IM",
        "addr:housenumber": "60",
        "addr:postcode": "IM8 1AJ",
        "addr:street": "Parliament Street",
        "building": "yes",
        "name": "Deanwood",
        "office": "estate_agent",
        "website": "https://www.deanwood.im/"
      }
    },
    {
      "type": "Feature",
      "id": 102856200,
      "geometry": {
        "type": "LineString",
        "coordinates": [
          [
            -4.385131,
            54.322313
          ],
          [
            -4.384959,
            54.322305
          ],
          [
            -4.384949,
            54.322393
          ],
          [
            -4.385121,
            54.3224
          ],
          [
            -4.385131,
            54.322313
          ]
        ]
      },
      "properties": {
        "addr:city": "Ramsey",
        "addr:housename": "Auckland Chambers",
        "addr:housenumber": "4",
        "addr:postcode": "IM8 1AF",
        "addr:street": "Parliament Street",
        "addr:substreet": "Auckland Terrace",
        "building": "yes",
        "contact:website": "https://www.cainsgb.co.im/",
        "listed_status": "Registered",
        "name": "Cains Gordon Bell",
        "note": "Registered Building status for West House and 3-10 Auckland Terrace",
        "office": "lawyer",
        "ref:registered_building": "152",
        "source": "Bing",
        "source:addr:housenumber": "registered_building",
        "url:registered_building": "https://www.gov.im/media/632921/0500152regbldbeanoa.pdf",
        "wikidata": "Q118188814"
      }
    },
    {
      "type": "Feature",
      "id": 102890347,
      "geometry": {
        "type": "LineString",
        "coordinates": [
          [
            -4.385025,
            54.322062
          ],
          [
            -4.384928,
            54.322058
          ],
          [
            -4.384914,
            54.322169
          ],
          [
            -4.385012,
            54.322173
          ],
          [
            -4.385025,
            54.322062
          ]
        ]
      },
      "properties": {
        "addr:city": "Ramsey",
        "addr:housenumber": "79",
        "addr:postcode": "IM8 1AQ",
        "addr:street": "Parliament Street",
        "building": "yes",
        "name": "Cornerstone Architects",
        "office": "architect",
        "phone": "+44 1624 810810",
        "source": "survey",
        "website": "https://www.csarc.im/"
      }
    },
    {
      "type": "Feature",
      "id": 104794549,
      "geometry": {
        "type": "LineString",
        "coordinates": [
          [
            -4.504676,
            54.172203
          ],
          [
            -4.504472,
            54.172293
          ],
          [
            -4.504434,
            54.172264
          ],
          [
            -4.504403,
            54.172278
          ],
          [
            -4.504331,
            54.172222
          ],
          [
            -4.504362,
            54.172208
          ],
          [
            -4.504342,
            54.172193
          ],
          [
            -4.50424,
            54.172238
          ],
          [
            -4.504246,
            54.172258
          ],
          [
            -4.504106,
            54.172321
          ],
          [
            -4.504087,
            54.172306
          ],
          [
            -4.503935,
            54.172375
          ],
          [
            -4.503834,
            54.172298
          ],
          [
            -4.503987,
            54.17223
          ],
          [
            -4.503939,
            54.172193
          ],
          [
            -4.504198,
            54.172077
          ],
          [
            -4.504167,
            54.172053
          ],
          [
            -4.50433,
            54.17198
          ],
          [
            -4.504361,
            54.172004
          ],
          [
            -4.504519,
            54.171933
          ],
          [
            -4.504502,
            54.17192
          ],
          [
            -4.504634,
            54.171861
          ],
          [
            -4.504734,
            54.171937
          ],
          [
            -4.504839,
            54.17189
          ],
          [
            -4.50489,
            54.17193
          ],
          [
            -4.504924,
            54.171915
          ],
          [
            -4.504968,
            54.171949
          ],
          [
            -4.504935,
            54.171964
          ],
          [
            -4.504978,
            54.171996
          ],
          [
            -4.504718,
            54.172112
          ],
          [
            -4.504567,
            54.171996
          ],
          [
            -4.50455,
            54.172004
          ],
          [
            -4.504572,
            54.172021
          ],
          [
            -4.504499,
            54.172054
          ],
          [
            -4.504476,
            54.172036
          ],
          [
            -4.504436,
            54.172054
          ],
          [
            -4.504448,
            54.172064
          ],
          [
            -4.504477,
            54.172051
          ],
          [
            -4.504552,
            54.172109
          ],
          [
            -4.504523,
            54.172122
          ],
          [
            -4.504575,
            54.172162
          ],
          [
            -4.504605,
            54.172148
          ],
          [
            -4.504676,
            54.172203
          ]
        ]
      },
      "properties": {
        "addr:country": "IM",
        "addr:housename": "Keyll Darree",
        "addr:place": "Noble's Hospital, Braddan",
        "addr:postcode": "IM4 4RH",
        "building": "yes",
        "name": "Education and Training Centre",
        "office": "educational_institution",
        "smoking": "no",
        "website": "https://www.gov.im/categories/education-training-and-careers/keyll-darree-health-and-social-care-higher-education-centre/"
      }
    },
    {
      "type": "Feature",
      "id": 136360207,
      "geometry": {
        "type": "LineString",
        "coordinates": [
          [
            -4.466099,
            54.173494
          ],
          [
            -4.466011,
            54.173436
          ],
          [
            -4.465989,
            54.173448
          ],
          [
            -4.465958,
            54.173429
          ],
          [
            -4.465933,
            54.173411
          ],
          [
            -4.465961,
            54.173396
          ],
          [
            -4.465877,
            54.173341
          ],
          [
            -4.465741,
            54.173412
          ],
          [
            -4.465704,
            54.173404
          ],
          [
            -4.465662,
            54.173412
          ],
          [
            -4.465638,
            54.173432
          ],
          [
            -4.465652,
            54.173458
          ],
          [
            -4.465557,
            54.173508
          ],
          [
            -4.465553,
            54.173505
          ],
          [
            -4.465446,
            54.173561
          ],
          [
            -4.465459,
            54.17357
          ],
          [
            -4.46544,
            54.173579
          ],
          [
            -4.465505,
            54.173622
          ],
          [
            -4.465528,
            54.17361
          ],
          [
            -4.465707,
            54.173727
          ],
          [
            -4.465617,
            54.173774
          ],
          [
            -4.465726,
            54.173845
          ],
          [
            -4.4658,
            54.173806
          ],
          [
            -4.465887,
            54.173863
          ],
          [
            -4.466038,
            54.173784
          ],
          [
            -4.465933,
            54.173716
          ],
          [
            -4.466083,
            54.173638
          ],
          [
            -4.465968,
            54.173562
          ],
          [
            -4.466099,
            54.173494
          ]
        ]
      },
      "properties": {
        "addr:city": "Onchan",
        "addr:country": "IM",
        "addr:housename": "Government House",
        "addr:postcode": "IM3 1RR",
        "addr:street": "Governor's Road",
        "building": "house",
        "government": "lieutenant_governor",
        "listed_status": "Registered",
        "name": "Government House",
        "name:en": "Government House",
        "name:gv": "Thie yn Reiltys",
        "office": "government",
        "old_name": "Bemahague Farm",
        "postal_code": "IM3 1RR",
        "ref:registered_building": "254",
        "url:registered_building": "https://www.gov.im/media/1361444/0700254regbld-pdf-for-website-amended-120220.pdf",
        "website": "https://governmenthouse.gov.im",
        "wikidata": "Q5588879",
        "wikipedia": "en:Government House, Isle of Man"
      }
    },
    {
      "type": "Feature",
      "id": 146833095,
      "geometry": {
        "type": "LineString",
        "coordinates": [
          [
            -4.695944,
            54.223031
          ],
          [
            -4.696013,
            54.222994
          ],
          [
            -4.695949,
            54.222953
          ],
          [
            -4.695807,
            54.223021
          ],
          [
            -4.695831,
            54.223074
          ],
          [
            -4.695882,
            54.22306
          ],
          [
            -4.695928,
            54.223037
          ],
          [
            -4.695944,
            54.223031
          ]
        ]
      },
      "properties": {
        "addr:city": "Peel",
        "addr:country": "IM",
        "addr:housenumber": "7-8",
        "addr:street": "Market Place",
        "building": "commercial",
        "name": "Manx Wildlife Trust",
        "office": "company",
        "opening_hours": "Mo-Sa 10:30-17:00, Su 13:00-16:30",
        "shop": "gift"
      }
    },
    {
      "type": "Feature",
      "id": 152690553,
      "geometry": {
        "type": "LineString",
        "coordinates": [
          [
            -4.481756,
            54.152742
          ],
          [
            -4.481845,
            54.152799
          ],
          [
            -4.481963,
            54.152804
          ],
          [
            -4.481962,
            54.152694
          ],
          [
            -4.481899,
            54.152656
          ],
          [
            -4.481874,
            54.152673
          ],
          [
            -4.481756,
            54.152742
          ]
        ]
      },
      "properties": {
        "addr:city": "Douglas",
        "addr:country": "IM",
        "addr:housenumber": "19",
        "addr:postcode": "IM1 2QG",
        "addr:street": "Mount Havelock",
        "building": "yes",
        "name": "McGarrigle Architects",
        "office": "architect",
        "source": "mapillary",
        "website": "https://www.mcgarrigle-architects.com"
      }
    },
    {
      "type": "Feature",
      "id": 152690563,
      "geometry": {
        "type": "LineString",
        "coordinates": [
          [
            -4.482033,
            54.151824
          ],
          [
            -4.481949,
            54.151824
          ],
          [
            -4.481949,
            54.151907
          ],
          [
            -4.481973,
            54.151907
          ],
          [
            -4.481973,
            54.151958
          ],
          [
            -4.482033,
            54.151958
          ],
          [
            -4.482033,
            54.15191
          ],
          [
            -4.482033,
            54.151824
          ]
        ]
      },
      "properties": {
        "addr:city": "Douglas",
        "addr:housenumber": "4",
        "addr:postcode": "IM1 2QA",
        "addr:street": "Albert Street",
        "building": "commercial",
        "email": "contact@kinleylegal.com",
        "name": "Kinley Legal",
        "office": "lawyer",
        "opening_hours": "Mo-Fr 09:00-18:00",
        "phone": "+44 1624 640366",
        "website": "https://kinleylegal.com"
      }
    },
    {
      "type": "Feature",
      "id": 152690581,
      "geometry": {
        "type": "LineString",
        "coordinates": [
          [
            -4.482116,
            54.151824
          ],
          [
            -4.482033,
            54.151824
          ],
          [
            -4.482033,
            54.15191
          ],
          [
            -4.482061,
            54.15191
          ],
          [
            -4.482061,
            54.151986
          ],
          [
            -4.482116,
            54.151986
          ],
          [
            -4.482116,
            54.151912
          ],
          [
            -4.482116,
            54.151824
          ]
        ]
      },
      "properties": {
        "addr:city": "Douglas",
        "addr:country": "IM",
        "addr:housenumber": "6",
        "addr:postcode": "IM1 2QA",
        "addr:street": "Albert Street",
        "building": "yes",
        "charity": "yes",
        "contact:facebook": "http://www.facebook.com/victimsupportiom",
        "name": "Victim Support Isle of Man",
        "office": "charity",
        "operator": "Victim Support (Isle of Man)",
        "operator:type": "charitable",
        "ref:charity": "963",
        "source:addr:housenumber": "interpolation",
        "website": "https://www.victimsupport.im/"
      }
    },
    {
      "type": "Feature",
      "id": 152690587,
      "geometry": {
        "type": "LineString",
        "coordinates": [
          [
            -4.48173,
            54.152426
          ],
          [
            -4.481583,
            54.152423
          ],
          [
            -4.481434,
            54.152419
          ],
          [
            -4.481439,
            54.152354
          ],
          [
            -4.481735,
            54.152362
          ],
          [
            -4.48173,
            54.152426
          ]
        ]
      },
      "properties": {
        "addr:city": "Douglas",
        "addr:country": "IM",
        "addr:housename": "Acclaim House",
        "addr:housenumber": "12",
        "addr:postcode": "IM1 2QG",
        "addr:street": "Mount Havelock",
        "building": "yes",
        "name": "Acclaim",
        "office": "company",
        "source:addr:housename": "mapillary",
        "website": "https://accla.im"
      }
    },
    {
      "type": "Feature",
      "id": 152690589,
      "geometry": {
        "type": "LineString",
        "coordinates": [
          [
            -4.481607,
            54.152655
          ],
          [
            -4.481756,
            54.152742
          ],
          [
            -4.481874,
            54.152673
          ],
          [
            -4.481818,
            54.15264
          ],
          [
            -4.481839,
            54.152628
          ],
          [
            -4.481765,
            54.152586
          ],
          [
            -4.481732,
            54.152605
          ],
          [
            -4.481712,
            54.152594
          ],
          [
            -4.481607,
            54.152655
          ]
        ]
      },
      "properties": {
        "addr:city": "Douglas",
        "addr:country": "IM",
        "addr:housename": "Havelock Chambers",
        "addr:housenumber": "16-18",
        "addr:postcode": "IM1 2QG",
        "addr:street": "Mount Havelock",
        "building": "yes",
        "name": "BridsonHalsall Advocates",
        "office": "lawyer",
        "source": "mapillary",
        "website": "https://iomlaw.com"
      }
    },
    {
      "type": "Feature",
      "id": 152690593,
      "geometry": {
        "type": "LineString",
        "coordinates": [
          [
            -4.481434,
            54.152419
          ],
          [
            -4.481429,
            54.152488
          ],
          [
            -4.481578,
            54.152491
          ],
          [
            -4.481583,
            54.152423
          ],
          [
            -4.481434,
            54.152419
          ]
        ]
      },
      "properties": {
        "addr:city": "Douglas",
        "addr:country": "IM",
        "addr:housenumber": "13",
        "addr:postcode": "IM1 2QG",
        "addr:street": "Mount Havelock",
        "building": "yes",
        "name": "Isle of Man Law Society",
        "office": "society",
        "source": "mapillary",
        "website": "https://iomlawsociety.co.im"
      }
    },
    {
      "type": "Feature",
      "id": 162110745,
      "geometry": {
        "type": "LineString",
        "coordinates": [
          [
            -4.738055,
            54.07636
          ],
          [
            -4.738055,
            54.076378
          ],
          [
            -4.738077,
            54.076392
          ],
          [
            -4.738111,
            54.076398
          ],
          [
            -4.73827,
            54.076313
          ],
          [
            -4.738238,
            54.076289
          ],
          [
            -4.7382,
            54.076307
          ],
          [
            -4.738182,
            54.076296
          ],
          [
            -4.738055,
            54.07636
          ]
        ]
      },
      "properties": {
        "addr:city": "Port Saint Mary",
        "addr:country": "IM",
        "addr:housename": "Bay House",
        "addr:postcode": "IM9 5AQ",
        "addr:street": "Bay View Road",
        "building": "office",
        "name": "Manx Ocean Crewing",
        "office": "yes",
        "website": "https://www.manxocean.com/en/"
      }
    },
    {
      "type": "Feature",
      "id": 186059476,
      "geometry": {
        "type": "LineString",
        "coordinates": [
          [
            -4.495863,
            54.171647
          ],
          [
            -4.496085,
            54.171684
          ],
          [
            -4.496041,
            54.171771
          ],
          [
            -4.495818,
            54.171732
          ],
          [
            -4.495863,
            54.171647
          ]
        ]
      },
      "properties": {
        "addr:city": "Tromode",
        "addr:country": "IM",
        "addr:housenumber": "Unit 11a",
        "addr:place": "Tromode Estate",
        "addr:street": "Estate Road",
        "building": "industrial",
        "office": "yes",
        "source": "Isle of Man Government aerial imagery (2001)"
      }
    },
    {
      "type": "Feature",
      "id": 186059477,
      "geometry": {
        "type": "LineString",
        "coordinates": [
          [
            -4.496135,
            54.171435
          ],
          [
            -4.496097,
            54.171518
          ],
          [
            -4.495897,
            54.171488
          ],
          [
            -4.495934,
            54.171404
          ],
          [
            -4.496135,
            54.171435
          ]
        ]
      },
      "properties": {
        "addr:city": "Tromode",
        "addr:country": "IM",
        "addr:housenumber": "Unit 10a",
        "addr:place": "Tromode Estate",
        "addr:postcode": "IM4 4QD",
        "addr:street": "Estate Road",
        "building": "industrial",
        "contact:website": "https://www.textilesfrancais.co.uk/",
        "name": "Textiles Francais PLC",
        "office": "company",
        "source": "Isle of Man Government aerial imagery (2001)"
      }
    },
    {
      "type": "Feature",
      "id": 186059479,
      "geometry": {
        "type": "LineString",
        "coordinates": [
          [
            -4.495934,
            54.171404
          ],
          [
            -4.495897,
            54.171488
          ],
          [
            -4.495679,
            54.171454
          ],
          [
            -4.495716,
            54.171371
          ],
          [
            -4.495934,
            54.171404
          ]
        ]
      },
      "properties": {
        "addr:city": "Tromode",
        "addr:country": "IM",
        "addr:housenumber": "Unit 10b",
        "addr:place": "Tromode Estate",
        "addr:postcode": "IM4 4QD",
        "addr:street": "Estate Road",
        "building": "industrial",
        "contact:website": "https://www.textilesfrancais.co.uk/",
        "name": "Textiles Francais PLC",
        "office": "company",
        "source": "Isle of Man Government aerial imagery (2001)"
      }
    },
    {
      "type": "Feature",
      "id": 186415858,
      "geometry": {
        "type": "LineString",
        "coordinates": [
          [
            -4.475929,
            54.146114
          ],
          [
            -4.47597,
            54.146042
          ],
          [
            -4.475904,
            54.146029
          ],
          [
            -4.475928,
            54.145988
          ],
          [
            -4.475839,
            54.14597
          ],
          [
            -4.475799,
            54.14604
          ],
          [
            -4.475774,
            54.146085
          ],
          [
            -4.475929,
            54.146114
          ]
        ]
      },
      "properties": {
        "addr:housenumber": "6-7",
        "addr:postcode": "IM1 5BG",
        "addr:street": "Douglas Head Road",
        "addr:substreet": "Fort William",
        "building": "yes",
        "contact:email": "callin@manx.net",
        "contact:fax": "+44 1624 670666",
        "contact:phone": "+44 1624 675528;+44 1624 627191",
        "name": "Callin & Co. Chartered Accountants",
        "office": "accountant",
        "opening_hours": "Mo-Fr 09:00-17:30",
        "shop": "accountant",
        "source": "Bing",
        "source:addr": "survey"
      }
    },
    {
      "type": "Feature",
      "id": 241013779,
      "geometry": {
        "type": "LineString",
        "coordinates": [
          [
            -4.483272,
            54.151965
          ],
          [
            -4.483238,
            54.151919
          ],
          [
            -4.483018,
            54.151976
          ],
          [
            -4.483053,
            54.152022
          ],
          [
            -4.483272,
            54.151965
          ]
        ]
      },
      "properties": {
        "addr:city": "Douglas",
        "addr:country": "IM",
        "addr:housenumber": "50",
        "addr:postcode": "IM1 3AD",
        "addr:street": "Bucks Road",
        "building": "retail",
        "name": "Kestrel Insurance",
        "office": "insurance",
        "source": "Isle of Man Government aerial imagery (2001);survey"
      }
    },
    {
      "type": "Feature",
      "id": 246812758,
      "geometry": {
        "type": "LineString",
        "coordinates": [
          [
            -4.456431,
            54.17564
          ],
          [
            -4.456475,
            54.175613
          ],
          [
            -4.456506,
            54.175593
          ],
          [
            -4.456403,
            54.175537
          ],
          [
            -4.456335,
            54.175538
          ],
          [
            -4.456293,
            54.175565
          ],
          [
            -4.456431,
            54.17564
          ]
        ]
      },
      "properties": {
        "addr:city": "Onchan",
        "addr:country": "IM",
        "addr:housenumber": "14A",
        "addr:place": "Village Walk",
        "addr:street": "Avondale Road",
        "building": "yes",
        "layer": "1",
        "level": "1",
        "name": "Haven",
        "office": "yes",
        "source": "Bing;survey"
      }
    },
    {
      "type": "Feature",
      "id": 246812763,
      "geometry": {
        "type": "LineString",
        "coordinates": [
          [
            -4.456184,
            54.17577
          ],
          [
            -4.456224,
            54.175745
          ],
          [
            -4.456249,
            54.175744
          ],
          [
            -4.45629,
            54.175743
          ],
          [
            -4.456302,
            54.17575
          ],
          [
            -4.456361,
            54.175782
          ],
          [
            -4.456363,
            54.175826
          ],
          [
            -4.456272,
            54.175883
          ],
          [
            -4.456129,
            54.175804
          ],
          [
            -4.456184,
            54.17577
          ]
        ]
      },
      "properties": {
        "building": "yes",
        "name": "Isle of Man Employer's Federation",
        "office": "yes",
        "source": "Isle of Man Government aerial imagery (2001);Bing;Survey"
      }
    },
    {
      "type": "Feature",
      "id": 246812778,
      "geometry": {
        "type": "LineString",
        "coordinates": [
          [
            -4.456467,
            54.175496
          ],
          [
            -4.45657,
            54.175553
          ],
          [
            -4.456506,
            54.175593
          ],
          [
            -4.456403,
            54.175537
          ],
          [
            -4.456467,
            54.175496
          ]
        ]
      },
      "properties": {
        "addr:city": "Onchan",
        "addr:country": "IM",
        "addr:housenumber": "13A",
        "addr:place": "Village Walk",
        "addr:street": "Avondale Road",
        "building": "yes",
        "layer": "1",
        "level": "1",
        "name": "Village Walk Site Manager",
        "office": "yes",
        "opening_hours": "Tu-Th 09:30-16:00",
        "source": "Bing;survey"
      }
    },
    {
      "type": "Feature",
      "id": 247968424,
      "geometry": {
        "type": "LineString",
        "coordinates": [
          [
            -4.455446,
            54.175771
          ],
          [
            -4.455388,
            54.175808
          ],
          [
            -4.45551,
            54.175875
          ],
          [
            -4.455569,
            54.175838
          ],
          [
            -4.455446,
            54.175771
          ]
        ]
      },
      "properties": {
        "addr:city": "Onchan",
        "addr:country": "IM",
        "addr:housenumber": "3C",
        "addr:place": "Village Walk",
        "addr:postcode": "IM3 4EA",
        "addr:street": "Avondale Road",
        "building": "yes",
        "layer": "-1",
        "level": "-1",
        "name": "Range Left Jagged Right Ltd",
        "office": "marketing",
        "source": "Bing;survey"
      }
    },
    {
      "type": "Feature",
      "id": 292928215,
      "geometry": {
        "type": "LineString",
        "coordinates": [
          [
            -4.501863,
            54.148615
          ],
          [
            -4.501496,
            54.148811
          ],
          [
            -4.501465,
            54.14879
          ],
          [
            -4.501308,
            54.148689
          ],
          [
            -4.501676,
            54.148494
          ],
          [
            -4.501863,
            54.148615
          ]
        ]
      },
      "properties": {
        "addr:city": "Douglas",
        "addr:housename": "Peterson House",
        "addr:plot": "2",
        "addr:postcode": "IM2 1AL",
        "addr:street": "Middle River Industrial Estate",
        "building": "yes",
        "name": "Hartford Homes Ltd",
        "office": "company",
        "source": "Isle of Man Government aerial imagery (2001)"
      }
    },
    {
      "type": "Feature",
      "id": 385725703,
      "geometry": {
        "type": "LineString",
        "coordinates": [
          [
            -4.484663,
            54.14953
          ],
          [
            -4.484804,
            54.149641
          ],
          [
            -4.484929,
            54.149586
          ],
          [
            -4.484876,
            54.149545
          ],
          [
            -4.484787,
            54.149476
          ],
          [
            -4.484663,
            54.14953
          ]
        ]
      },
      "properties": {
        "addr:city": "Douglas",
        "addr:housenumber": "13-15",
        "addr:postcode": "IM1 1AQ",
        "addr:street": "Hope Street",
        "building": "office",
        "name": "Shimmin Wilson & Co",
        "office": "accountant"
      }
    },
    {
      "type": "Feature",
      "id": 410386589,
      "geometry": {
        "type": "LineString",
        "coordinates": [
          [
            -4.482377,
            54.147816
          ],
          [
            -4.48238,
            54.147852
          ],
          [
            -4.482381,
            54.147975
          ],
          [
            -4.482513,
            54.147986
          ],
          [
            -4.482515,
            54.147883
          ],
          [
            -4.48251,
            54.147852
          ],
          [
            -4.482503,
            54.147812
          ],
          [
            -4.482377,
            54.147816
          ]
        ]
      },
      "properties": {
        "addr:housenumber": "17",
        "addr:street": "North Quay",
        "name": "IOM Aero",
        "office": "company",
        "website": "https://www.iom.aero/"
      }
    },
    {
      "type": "Feature",
      "id": 410386590,
      "geometry": {
        "type": "LineString",
        "coordinates": [
          [
            -4.481776,
            54.147774
          ],
          [
            -4.481693,
            54.147893
          ],
          [
            -4.481776,
            54.147916
          ],
          [
            -4.481913,
            54.147925
          ],
          [
            -4.481978,
            54.147789
          ],
          [
            -4.481776,
            54.147774
          ]
        ]
      },
      "properties": {
        "addr:housename": "Merchants House",
        "addr:street": "North Quay",
        "building": "yes",
        "building:colour": "white",
        "building:levels": "3",
        "building:material": "plaster",
        "name": "IQE",
        "office": "company",
        "website": "https://www.iqe.im/"
      }
    },
    {
      "type": "Feature",
      "id": 410386592,
      "geometry": {
        "type": "LineString",
        "coordinates": [
          [
            -4.482979,
            54.147858
          ],
          [
            -4.482892,
            54.147869
          ],
          [
            -4.482872,
            54.147782
          ],
          [
            -4.482952,
            54.147774
          ],
          [
            -4.482979,
            54.147858
          ]
        ]
      },
      "properties": {
        "name": "Manx Home Care",
        "office": "yes"
      }
    },
    {
      "type": "Feature",
      "id": 419052357,
      "geometry": {
        "type": "LineString",
        "coordinates": [
          [
            -4.478298,
            54.149358
          ],
          [
            -4.478505,
            54.149372
          ],
          [
            -4.478495,
            54.149424
          ],
          [
            -4.478288,
            54.149412
          ],
          [
            -4.478298,
            54.149358
          ]
        ]
      },
      "properties": {
        "addr:city": "Douglas",
        "addr:country": "IM",
        "addr:housenumber": "18",
        "addr:postcode": "IM1 2LQ",
        "addr:street": "Victoria Street",
        "building": "retail",
        "building:colour": "grey",
        "building:levels": "3",
        "building:material": "plaster",
        "name": "Cowley Groves",
        "office": "estate_agent",
        "shop": "estate_agent",
        "source": "Bing;photograph;survey;",
        "website": "https://www.cowleygroves.com/"
      }
    },
    {
      "type": "Feature",
      "id": 419775937,
      "geometry": {
        "type": "LineString",
        "coordinates": [
          [
            -4.478585,
            54.149199
          ],
          [
            -4.47838,
            54.149146
          ],
          [
            -4.47837,
            54.149231
          ],
          [
            -4.478551,
            54.149239
          ],
          [
            -4.478571,
            54.149231
          ],
          [
            -4.478585,
            54.149199
          ]
        ]
      },
      "properties": {
        "addr:city": "Douglas",
        "addr:country": "IM",
        "addr:housenumber": "31",
        "addr:postcode": "IM1 2LH",
        "addr:street": "Victoria Street",
        "alt_name": "Chrystal Bros Stott and Kerruish",
        "building": "retail",
        "building:colour": "grey",
        "building:levels": "4",
        "building:material": "plaster",
        "name": "Chrystals",
        "office": "estate_agent",
        "shop": "estate_agent",
        "source": "photo;survey;",
        "website": "https://chrystals.co.im/"
      }
    },
    {
      "type": "Feature",
      "id": 419775939,
      "geometry": {
        "type": "LineString",
        "coordinates": [
          [
            -4.477133,
            54.149141
          ],
          [
            -4.477158,
            54.149048
          ],
          [
            -4.477125,
            54.149045
          ],
          [
            -4.477054,
            54.149041
          ],
          [
            -4.477024,
            54.149052
          ],
          [
            -4.477006,
            54.149131
          ],
          [
            -4.477133,
            54.149141
          ]
        ]
      },
      "properties": {
        "addr:city": "Douglas",
        "addr:housenumber": "7-13",
        "addr:postcode": "IM1 2LR",
        "addr:street": "Victoria Street",
        "level": "0",
        "name": "Douglas Development Partnership",
        "office": "ngo",
        "opening_hours": "08:45-17:15",
        "phone": "+441624696308",
        "smoking": "no"
      }
    },
    {
      "type": "Feature",
      "id": 419775946,
      "geometry": {
        "type": "LineString",
        "coordinates": [
          [
            -4.477587,
            54.149175
          ],
          [
            -4.477438,
            54.149165
          ],
          [
            -4.477456,
            54.149063
          ],
          [
            -4.477524,
            54.149116
          ],
          [
            -4.477565,
            54.149113
          ],
          [
            -4.477605,
            54.149102
          ],
          [
            -4.477587,
            54.149175
          ]
        ]
      },
      "properties": {
        "description": "\"Accounting, Book-keeping, Payroll, VAT, Tax, Data Entry, Market Research, Lead Generation\"",
        "name": "OrmCo",
        "office": "accountant",
        "website": "http://www.ocplc.com"
      }
    },
    {
      "type": "Feature",
      "id": 419775948,
      "geometry": {
        "type": "LineString",
        "coordinates": [
          [
            -4.477189,
            54.149146
          ],
          [
            -4.477221,
            54.149022
          ],
          [
            -4.477257,
            54.149024
          ],
          [
            -4.477303,
            54.149028
          ],
          [
            -4.47727,
            54.149153
          ],
          [
            -4.477189,
            54.149146
          ]
        ]
      },
      "properties": {
        "email": "prospect@manx.net",
        "level": "0",
        "name": "Prospect",
        "office": "trade_union",
        "website": "http://www.iomgoa.co.uk"
      }
    },
    {
      "type": "Feature",
      "id": 419836985,
      "geometry": {
        "type": "LineString",
        "coordinates": [
          [
            -4.480092,
            54.1493
          ],
          [
            -4.480108,
            54.149416
          ],
          [
            -4.480122,
            54.149411
          ],
          [
            -4.480182,
            54.149465
          ],
          [
            -4.480272,
            54.149539
          ],
          [
            -4.480177,
            54.149579
          ],
          [
            -4.480154,
            54.149575
          ],
          [
            -4.480016,
            54.14945
          ],
          [
            -4.480031,
            54.149446
          ],
          [
            -4.480022,
            54.149435
          ],
          [
            -4.480008,
            54.149439
          ],
          [
            -4.479966,
            54.149372
          ],
          [
            -4.47996,
            54.149313
          ],
          [
            -4.479978,
            54.149302
          ],
          [
            -4.480092,
            54.1493
          ]
        ]
      },
      "properties": {
        "addr:housename": "Saint Thomas House",
        "addr:street": "Victoria Street",
        "building": "office",
        "building:levels": "3",
        "building:material": "plaster",
        "name": "CTH Insurance Brokers",
        "office": "insurance",
        "roof:levels": "1"
      }
    },
    {
      "type": "Feature",
      "id": 419836986,
      "geometry": {
        "type": "LineString",
        "coordinates": [
          [
            -4.479061,
            54.14933
          ],
          [
            -4.479038,
            54.149489
          ],
          [
            -4.478848,
            54.149469
          ],
          [
            -4.478868,
            54.14935
          ],
          [
            -4.479061,
            54.14933
          ]
        ]
      },
      "properties": {
        "addr:country": "IM",
        "addr:housename": "European House",
        "addr:housenumber": "22-24",
        "addr:postcode": "IM1 2LE",
        "addr:street": "Victoria Street",
        "name": "Dandara",
        "office": "estate_agent",
        "shop": "estate_agent",
        "source": "survey",
        "website": "https://www.dandara.com/"
      }
    },
    {
      "type": "Feature",
      "id": 419836987,
      "geometry": {
        "type": "LineString",
        "coordinates": [
          [
            -4.478833,
            54.149353
          ],
          [
            -4.478821,
            54.149476
          ],
          [
            -4.478792,
            54.149477
          ],
          [
            -4.478786,
            54.149495
          ],
          [
            -4.478572,
            54.149475
          ],
          [
            -4.478592,
            54.149386
          ],
          [
            -4.478614,
            54.14937
          ],
          [
            -4.478833,
            54.149353
          ]
        ]
      },
      "properties": {
        "addr:city": "Douglas",
        "addr:country": "IM",
        "addr:housenumber": "20",
        "addr:postcode": "IM1 2LE",
        "addr:street": "Victoria Street",
        "level": "1;2",
        "name": "MPES.co.uk",
        "office": "company",
        "source": "survey"
      }
    },
    {
      "type": "Feature",
      "id": 419950952,
      "geometry": {
        "type": "LineString",
        "coordinates": [
          [
            -4.480343,
            54.149396
          ],
          [
            -4.480386,
            54.149376
          ],
          [
            -4.48037,
            54.149356
          ],
          [
            -4.480421,
            54.149313
          ],
          [
            -4.480412,
            54.14931
          ],
          [
            -4.480301,
            54.149306
          ],
          [
            -4.480298,
            54.149352
          ],
          [
            -4.480343,
            54.149396
          ]
        ]
      },
      "properties": {
        "addr:city": "Douglas",
        "addr:country": "IM",
        "addr:housenumber": "36",
        "addr:postcode": "IM1 2LB",
        "addr:street": "Victoria Street",
        "building": "retail",
        "building:colour": "lightblue",
        "building:levels": "3",
        "building:material": "plaster",
        "name": "Harmony Homes",
        "office": "estate_agent",
        "phone": "+44 1624 616200",
        "roof:levels": "1",
        "shop": "estate_agent",
        "website": "https://www.harmonyhomes.co.im"
      }
    },
    {
      "type": "Feature",
      "id": 419950953,
      "geometry": {
        "type": "LineString",
        "coordinates": [
          [
            -4.480192,
            54.14882
          ],
          [
            -4.480182,
            54.148705
          ],
          [
            -4.480422,
            54.148699
          ],
          [
            -4.480431,
            54.148815
          ],
          [
            -4.480192,
            54.14882
          ]
        ]
      },
      "properties": {
        "addr:city": "Douglas",
        "addr:housenumber": "30",
        "addr:postcode": "IM1 1EL",
        "addr:street": "Ridgeway Street",
        "building": "office",
        "building:colour": "white",
        "building:levels": "3",
        "name": "Quinn Legal",
        "office": "lawyer",
        "source": "Bing;photograph",
        "website": "https://www.quinnlegal.im"
      }
    },
    {
      "type": "Feature",
      "id": 419950954,
      "geometry": {
        "type": "LineString",
        "coordinates": [
          [
            -4.480192,
            54.14882
          ],
          [
            -4.480431,
            54.148815
          ],
          [
            -4.480439,
            54.148922
          ],
          [
            -4.480415,
            54.148934
          ],
          [
            -4.480145,
            54.148942
          ],
          [
            -4.480138,
            54.148824
          ],
          [
            -4.480192,
            54.14882
          ]
        ]
      },
      "properties": {
        "addr:city": "Douglas",
        "addr:housename": "Ridgeway House",
        "addr:postcode": "IM1 1EL",
        "addr:street": "Ridgeway Street",
        "architect": "Frank Laidman Heslop",
        "building": "office",
        "building:levels": "3",
        "building:material": "brick",
        "building:start_date": "1895",
        "listed_status": "Registered",
        "name": "Simcocks Advocates",
        "office": "lawyer",
        "old_name": "The Ridgeway Hotel",
        "ref:registered_building": "226",
        "roof:levels": "1",
        "roof:material": "slate",
        "source": "Bing;photograph",
        "url:registered_building": "https://www.gov.im/media/632459/0500226regbldridgewayhouse.pdf",
        "website": "https://www.simcocks.com",
        "wikidata": "Q118188690"
      }
    },
    {
      "type": "Feature",
      "id": 420023857,
      "geometry": {
        "type": "LineString",
        "coordinates": [
          [
            -4.480531,
            54.150287
          ],
          [
            -4.480699,
            54.150226
          ],
          [
            -4.480834,
            54.150345
          ],
          [
            -4.480672,
            54.150406
          ],
          [
            -4.480531,
            54.150287
          ]
        ]
      },
      "properties": {
        "addr:city": "Douglas",
        "addr:housename": "Victory House",
        "addr:postcode": "IM1 1EQ",
        "addr:street": "Prospect Hill",
        "name": "Rossborough Insurance",
        "office": "insurance",
        "phone": "+44 1624 631631",
        "website": "https://www.rossborough.co.uk"
      }
    },
    {
      "type": "Feature",
      "id": 420028934,
      "geometry": {
        "type": "LineString",
        "coordinates": [
          [
            -4.479987,
            54.14904
          ],
          [
            -4.479961,
            54.14916
          ],
          [
            -4.479845,
            54.14916
          ],
          [
            -4.479868,
            54.149035
          ],
          [
            -4.479987,
            54.14904
          ]
        ]
      },
      "properties": {
        "addr:country": "IM",
        "addr:housenumber": "51",
        "addr:postcode": "IM1 2LD",
        "addr:street": "Victoria Street",
        "building": "office",
        "building:colour": "slategrey",
        "building:levels": "4",
        "building:material": "plaster",
        "name": "Black Grace Cowley",
        "office": "estate_agent",
        "shop": "estate_agent",
        "website": "https://www.blackgracecowley.com/"
      }
    },
    {
      "type": "Feature",
      "id": 420028935,
      "geometry": {
        "type": "LineString",
        "coordinates": [
          [
            -4.480201,
            54.149164
          ],
          [
            -4.480117,
            54.149163
          ],
          [
            -4.480139,
            54.14902
          ],
          [
            -4.480223,
            54.14902
          ],
          [
            -4.480201,
            54.149164
          ]
        ]
      },
      "properties": {
        "building": "retail",
        "building:colour": "white",
        "building:levels": "4",
        "building:material": "plaster",
        "name": "Carter Moon",
        "office": "estate_agent",
        "shop": "estate_agent"
      }
    },
    {
      "type": "Feature",
      "id": 420028937,
      "geometry": {
        "type": "LineString",
        "coordinates": [
          [
            -4.479066,
            54.149196
          ],
          [
            -4.479085,
            54.149059
          ],
          [
            -4.479007,
            54.149049
          ],
          [
            -4.478987,
            54.149132
          ],
          [
            -4.47897,
            54.149204
          ],
          [
            -4.479066,
            54.149196
          ]
        ]
      },
      "properties": {
        "addr:city": "Douglas",
        "addr:country": "IM",
        "addr:housenumber": "37",
        "addr:postcode": "IM1 2LF",
        "addr:street": "Victoria Street",
        "name": "Dean Wood",
        "office": "estate_agent",
        "shop": "estate_agent",
        "source": "survey"
      }
    },
    {
      "type": "Feature",
      "id": 420028941,
      "geometry": {
        "type": "LineString",
        "coordinates": [
          [
            -4.479167,
            54.149187
          ],
          [
            -4.479397,
            54.149165
          ],
          [
            -4.479414,
            54.149149
          ],
          [
            -4.479402,
            54.149073
          ],
          [
            -4.479448,
            54.148969
          ],
          [
            -4.479087,
            54.14891
          ],
          [
            -4.479042,
            54.148996
          ],
          [
            -4.479051,
            54.149029
          ],
          [
            -4.479164,
            54.149051
          ],
          [
            -4.479162,
            54.149069
          ],
          [
            -4.479167,
            54.149187
          ]
        ]
      },
      "properties": {
        "addr:city": "Douglas",
        "addr:country": "IM",
        "addr:housename": "Queen Victoria House",
        "addr:postcode": "IM1 2LF",
        "addr:street": "Victoria Street",
        "building": "office",
        "building:levels": "5",
        "building:material": "plaster",
        "name": "Eagle Labs",
        "office": "coworking",
        "source": "survey"
      }
    },
    {
      "type": "Feature",
      "id": 420028944,
      "geometry": {
        "type": "LineString",
        "coordinates": [
          [
            -4.479845,
            54.14916
          ],
          [
            -4.479741,
            54.14916
          ],
          [
            -4.479754,
            54.149071
          ],
          [
            -4.479762,
            54.149013
          ],
          [
            -4.479875,
            54.149014
          ],
          [
            -4.479868,
            54.149035
          ],
          [
            -4.479845,
            54.14916
          ]
        ]
      },
      "properties": {
        "building": "office",
        "building:colour": "yellow",
        "building:levels": "4",
        "building:material": "plaster",
        "description": "\"Advocates, solicitors, notaries\"",
        "name": "Mann Benham",
        "office": "lawyer"
      }
    },
    {
      "type": "Feature",
      "id": 438332578,
      "geometry": {
        "type": "LineString",
        "coordinates": [
          [
            -4.45672,
            54.166951
          ],
          [
            -4.456783,
            54.166954
          ],
          [
            -4.456789,
            54.166909
          ],
          [
            -4.456726,
            54.166906
          ],
          [
            -4.45672,
            54.166951
          ]
        ]
      },
      "properties": {
        "building": "yes",
        "name": "Top Of Yard Office",
        "office": "public_transport",
        "smoking": "isolated"
      }
    },
    {
      "type": "Feature",
      "id": 472076520,
      "geometry": {
        "type": "LineString",
        "coordinates": [
          [
            -4.481304,
            54.152885
          ],
          [
            -4.481163,
            54.152846
          ],
          [
            -4.48121,
            54.152781
          ],
          [
            -4.481237,
            54.152743
          ],
          [
            -4.481385,
            54.152788
          ],
          [
            -4.481304,
            54.152885
          ]
        ]
      },
      "properties": {
        "addr:city": "Douglas",
        "addr:country": "IM",
        "addr:housename": "Removal House",
        "addr:housenumber": "39",
        "addr:postcode": "IM1 2PW",
        "addr:street": "Finch Road",
        "building": "yes",
        "contact:email": "coroner@coronerofmiddle.com",
        "contact:fax": "+44 7092 136805",
        "contact:phone": "+44 1624 612130",
        "contact:website": "http://coronerofmiddle.com/",
        "government": "coroner",
        "name": "Coroner of Middle",
        "office": "government",
        "opening_hours": "Mo-Fr 09:00-16:00",
        "source": "Isle of Man Government aerial imagery (2001);survey"
      }
    },
    {
      "type": "Feature",
      "id": 532705196,
      "geometry": {
        "type": "LineString",
        "coordinates": [
          [
            -4.536933,
            54.151306
          ],
          [
            -4.536883,
            54.151368
          ],
          [
            -4.536617,
            54.151296
          ],
          [
            -4.536666,
            54.151233
          ],
          [
            -4.536933,
            54.151306
          ]
        ]
      },
      "properties": {
        "addr:city": "Douglas",
        "addr:country": "IM",
        "addr:place": "Eden Business Park",
        "addr:unit": "C5",
        "building": "industrial",
        "name": "Cycle360",
        "office": "yes"
      }
    },
    {
      "type": "Feature",
      "id": 532705201,
      "geometry": {
        "type": "LineString",
        "coordinates": [
          [
            -4.536932,
            54.150917
          ],
          [
            -4.536983,
            54.150852
          ],
          [
            -4.537242,
            54.15092
          ],
          [
            -4.537191,
            54.150985
          ],
          [
            -4.536932,
            54.150917
          ]
        ]
      },
      "properties": {
        "addr:city": "Douglas",
        "addr:country": "IM",
        "addr:place": "Eden Business Park",
        "addr:unit": "D2",
        "building": "industrial",
        "contact:phone": "+44 1624 619032",
        "name": "AllCare",
        "office": "home_care"
      }
    },
    {
      "type": "Feature",
      "id": 540218373,
      "geometry": {
        "type": "LineString",
        "coordinates": [
          [
            -4.652597,
            54.073383
          ],
          [
            -4.652555,
            54.073407
          ],
          [
            -4.652513,
            54.073432
          ],
          [
            -4.65241,
            54.073374
          ],
          [
            -4.652454,
            54.073345
          ],
          [
            -4.652498,
            54.07332
          ],
          [
            -4.652597,
            54.073383
          ]
        ]
      },
      "properties": {
        "addr:city": "Castletown",
        "addr:housenumber": "9",
        "addr:postcode": "IM9 1LF",
        "addr:street": "Castle Street",
        "level": "1",
        "name": "Deanwood",
        "office": "estate_agent",
        "website": "https://www.deanwood.im/"
      }
    },
    {
      "type": "Feature",
      "id": 761468432,
      "geometry": {
        "type": "LineString",
        "coordinates": [
          [
            -4.392265,
            54.362282
          ],
          [
            -4.392156,
            54.362254
          ],
          [
            -4.392195,
            54.362201
          ],
          [
            -4.39231,
            54.362227
          ],
          [
            -4.392265,
            54.362282
          ]
        ]
      },
      "properties": {
        "addr:city": "Bride",
        "addr:housename": "Keeill Ny Magher",
        "addr:postcode": "IM7 4AN",
        "addr:street": "Ballacorey Road",
        "building": "yes",
        "building:levels": "1",
        "name": "Moving Clouds Media",
        "office": "advertising_agency",
        "phone": "+44 7624 402990",
        "website": "http://mcmiom.com"
      }
    },
    {
      "type": "Feature",
      "id": 771983514,
      "geometry": {
        "type": "LineString",
        "coordinates": [
          [
            -4.485584,
            54.149129
          ],
          [
            -4.485669,
            54.149197
          ],
          [
            -4.485764,
            54.149274
          ],
          [
            -4.486154,
            54.149173
          ],
          [
            -4.486228,
            54.149154
          ],
          [
            -4.486252,
            54.14914
          ],
          [
            -4.486247,
            54.14911
          ],
          [
            -4.485922,
            54.148983
          ],
          [
            -4.485584,
            54.149129
          ]
        ]
      },
      "properties": {
        "building": "yes",
        "name": "IOMA House",
        "office": "yes"
      }
    },
    {
      "type": "Feature",
      "id": 889308852,
      "geometry": {
        "type": "LineString",
        "coordinates": [
          [
            -4.638511,
            54.196345
          ],
          [
            -4.638527,
            54.196369
          ],
          [
            -4.638202,
            54.196407
          ],
          [
            -4.638196,
            54.196389
          ],
          [
            -4.638028,
            54.195901
          ],
          [
            -4.638344,
            54.195865
          ],
          [
            -4.638369,
            54.195953
          ],
          [
            -4.63845,
            54.195946
          ],
          [
            -4.638539,
            54.196084
          ],
          [
            -4.638604,
            54.196131
          ],
          [
            -4.638657,
            54.196214
          ],
          [
            -4.638645,
            54.196271
          ],
          [
            -4.638491,
            54.196288
          ],
          [
            -4.638511,
            54.196345
          ]
        ]
      },
      "properties": {
        "addr:city": "St John's",
        "addr:country": "IM",
        "addr:housename": "Thie Slieau Whallian",
        "addr:postcode": "IM4 3AS",
        "addr:street": "Foxdale Road",
        "building": "yes",
        "government": "environment;forestry;food;agriculture;fisheries;public_safety",
        "name": "DEFA Headquarters",
        "office": "government",
        "website": "https://www.gov.im/about-the-government/departments/environment-food-and-agriculture/defa-headquarters-thie-slieau-whallian/"
      }
    },
    {
      "type": "Feature",
      "id": 959793233,
      "geometry": {
        "type": "LineString",
        "coordinates": [
          [
            -4.48694,
            54.149703
          ],
          [
            -4.486919,
            54.149719
          ],
          [
            -4.486001,
            54.149869
          ],
          [
            -4.485906,
            54.149787
          ],
          [
            -4.485892,
            54.149766
          ],
          [
            -4.485873,
            54.149762
          ],
          [
            -4.485858,
            54.149751
          ],
          [
            -4.485859,
            54.149735
          ],
          [
            -4.485872,
            54.149722
          ],
          [
            -4.485852,
            54.149696
          ],
          [
            -4.485852,
            54.149672
          ],
          [
            -4.48588,
            54.14965
          ],
          [
            -4.48623,
            54.149568
          ],
          [
            -4.486225,
            54.149559
          ],
          [
            -4.486318,
            54.149543
          ],
          [
            -4.486605,
            54.149504
          ],
          [
            -4.486809,
            54.149477
          ],
          [
            -4.486835,
            54.149522
          ],
          [
            -4.486925,
            54.149673
          ],
          [
            -4.48694,
            54.149703
          ]
        ]
      },
      "properties": {
        "addr:city": "Douglas",
        "addr:country": "IM",
        "addr:housenumber": "62",
        "addr:postcode": "IM1 1AE",
        "addr:street": "Circular Road",
        "building": "office",
        "name": "Microgaming",
        "office": "company"
      }
    },
    {
      "type": "Feature",
      "id": 981865614,
      "geometry": {
        "type": "LineString",
        "coordinates": [
          [
            -4.453125,
            54.17583
          ],
          [
            -4.453001,
            54.175887
          ],
          [
            -4.452903,
            54.175812
          ],
          [
            -4.452883,
            54.175797
          ],
          [
            -4.453008,
            54.175741
          ],
          [
            -4.453071,
            54.175789
          ],
          [
            -4.453112,
            54.175821
          ],
          [
            -4.453125,
            54.17583
          ]
        ]
      },
      "properties": {
        "addr:city": "Onchan",
        "addr:housename": "Hawthorn Villa",
        "addr:housenumber": "79",
        "addr:postcode": "IM3 1RD",
        "addr:street": "Onchan Main Road",
        "building": "yes",
        "building:levels": "3",
        "government": "yes",
        "name": "Onchan District Commissioners",
        "office": "government",
        "phone": "+44 1624 675564",
        "website": "https://www.onchan.org.im/"
      }
    },
    {
      "type": "Feature",
      "id": 1011328816,
      "geometry": {
        "type": "LineString",
        "coordinates": [
          [
            -4.496181,
            54.170992
          ],
          [
            -4.49582,
            54.171
          ],
          [
            -4.495812,
            54.170882
          ],
          [
            -4.495804,
            54.170754
          ],
          [
            -4.495796,
            54.170642
          ],
          [
            -4.495788,
            54.170525
          ],
          [
            -4.495779,
            54.170405
          ],
          [
            -4.49614,
            54.170396
          ],
          [
            -4.496149,
            54.170517
          ],
          [
            -4.496158,
            54.170633
          ],
          [
            -4.496164,
            54.170745
          ],
          [
            -4.496173,
            54.170874
          ],
          [
            -4.496181,
            54.170992
          ]
        ]
      },
      "properties": {
        "addr:city": "Tromode",
        "addr:country": "IM",
        "addr:housename": "Sailmaker House",
        "addr:housenumber": "Unit 7",
        "addr:place": "Tromode Estate",
        "addr:postcode": "IM4 4QB",
        "addr:street": "Estate Road",
        "building": "industrial",
        "contact:phone": "+44 1624 695250",
        "contact:website": "https://www.prospero.im/",
        "name": "The Prospero Group",
        "office": "facility_management"
      }
    },
    {
      "type": "Feature",
      "id": 1011328818,
      "geometry": {
        "type": "LineString",
        "coordinates": [
          [
            -4.495806,
            54.170157
          ],
          [
            -4.495841,
            54.170187
          ],
          [
            -4.495716,
            54.17024
          ],
          [
            -4.495619,
            54.170161
          ],
          [
            -4.495749,
            54.17011
          ],
          [
            -4.495806,
            54.170157
          ]
        ]
      },
      "properties": {
        "addr:city": "Tromode",
        "addr:country": "IM",
        "addr:housenumber": "Unit 5",
        "addr:postcode": "IM4 4QB",
        "addr:street": "Carr's Lane",
        "building": "industrial",
        "name": "CCJ Group",
        "office": "construction",
        "website": "https://ccjgroup.co.uk/"
      }
    },
    {
      "type": "Feature",
      "id": 1057981257,
      "geometry": {
        "type": "LineString",
        "coordinates": [
          [
            -4.662332,
            54.207338
          ],
          [
            -4.662368,
            54.207243
          ],
          [
            -4.662141,
            54.207214
          ],
          [
            -4.662107,
            54.207301
          ],
          [
            -4.662201,
            54.207314
          ],
          [
            -4.662196,
            54.207329
          ],
          [
            -4.662252,
            54.207336
          ],
          [
            -4.662255,
            54.207328
          ],
          [
            -4.662332,
            54.207338
          ]
        ]
      },
      "properties": {
        "addr:city": "St Johns",
        "addr:place": "Ballaharra Quarry",
        "addr:postcode": "IM4 3RB",
        "addr:street": "Peel Road",
        "building": "yes",
        "contact:facebook": "https://www.facebook.com/CorlettBuildingMaterials/",
        "name": "Corletts",
        "office": "yes",
        "official_name": "Corlett Building Materials",
        "website": "http://www.corletts.im/"
      }
    },
    {
      "type": "Feature",
      "id": 1126112636,
      "geometry": {
        "type": "LineString",
        "coordinates": [
          [
            -4.404631,
            54.230274
          ],
          [
            -4.404516,
            54.230331
          ],
          [
            -4.404406,
            54.230338
          ],
          [
            -4.404389,
            54.230298
          ],
          [
            -4.40431,
            54.230303
          ],
          [
            -4.404289,
            54.230237
          ],
          [
            -4.40435,
            54.230234
          ],
          [
            -4.404338,
            54.230208
          ],
          [
            -4.404461,
            54.230165
          ],
          [
            -4.404503,
            54.230193
          ],
          [
            -4.404546,
            54.23022
          ],
          [
            -4.404557,
            54.230227
          ],
          [
            -4.404568,
            54.230235
          ],
          [
            -4.404631,
            54.230274
          ]
        ]
      },
      "properties": {
        "addr:city": "Laxey",
        "addr:housename": "Commissioners\u2019 Offices",
        "addr:housenumber": "35",
        "addr:postcode": "IM4 7BG",
        "addr:street": "New Road",
        "building": "yes",
        "government": "yes",
        "name": "Garff Commissioners",
        "office": "government",
        "website": "https://www.garff.im"
      }
    },
    {
      "type": "Feature",
      "id": 1139492307,
      "geometry": {
        "type": "LineString",
        "coordinates": [
          [
            -4.483378,
            54.150779
          ],
          [
            -4.483445,
            54.150728
          ],
          [
            -4.483325,
            54.150673
          ],
          [
            -4.483247,
            54.150634
          ],
          [
            -4.483206,
            54.150663
          ],
          [
            -4.483283,
            54.1507
          ],
          [
            -4.483257,
            54.150719
          ],
          [
            -4.483378,
            54.150779
          ]
        ]
      },
      "properties": {
        "addr:city": "Douglas",
        "addr:housename": "Alma House",
        "addr:housenumber": "7",
        "addr:postcode": "IM1 1AF",
        "addr:street": "Circular Road",
        "building": "yes",
        "name": "OrmCo",
        "office": "accountant",
        "website": "https://ormcoaccounts.com/"
      }
    },
    {
      "type": "Feature",
      "id": 1139492308,
      "geometry": {
        "type": "LineString",
        "coordinates": [
          [
            -4.483445,
            54.150728
          ],
          [
            -4.48351,
            54.15068
          ],
          [
            -4.483387,
            54.150625
          ],
          [
            -4.483325,
            54.150673
          ],
          [
            -4.483445,
            54.150728
          ]
        ]
      },
      "properties": {
        "addr:city": "Douglas",
        "addr:housenumber": "9",
        "addr:postcode": "IM1 1AF",
        "addr:street": "Circular Road",
        "building": "yes",
        "name": "Carters",
        "office": "lawyer",
        "website": "https://carters.co.im/"
      }
    },
    {
      "type": "Feature",
      "id": 1139492316,
      "geometry": {
        "type": "LineString",
        "coordinates": [
          [
            -4.483978,
            54.149947
          ],
          [
            -4.483925,
            54.150006
          ],
          [
            -4.483781,
            54.149963
          ],
          [
            -4.483822,
            54.149916
          ],
          [
            -4.483882,
            54.149933
          ],
          [
            -4.483892,
            54.149921
          ],
          [
            -4.483978,
            54.149947
          ]
        ]
      },
      "properties": {
        "addr:city": "Douglas",
        "addr:country": "IM",
        "addr:housename": "Hamblin House",
        "addr:housenumber": "5",
        "addr:street": "Upper Church Street",
        "building": "yes",
        "name": "Hamblin",
        "office": "employment_agency"
      }
    },
    {
      "type": "Feature",
      "id": 1139610340,
      "geometry": {
        "type": "LineString",
        "coordinates": [
          [
            -4.487702,
            54.149382
          ],
          [
            -4.487598,
            54.149373
          ],
          [
            -4.487615,
            54.149293
          ],
          [
            -4.487718,
            54.149301
          ],
          [
            -4.487702,
            54.149382
          ]
        ]
      },
      "properties": {
        "addr:city": "Douglas",
        "addr:country": "IM",
        "addr:housename": "Southgate House",
        "addr:housenumber": "89",
        "addr:postcode": "IM1 1AX",
        "addr:street": "Circular Road",
        "building": "yes",
        "name": "Kay Associates",
        "office": "architect",
        "source:addr": "Isle of Man Government Land Registry Land Transactions"
      }
    },
    {
      "type": "Feature",
      "id": 1139610344,
      "geometry": {
        "type": "LineString",
        "coordinates": [
          [
            -4.487143,
            54.149335
          ],
          [
            -4.487042,
            54.149325
          ],
          [
            -4.487076,
            54.14924
          ],
          [
            -4.487165,
            54.149248
          ],
          [
            -4.487143,
            54.149335
          ]
        ]
      },
      "properties": {
        "addr:city": "Douglas",
        "addr:country": "IM",
        "addr:housenumber": "77",
        "addr:postcode": "IM1 1AX",
        "addr:street": "Circular Road",
        "building": "yes",
        "contact:website": "https://smcs.co.im/",
        "name": "Stephen Morley, Chartered Surveyor",
        "office": "surveyor",
        "source:addr": "Isle of Man Government Land Registry Land Transactions"
      }
    },
    {
      "type": "Feature",
      "id": 1139610371,
      "geometry": {
        "type": "LineString",
        "coordinates": [
          [
            -4.486376,
            54.14858
          ],
          [
            -4.486323,
            54.148657
          ],
          [
            -4.486208,
            54.14863
          ],
          [
            -4.486266,
            54.148552
          ],
          [
            -4.486376,
            54.14858
          ]
        ]
      },
      "properties": {
        "addr:city": "Douglas",
        "addr:housenumber": "16",
        "addr:postcode": "IM1 4LR",
        "addr:street": "Peel Road",
        "building": "yes",
        "name": "Wood Law",
        "office": "lawyer",
        "website": "https://www.woodlaw.im"
      }
    },
    {
      "type": "Feature",
      "id": 1139644381,
      "geometry": {
        "type": "LineString",
        "coordinates": [
          [
            -4.482135,
            54.149529
          ],
          [
            -4.482041,
            54.149572
          ],
          [
            -4.481937,
            54.149487
          ],
          [
            -4.482026,
            54.149447
          ],
          [
            -4.482135,
            54.149529
          ]
        ]
      },
      "properties": {
        "addr:city": "Douglas",
        "addr:housenumber": "22",
        "addr:postcode": "IM1 1JA",
        "addr:street": "Athol Street",
        "building": "yes",
        "name": "Ability Plus",
        "office": "employment_agency",
        "website": "https://abilityplus.co.im/"
      }
    },
    {
      "type": "Feature",
      "id": 1140129996,
      "geometry": {
        "type": "LineString",
        "coordinates": [
          [
            -4.48171,
            54.149586
          ],
          [
            -4.481628,
            54.149622
          ],
          [
            -4.481745,
            54.149714
          ],
          [
            -4.481826,
            54.14968
          ],
          [
            -4.48171,
            54.149586
          ]
        ]
      },
      "properties": {
        "addr:country": "IM",
        "addr:housename": "Victoria Court",
        "addr:housenumber": "16",
        "addr:street": "Athol Street",
        "building": "yes",
        "name": "Pringle Law",
        "office": "lawyer",
        "postal_code": "IM1 1JA",
        "source": "Isle of Man Government aerial imagery (2001)",
        "website": "https://www.pringle-law.com"
      }
    },
    {
      "type": "Feature",
      "id": 1147121332,
      "geometry": {
        "type": "LineString",
        "coordinates": [
          [
            -4.486161,
            54.160234
          ],
          [
            -4.485915,
            54.160159
          ],
          [
            -4.486007,
            54.160056
          ],
          [
            -4.486142,
            54.160098
          ],
          [
            -4.486106,
            54.160137
          ],
          [
            -4.486218,
            54.160171
          ],
          [
            -4.486161,
            54.160234
          ]
        ]
      },
      "properties": {
        "building": "yes",
        "name": "Bourne House",
        "office": "adoption_agency",
        "operator": "The Children's Centre",
        "source": "streetside"
      }
    },
    {
      "type": "Feature",
      "id": 1148598277,
      "geometry": {
        "type": "LineString",
        "coordinates": [
          [
            -4.51831,
            54.169098
          ],
          [
            -4.518133,
            54.169039
          ],
          [
            -4.518073,
            54.1691
          ],
          [
            -4.518111,
            54.169113
          ],
          [
            -4.518088,
            54.169136
          ],
          [
            -4.518188,
            54.16917
          ],
          [
            -4.5182,
            54.169158
          ],
          [
            -4.518211,
            54.169147
          ],
          [
            -4.518249,
            54.16916
          ],
          [
            -4.51831,
            54.169098
          ]
        ]
      },
      "properties": {
        "addr:city": "Union Mills",
        "addr:housename": "Commissioners Office",
        "addr:postcode": "IM4 4LZ",
        "addr:street": "Close Corran",
        "building": "yes",
        "government": "yes",
        "name": "Braddan Commissioners",
        "name:en": "Braddan Commissioners",
        "name:gv": "Barrante Skylley Vraddan",
        "office": "government",
        "website": "https://www.braddan.im"
      }
    },
    {
      "type": "Feature",
      "id": 1151333076,
      "geometry": {
        "type": "LineString",
        "coordinates": [
          [
            -4.568938,
            54.179208
          ],
          [
            -4.569078,
            54.179098
          ],
          [
            -4.569171,
            54.179139
          ],
          [
            -4.569154,
            54.179152
          ],
          [
            -4.569222,
            54.179182
          ],
          [
            -4.569199,
            54.179201
          ],
          [
            -4.569257,
            54.179226
          ],
          [
            -4.569196,
            54.179273
          ],
          [
            -4.569132,
            54.179245
          ],
          [
            -4.569104,
            54.179267
          ],
          [
            -4.569042,
            54.17924
          ],
          [
            -4.569031,
            54.179249
          ],
          [
            -4.568938,
            54.179208
          ]
        ]
      },
      "properties": {
        "building": "yes",
        "name": "Old Marown School",
        "office": "government",
        "was:amenity": "school"
      }
    },
    {
      "type": "Feature",
      "id": 1155200511,
      "geometry": {
        "type": "LineString",
        "coordinates": [
          [
            -4.49504,
            54.172863
          ],
          [
            -4.494873,
            54.173018
          ],
          [
            -4.49434,
            54.172823
          ],
          [
            -4.494507,
            54.172667
          ],
          [
            -4.494602,
            54.172701
          ],
          [
            -4.494867,
            54.1728
          ],
          [
            -4.49504,
            54.172863
          ]
        ]
      },
      "properties": {
        "addr:city": "Tromode",
        "addr:country": "IM",
        "addr:housenumber": "Unit 18a",
        "addr:place": "Tromode Estate",
        "addr:postcode": "IM4 4QB",
        "addr:street": "Estate Road",
        "building:part": "yes",
        "contact:website": "https://www.coincorner.com/",
        "name": "CoinCorner",
        "office": "company"
      }
    },
    {
      "type": "Feature",
      "id": 1155200512,
      "geometry": {
        "type": "LineString",
        "coordinates": [
          [
            -4.494867,
            54.1728
          ],
          [
            -4.495025,
            54.172655
          ],
          [
            -4.494759,
            54.172556
          ],
          [
            -4.494602,
            54.172701
          ],
          [
            -4.494867,
            54.1728
          ]
        ]
      },
      "properties": {
        "addr:city": "Tromode",
        "addr:country": "IM",
        "addr:housename": "Design House",
        "addr:housenumber": "Unit 18b",
        "addr:place": "Tromode Estate",
        "addr:postcode": "IM4 4RG",
        "addr:street": "Estate Road",
        "building:part": "yes",
        "contact:phone": "+44 1624 616939",
        "contact:website": "https://desconltd.com/",
        "name": "Descon",
        "office": "company"
      }
    },
    {
      "type": "Feature",
      "id": 1155200514,
      "geometry": {
        "type": "LineString",
        "coordinates": [
          [
            -4.494835,
            54.173348
          ],
          [
            -4.494653,
            54.17335
          ],
          [
            -4.494648,
            54.173229
          ],
          [
            -4.494831,
            54.173227
          ],
          [
            -4.494835,
            54.173348
          ]
        ]
      },
      "properties": {
        "addr:city": "Tromode",
        "addr:country": "IM",
        "addr:housenumber": "Unit 17a",
        "addr:postcode": "IM4 4RG",
        "addr:street": "Estate Road",
        "building:part": "yes",
        "contact:phone": "+44 1624 610200",
        "contact:website": "https://www.mbs.im/",
        "name": "Manx Business Solutions",
        "office": "it"
      }
    },
    {
      "type": "Feature",
      "id": 1155200515,
      "geometry": {
        "type": "LineString",
        "coordinates": [
          [
            -4.494653,
            54.17335
          ],
          [
            -4.494478,
            54.173352
          ],
          [
            -4.494472,
            54.173232
          ],
          [
            -4.494553,
            54.17323
          ],
          [
            -4.494648,
            54.173229
          ],
          [
            -4.494653,
            54.17335
          ]
        ]
      },
      "properties": {
        "addr:city": "Tromode",
        "addr:country": "IM",
        "addr:housenumber": "Unit 17b",
        "addr:postcode": "IM4 4RG",
        "addr:street": "Estate Road",
        "building:part": "yes",
        "contact:website": "https://www.antelle.com/",
        "name": "Antelle",
        "office": "it"
      }
    },
    {
      "type": "Feature",
      "id": 1155200516,
      "geometry": {
        "type": "LineString",
        "coordinates": [
          [
            -4.494551,
            54.173177
          ],
          [
            -4.494349,
            54.17318
          ],
          [
            -4.494345,
            54.173075
          ],
          [
            -4.494546,
            54.173072
          ],
          [
            -4.494551,
            54.173177
          ]
        ]
      },
      "properties": {
        "addr:city": "Tromode",
        "addr:country": "IM",
        "addr:housenumber": "Unit 17d",
        "addr:place": "Tromode Estate",
        "addr:street": "Estate Road",
        "building:part": "yes",
        "contact:website": "https://ashgrove.im/",
        "name": "Ashgrove Marketing",
        "office": "advertising_agency"
      }
    },
    {
      "type": "Feature",
      "id": 1155200517,
      "geometry": {
        "type": "LineString",
        "coordinates": [
          [
            -4.494551,
            54.173177
          ],
          [
            -4.494349,
            54.17318
          ],
          [
            -4.494357,
            54.173354
          ],
          [
            -4.494478,
            54.173352
          ],
          [
            -4.494472,
            54.173232
          ],
          [
            -4.494553,
            54.17323
          ],
          [
            -4.494551,
            54.173177
          ]
        ]
      },
      "properties": {
        "addr:city": "Tromode",
        "addr:country": "IM",
        "addr:housenumber": "Unit 17c",
        "addr:place": "Tromode Estate",
        "addr:postcode": "IM4 4RG",
        "addr:street": "Estate Road",
        "building:part": "yes",
        "name": "ARC Help@Home",
        "office": "home_care"
      }
    },
    {
      "type": "Feature",
      "id": 1155200518,
      "geometry": {
        "type": "LineString",
        "coordinates": [
          [
            -4.495303,
            54.17323
          ],
          [
            -4.495629,
            54.173272
          ],
          [
            -4.495587,
            54.173385
          ],
          [
            -4.495261,
            54.173343
          ],
          [
            -4.495303,
            54.17323
          ]
        ]
      },
      "properties": {
        "addr:city": "Tromode",
        "addr:country": "IM",
        "addr:housenumber": "Unit 15e",
        "addr:place": "Tromode Estate",
        "addr:postcode": "IM4 4RG",
        "addr:street": "Estate Road",
        "building:part": "yes",
        "contact:phone": "+44 1624 664500",
        "name": "IT Works",
        "office": "it"
      }
    },
    {
      "type": "Feature",
      "id": 1155200520,
      "geometry": {
        "type": "LineString",
        "coordinates": [
          [
            -4.495429,
            54.172891
          ],
          [
            -4.495387,
            54.173004
          ],
          [
            -4.495713,
            54.173046
          ],
          [
            -4.495755,
            54.172932
          ],
          [
            -4.495429,
            54.172891
          ]
        ]
      },
      "properties": {
        "addr:city": "Tromode",
        "addr:country": "IM",
        "addr:housenumber": "Unit 15b",
        "addr:place": "Tromode Estate",
        "addr:street": "Estate Road",
        "building:part": "yes",
        "contact:phone": "+44 1624 621042",
        "name": "Quiggan & Cubbon",
        "office": "construction"
      }
    },
    {
      "type": "Feature",
      "id": 1158017760,
      "geometry": {
        "type": "LineString",
        "coordinates": [
          [
            -4.483026,
            54.158783
          ],
          [
            -4.482975,
            54.15884
          ],
          [
            -4.482933,
            54.158888
          ],
          [
            -4.482859,
            54.158865
          ],
          [
            -4.482911,
            54.158805
          ],
          [
            -4.482952,
            54.15876
          ],
          [
            -4.483026,
            54.158783
          ]
        ]
      },
      "properties": {
        "addr:city": "Douglas",
        "addr:country": "IM",
        "addr:housenumber": "2",
        "addr:street": "Farrant Street",
        "building": "yes",
        "contact:facebook": "https://www.facebook.com/ProSearchltd/",
        "name": "ProSearch",
        "office": "property_management",
        "website": "http://www.prosearch.co.im"
      }
    },
    {
      "type": "Feature",
      "id": 1160687644,
      "geometry": {
        "type": "LineString",
        "coordinates": [
          [
            -4.41163,
            54.327711
          ],
          [
            -4.411362,
            54.328382
          ],
          [
            -4.410541,
            54.328129
          ],
          [
            -4.410214,
            54.328065
          ],
          [
            -4.409924,
            54.328148
          ],
          [
            -4.409849,
            54.328249
          ],
          [
            -4.409565,
            54.328227
          ],
          [
            -4.408734,
            54.328169
          ],
          [
            -4.409155,
            54.327669
          ],
          [
            -4.408406,
            54.327367
          ],
          [
            -4.409531,
            54.32652
          ],
          [
            -4.409967,
            54.32652
          ],
          [
            -4.410847,
            54.326845
          ],
          [
            -4.411011,
            54.327006
          ],
          [
            -4.410496,
            54.327829
          ],
          [
            -4.411011,
            54.327985
          ],
          [
            -4.411241,
            54.32765
          ],
          [
            -4.41163,
            54.327711
          ]
        ]
      },
      "properties": {
        "addr:city": "Lezayre",
        "addr:postcode": "IM7 2DZ",
        "addr:street": "Jurby Road",
        "amenity": "cafe;kindergarten",
        "landuse": "commercial",
        "name": "Mountain View Innovation Centre",
        "office": "rental",
        "phone": "+44 1624 811700",
        "website": "https://www.mvic.im/"
      }
    },
    {
      "type": "Feature",
      "id": 1182768520,
      "geometry": {
        "type": "LineString",
        "coordinates": [
          [
            -4.523523,
            54.169244
          ],
          [
            -4.523549,
            54.169192
          ],
          [
            -4.523615,
            54.169203
          ],
          [
            -4.523932,
            54.169258
          ],
          [
            -4.523906,
            54.16931
          ],
          [
            -4.523523,
            54.169244
          ]
        ]
      },
      "properties": {
        "addr:city": "Union Mills",
        "addr:country": "IM",
        "addr:place": "Union Mills Industrial Estate",
        "addr:unit": "1",
        "building": "industrial",
        "contact:email": "info@landtec.im",
        "contact:phone": "+44 1624 852989",
        "contact:website": "https://landtec.im/",
        "name": "Land-tec Landscaping Services Ltd",
        "office": "landscape_gardener",
        "source": "Isle of Man Government aerial imagery (2001)"
      }
    },
    {
      "type": "Feature",
      "id": 1194879904,
      "geometry": {
        "type": "LineString",
        "coordinates": [
          [
            -4.694985,
            54.222793
          ],
          [
            -4.694895,
            54.222801
          ],
          [
            -4.694878,
            54.222737
          ],
          [
            -4.694969,
            54.222729
          ],
          [
            -4.694985,
            54.222793
          ]
        ]
      },
      "properties": {
        "addr:city": "Peel",
        "addr:country": "IM",
        "addr:housenumber": "3",
        "addr:street": "Michael Street",
        "building": "yes",
        "name": "Cains Gordon Bell",
        "office": "lawyer"
      }
    },
    {
      "type": "Feature",
      "id": 1205045456,
      "geometry": {
        "type": "LineString",
        "coordinates": [
          [
            -4.53153,
            54.154868
          ],
          [
            -4.531402,
            54.15484
          ],
          [
            -4.531275,
            54.154813
          ],
          [
            -4.531379,
            54.154646
          ],
          [
            -4.531508,
            54.154672
          ],
          [
            -4.531636,
            54.154699
          ],
          [
            -4.53153,
            54.154868
          ]
        ]
      },
      "properties": {
        "addr:city": "Douglas",
        "addr:country": "IM",
        "addr:place": "Isle of Man Business Park",
        "addr:unit": "31-32",
        "name": "Star Services Ltd",
        "office": "yes"
      }
    },
    {
      "type": "Feature",
      "id": 1205045460,
      "geometry": {
        "type": "LineString",
        "coordinates": [
          [
            -4.531019,
            54.154758
          ],
          [
            -4.530891,
            54.15473
          ],
          [
            -4.530994,
            54.154567
          ],
          [
            -4.531122,
            54.154593
          ],
          [
            -4.531019,
            54.154758
          ]
        ]
      },
      "properties": {
        "addr:city": "Douglas",
        "addr:country": "IM",
        "addr:place": "Isle of Man Business Park",
        "addr:unit": "35",
        "building": "industrial",
        "name": "Gasmann",
        "office": "yes"
      }
    },
    {
      "type": "Feature",
      "id": 1205045461,
      "geometry": {
        "type": "LineString",
        "coordinates": [
          [
            -4.530891,
            54.15473
          ],
          [
            -4.530763,
            54.154703
          ],
          [
            -4.530866,
            54.15454
          ],
          [
            -4.530994,
            54.154567
          ],
          [
            -4.530891,
            54.15473
          ]
        ]
      },
      "properties": {
        "addr:city": "Douglas",
        "addr:country": "IM",
        "addr:place": "Isle of Man Business Park",
        "addr:unit": "36",
        "building": "industrial",
        "name": "Gregg Memorials",
        "office": "yes"
      }
    },
    {
      "type": "Feature",
      "id": 1205089446,
      "geometry": {
        "type": "LineString",
        "coordinates": [
          [
            -4.536367,
            54.150367
          ],
          [
            -4.536314,
            54.150432
          ],
          [
            -4.536261,
            54.150497
          ],
          [
            -4.536584,
            54.150586
          ],
          [
            -4.536635,
            54.150521
          ],
          [
            -4.536687,
            54.150456
          ],
          [
            -4.536367,
            54.150367
          ]
        ]
      },
      "properties": {
        "name": "Crossroads",
        "office": "home_care"
      }
    },
    {
      "type": "Feature",
      "id": 1205089449,
      "geometry": {
        "type": "LineString",
        "coordinates": [
          [
            -4.536261,
            54.150497
          ],
          [
            -4.536209,
            54.150562
          ],
          [
            -4.536533,
            54.150651
          ],
          [
            -4.536584,
            54.150586
          ],
          [
            -4.536261,
            54.150497
          ]
        ]
      },
      "properties": {
        "addr:city": "Douglas",
        "addr:country": "IM",
        "addr:place": "Eden Business Park",
        "addr:unit": "B4",
        "building": "industrial",
        "contact:phone": "+44 1624 623979",
        "name": "CleerVu",
        "office": "yes"
      }
    },
    {
      "type": "Feature",
      "id": 1205089450,
      "geometry": {
        "type": "LineString",
        "coordinates": [
          [
            -4.536209,
            54.150562
          ],
          [
            -4.536156,
            54.150627
          ],
          [
            -4.536481,
            54.150716
          ],
          [
            -4.536533,
            54.150651
          ],
          [
            -4.536209,
            54.150562
          ]
        ]
      },
      "properties": {
        "addr:city": "Douglas",
        "addr:country": "IM",
        "addr:place": "Eden Business Park",
        "addr:unit": "B3",
        "building": "industrial",
        "contact:phone": "+44 1624 671121",
        "contact:website": "https://technaut.im/",
        "name": "Technaut",
        "office": "it"
      }
    },
    {
      "type": "Feature",
      "id": 1205089463,
      "geometry": {
        "type": "LineString",
        "coordinates": [
          [
            -4.536666,
            54.151233
          ],
          [
            -4.536715,
            54.151171
          ],
          [
            -4.536982,
            54.151244
          ],
          [
            -4.536933,
            54.151306
          ],
          [
            -4.536666,
            54.151233
          ]
        ]
      },
      "properties": {
        "addr:city": "Douglas",
        "addr:country": "IM",
        "addr:place": "Eden Business Park",
        "addr:unit": "C6",
        "building": "industrial",
        "contact:phone": "+44 1624 625856",
        "contact:website": "https://www.ardern-druggan.co.uk/",
        "name": "Ardern & Druggan Ltd",
        "office": "trade",
        "trade": "elecrician"
      }
    },
    {
      "type": "Feature",
      "id": 1205089466,
      "geometry": {
        "type": "LineString",
        "coordinates": [
          [
            -4.536784,
            54.151493
          ],
          [
            -4.536735,
            54.151555
          ],
          [
            -4.536468,
            54.151483
          ],
          [
            -4.536518,
            54.15142
          ],
          [
            -4.536784,
            54.151493
          ]
        ]
      },
      "properties": {
        "addr:city": "Douglas",
        "addr:country": "IM",
        "addr:place": "Eden Business Park",
        "addr:unit": "C2",
        "building": "industrial",
        "contact:email": "therapawsiom@gmail.com",
        "contact:facebook": "Therapawsiom",
        "contact:phone": "+44 7624 206850",
        "name": "Therapaws",
        "office": "yes"
      }
    },
    {
      "type": "Feature",
      "id": 1217588923,
      "geometry": {
        "type": "LineString",
        "coordinates": [
          [
            -4.52834,
            54.151344
          ],
          [
            -4.528166,
            54.151477
          ],
          [
            -4.528018,
            54.15141
          ],
          [
            -4.528192,
            54.151277
          ],
          [
            -4.52834,
            54.151344
          ]
        ]
      },
      "properties": {
        "addr:city": "Douglas",
        "addr:country": "IM",
        "addr:place": "Spring Valley Industrial Estate",
        "addr:unit": "31",
        "building": "industrial",
        "name": "Pacesetter",
        "office": "ceramic",
        "source": "Isle of Man Government aerial imagery (2001)"
      }
    },
    {
      "type": "Feature",
      "id": 1217588929,
      "geometry": {
        "type": "LineString",
        "coordinates": [
          [
            -4.526878,
            54.150603
          ],
          [
            -4.527075,
            54.150695
          ],
          [
            -4.526837,
            54.150871
          ],
          [
            -4.526639,
            54.150779
          ],
          [
            -4.526878,
            54.150603
          ]
        ]
      },
      "properties": {
        "addr:city": "Douglas",
        "addr:country": "IM",
        "addr:place": "Spring Valley Industrial Estate",
        "addr:unit": "11",
        "building": "industrial",
        "name": "Assystems;Expleo",
        "office": "aeronautical",
        "source": "Isle of Man Government aerial imagery (2001)"
      }
    },
    {
      "type": "Feature",
      "id": 1217588931,
      "geometry": {
        "type": "LineString",
        "coordinates": [
          [
            -4.526265,
            54.150604
          ],
          [
            -4.526094,
            54.150524
          ],
          [
            -4.526152,
            54.150481
          ],
          [
            -4.526332,
            54.150349
          ],
          [
            -4.526504,
            54.150429
          ],
          [
            -4.526265,
            54.150604
          ]
        ]
      },
      "properties": {
        "addr:city": "Douglas",
        "addr:country": "IM",
        "addr:place": "Spring Valley Industrial Estate",
        "addr:unit": "5",
        "building": "industrial",
        "name": "NK Construction",
        "office": "construction",
        "source": "Isle of Man Government aerial imagery (2001)"
      }
    },
    {
      "type": "Feature",
      "id": 1217588933,
      "geometry": {
        "type": "LineString",
        "coordinates": [
          [
            -4.528018,
            54.15141
          ],
          [
            -4.527874,
            54.151346
          ],
          [
            -4.528104,
            54.15117
          ],
          [
            -4.528247,
            54.151235
          ],
          [
            -4.528192,
            54.151277
          ],
          [
            -4.528018,
            54.15141
          ]
        ]
      },
      "properties": {
        "addr:city": "Douglas",
        "addr:country": "IM",
        "addr:place": "Spring Valley Industrial Estate",
        "addr:unit": "29",
        "building": "industrial",
        "name": "Wiltshire Farm Foods",
        "office": "food_supplier",
        "source": "Isle of Man Government aerial imagery (2001)"
      }
    },
    {
      "type": "Feature",
      "id": 1217889321,
      "geometry": {
        "type": "LineString",
        "coordinates": [
          [
            -4.526797,
            54.151784
          ],
          [
            -4.52664,
            54.151901
          ],
          [
            -4.526346,
            54.151765
          ],
          [
            -4.526503,
            54.151648
          ],
          [
            -4.526797,
            54.151784
          ]
        ]
      },
      "properties": {
        "addr:city": "Douglas",
        "addr:country": "IM",
        "addr:place": "Spring Valley Industrial Estate",
        "addr:unit": "48e",
        "building": "industrial",
        "name": "Island Express",
        "office": "logistics",
        "source": "Isle of Man Government aerial imagery (2001)"
      }
    },
    {
      "type": "Feature",
      "id": 1217889454,
      "geometry": {
        "type": "LineString",
        "coordinates": [
          [
            -4.526126,
            54.1524
          ],
          [
            -4.526234,
            54.152321
          ],
          [
            -4.526342,
            54.152243
          ],
          [
            -4.526051,
            54.152106
          ],
          [
            -4.525943,
            54.152184
          ],
          [
            -4.525836,
            54.152262
          ],
          [
            -4.526126,
            54.1524
          ]
        ]
      },
      "properties": {
        "government": "public_service",
        "name": "Public Record Office",
        "office": "government",
        "source": "Isle of Man Government aerial imagery (2001)",
        "website": "https://www.gov.im/pro"
      }
    },
    {
      "type": "Feature",
      "id": 1270919366,
      "geometry": {
        "type": "LineString",
        "coordinates": [
          [
            -4.475514,
            54.169624
          ],
          [
            -4.475746,
            54.169979
          ],
          [
            -4.475576,
            54.170017
          ],
          [
            -4.47557,
            54.170008
          ],
          [
            -4.475357,
            54.170056
          ],
          [
            -4.475363,
            54.170065
          ],
          [
            -4.475256,
            54.170088
          ],
          [
            -4.47525,
            54.17008
          ],
          [
            -4.475129,
            54.170107
          ],
          [
            -4.47514,
            54.170124
          ],
          [
            -4.474944,
            54.170167
          ],
          [
            -4.474868,
            54.17005
          ],
          [
            -4.475071,
            54.170005
          ],
          [
            -4.475088,
            54.170031
          ],
          [
            -4.47519,
            54.170008
          ],
          [
            -4.475172,
            54.16998
          ],
          [
            -4.475311,
            54.169949
          ],
          [
            -4.475333,
            54.169982
          ],
          [
            -4.47551,
            54.169942
          ],
          [
            -4.475484,
            54.169902
          ],
          [
            -4.475459,
            54.169907
          ],
          [
            -4.475429,
            54.169862
          ],
          [
            -4.475456,
            54.169856
          ],
          [
            -4.475331,
            54.169665
          ],
          [
            -4.475514,
            54.169624
          ]
        ]
      },
      "properties": {
        "addr:city": "Douglas",
        "addr:postcode": "IM2 6BG",
        "addr:street": "Glencrutchery Road",
        "building": "yes",
        "charity": "yes",
        "name": "St John Ambulance IOM",
        "office": "yes",
        "ref:charity": "1112",
        "website": "https://sja.org.im"
      }
    }
  ]
}